<?xml version="1.0" encoding="UTF-8"?><kml xmlns="http://www.opengis.net/kml/2.2"><Document><name>Cámaras de Tráfico de Granada</name><description>Actualizado el 23/08/2023</description><Style id="icon-1535-4E342E-normal"><IconStyle><color>ff2e344e</color><scale>1</scale><Icon><href>https://www.gstatic.com/mapspro/images/stock/503-wht-blank_maps.png</href></Icon></IconStyle><LabelStyle><scale>0</scale></LabelStyle></Style><Style id="icon-1535-4E342E-highlight"><IconStyle><color>ff2e344e</color><scale>1</scale><Icon><href>https://www.gstatic.com/mapspro/images/stock/503-wht-blank_maps.png</href></Icon></IconStyle><LabelStyle><scale>1</scale></LabelStyle></Style><StyleMap id="icon-1535-4E342E"><Pair><key>normal</key><styleUrl>#icon-1535-4E342E-normal</styleUrl></Pair><Pair><key>highlight</key><styleUrl>#icon-1535-4E342E-highlight</styleUrl></Pair></StyleMap><Folder><name>Cámaras de Tráfico de Granada</name><Placemark><name>Cruz del Sur - Avda. Andalucía</name><description><![CDATA[ID:55<br>ID_CAM:F-01<br>LATITUD:37.18946478<br>LONGITUD:-3.61435599]]></description><styleUrl>#icon-1535-4E342E</styleUrl><ExtendedData><Data name="ID"><value>55.0</value></Data><Data name="ID_CAM"><value>F-01</value></Data><Data name="LATITUD"><value>37.18946478</value></Data><Data name="LONGITUD"><value>-3.61435599</value></Data></ExtendedData><Point><coordinates> -3.61435599,37.18946478,0 </coordinates></Point></Placemark><Placemark><name>Av. de Andalucía,desde Cruz del Sur,dirección Caleta</name><description><![CDATA[ID:56<br>ID_CAM:F-02<br>LATITUD:37.18946323<br>LONGITUD:-3.61434843]]></description><styleUrl>#icon-1535-4E342E</styleUrl><ExtendedData><Data name="ID"><value>56.0</value></Data><Data name="ID_CAM"><value>F-02</value></Data><Data name="LATITUD"><value>37.18946323</value></Data><Data name="LONGITUD"><value>-3.61434843</value></Data></ExtendedData><Point><coordinates> -3.61434843,37.18946323,0 </coordinates></Point></Placemark><Placemark><name>Pintor Francisco Pradilla,desde Cruz del Sur</name><description><![CDATA[ID:57<br>ID_CAM:F-03<br>LATITUD:37.18946861<br>LONGITUD:-3.61435241]]></description><styleUrl>#icon-1535-4E342E</styleUrl><ExtendedData><Data name="ID"><value>57.0</value></Data><Data name="ID_CAM"><value>F-03</value></Data><Data name="LATITUD"><value>37.18946861</value></Data><Data name="LONGITUD"><value>-3.61435241</value></Data></ExtendedData><Point><coordinates> -3.61435241,37.18946861,0 </coordinates></Point></Placemark><Placemark><name>Doctor Olóriz,desde Antiguo Los Cármenes</name><description><![CDATA[ID:58<br>ID_CAM:F-07<br>LATITUD:37.19000077<br>LONGITUD:-3.60596564]]></description><styleUrl>#icon-1535-4E342E</styleUrl><ExtendedData><Data name="ID"><value>58.0</value></Data><Data name="ID_CAM"><value>F-07</value></Data><Data name="LATITUD"><value>37.19000077</value></Data><Data name="LONGITUD"><value>-3.60596564</value></Data></ExtendedData><Point><coordinates> -3.60596564,37.19000077,0 </coordinates></Point></Placemark><Placemark><name>Av. de Madrid,desde Antiguo Los Cármenes,dirección Jaén</name><description><![CDATA[ID:59<br>ID_CAM:F-08<br>LATITUD:37.19000753<br>LONGITUD:-3.6059657]]></description><styleUrl>#icon-1535-4E342E</styleUrl><ExtendedData><Data name="ID"><value>59.0</value></Data><Data name="ID_CAM"><value>F-08</value></Data><Data name="LATITUD"><value>37.19000753</value></Data><Data name="LONGITUD"><value>-3.6059657</value></Data></ExtendedData><Point><coordinates> -3.6059657,37.19000753,0 </coordinates></Point></Placemark><Placemark><name>Dr. Severo Ochoa,desde av. de la Constitución</name><description><![CDATA[ID:60<br>ID_CAM:F-09<br>LATITUD:37.18449814<br>LONGITUD:-3.60456182]]></description><styleUrl>#icon-1535-4E342E</styleUrl><ExtendedData><Data name="ID"><value>60.0</value></Data><Data name="ID_CAM"><value>F-09</value></Data><Data name="LATITUD"><value>37.18449814</value></Data><Data name="LONGITUD"><value>-3.60456182</value></Data></ExtendedData><Point><coordinates> -3.60456182,37.18449814,0 </coordinates></Point></Placemark><Placemark><name>Dr. Severo Ochoa,desde Rector López Argüeta</name><description><![CDATA[ID:61<br>ID_CAM:F-10<br>LATITUD:37.18141197<br>LONGITUD:-3.60602102]]></description><styleUrl>#icon-1535-4E342E</styleUrl><ExtendedData><Data name="ID"><value>61.0</value></Data><Data name="ID_CAM"><value>F-10</value></Data><Data name="LATITUD"><value>37.18141197</value></Data><Data name="LONGITUD"><value>-3.60602102</value></Data></ExtendedData><Point><coordinates> -3.60602102,37.18141197,0 </coordinates></Point></Placemark><Placemark><name>Méndez Núñez,desde Arabial,dirección Fuente Nueva</name><description><![CDATA[ID:62<br>ID_CAM:F-11<br>LATITUD:37.17734025<br>LONGITUD:-3.61188532]]></description><styleUrl>#icon-1535-4E342E</styleUrl><ExtendedData><Data name="ID"><value>62.0</value></Data><Data name="ID_CAM"><value>F-11</value></Data><Data name="LATITUD"><value>37.17734025</value></Data><Data name="LONGITUD"><value>-3.61188532</value></Data></ExtendedData><Point><coordinates> -3.61188532,37.17734025,0 </coordinates></Point></Placemark><Placemark><name>Méndez Núñez,desde Arabial,dirección A44</name><description><![CDATA[ID:63<br>ID_CAM:F-12<br>LATITUD:37.17733732<br>LONGITUD:-3.61189294]]></description><styleUrl>#icon-1535-4E342E</styleUrl><ExtendedData><Data name="ID"><value>63.0</value></Data><Data name="ID_CAM"><value>F-12</value></Data><Data name="LATITUD"><value>37.17733732</value></Data><Data name="LONGITUD"><value>-3.61189294</value></Data></ExtendedData><Point><coordinates> -3.61189294,37.17733732,0 </coordinates></Point></Placemark><Placemark><name>Arabial,desde Méndez Núñez,dirección Zaidín</name><description><![CDATA[ID:64<br>ID_CAM:F-13<br>LATITUD:37.17733574<br>LONGITUD:-3.6118873]]></description><styleUrl>#icon-1535-4E342E</styleUrl><ExtendedData><Data name="ID"><value>64.0</value></Data><Data name="ID_CAM"><value>F-13</value></Data><Data name="LATITUD"><value>37.17733574</value></Data><Data name="LONGITUD"><value>-3.6118873</value></Data></ExtendedData><Point><coordinates> -3.6118873,37.17733574,0 </coordinates></Point></Placemark><Placemark><name>Gran Vía,desde Prof. Emilio Orozco,dirección pz. Isabel la Católica</name><description><![CDATA[ID:65<br>ID_CAM:F-14<br>LATITUD:37.18254628<br>LONGITUD:-3.60117352]]></description><styleUrl>#icon-1535-4E342E</styleUrl><ExtendedData><Data name="ID"><value>65.0</value></Data><Data name="ID_CAM"><value>F-14</value></Data><Data name="LATITUD"><value>37.18254628</value></Data><Data name="LONGITUD"><value>-3.60117352</value></Data></ExtendedData><Point><coordinates> -3.60117352,37.18254628,0 </coordinates></Point></Placemark><Placemark><name>Triunfo</name><description><![CDATA[ID:66<br>ID_CAM:F-15<br>LATITUD:37.18255135<br>LONGITUD:-3.60117809]]></description><styleUrl>#icon-1535-4E342E</styleUrl><ExtendedData><Data name="ID"><value>66.0</value></Data><Data name="ID_CAM"><value>F-15</value></Data><Data name="LATITUD"><value>37.18255135</value></Data><Data name="LONGITUD"><value>-3.60117809</value></Data></ExtendedData><Point><coordinates> -3.60117809,37.18255135,0 </coordinates></Point></Placemark><Placemark><name>Gran Vía,desde Cárcel Baja,dirección Triunfo</name><description><![CDATA[ID:67<br>ID_CAM:F-16<br>LATITUD:37.17706875<br>LONGITUD:-3.59833173]]></description><styleUrl>#icon-1535-4E342E</styleUrl><ExtendedData><Data name="ID"><value>67.0</value></Data><Data name="ID_CAM"><value>F-16</value></Data><Data name="LATITUD"><value>37.17706875</value></Data><Data name="LONGITUD"><value>-3.59833173</value></Data></ExtendedData><Point><coordinates> -3.59833173,37.17706875,0 </coordinates></Point></Placemark><Placemark><name>Puerta Real</name><description><![CDATA[ID:68<br>ID_CAM:F-17<br>LATITUD:37.17361104<br>LONGITUD:-3.59979669]]></description><styleUrl>#icon-1535-4E342E</styleUrl><ExtendedData><Data name="ID"><value>68.0</value></Data><Data name="ID_CAM"><value>F-17</value></Data><Data name="LATITUD"><value>37.17361104</value></Data><Data name="LONGITUD"><value>-3.59979669</value></Data></ExtendedData><Point><coordinates> -3.59979669,37.17361104,0 </coordinates></Point></Placemark><Placemark><name>Neptuno,desde Arabial,dirección A44</name><description><![CDATA[ID:69<br>ID_CAM:F-19<br>LATITUD:37.16958163<br>LONGITUD:-3.60716131]]></description><styleUrl>#icon-1535-4E342E</styleUrl><ExtendedData><Data name="ID"><value>69.0</value></Data><Data name="ID_CAM"><value>F-19</value></Data><Data name="LATITUD"><value>37.16958163</value></Data><Data name="LONGITUD"><value>-3.60716131</value></Data></ExtendedData><Point><coordinates> -3.60716131,37.16958163,0 </coordinates></Point></Placemark><Placemark><name>Arabial,desde Neptuno,dirección Virgen Blanca</name><description><![CDATA[ID:70<br>ID_CAM:F-20<br>LATITUD:37.16958786<br>LONGITUD:-3.60716192]]></description><styleUrl>#icon-1535-4E342E</styleUrl><ExtendedData><Data name="ID"><value>70.0</value></Data><Data name="ID_CAM"><value>F-20</value></Data><Data name="LATITUD"><value>37.16958786</value></Data><Data name="LONGITUD"><value>-3.60716192</value></Data></ExtendedData><Point><coordinates> -3.60716192,37.16958786,0 </coordinates></Point></Placemark><Placemark><name>Poeta Manuel de Góngora,desde Paseo del Violón</name><description><![CDATA[ID:71<br>ID_CAM:F-21<br>LATITUD:37.1678738<br>LONGITUD:-3.59623109]]></description><styleUrl>#icon-1535-4E342E</styleUrl><ExtendedData><Data name="ID"><value>71.0</value></Data><Data name="ID_CAM"><value>F-21</value></Data><Data name="LATITUD"><value>37.1678738</value></Data><Data name="LONGITUD"><value>-3.59623109</value></Data></ExtendedData><Point><coordinates> -3.59623109,37.1678738,0 </coordinates></Point></Placemark><Placemark><name>Paseo del Violón,desde Puente Blanco</name><description><![CDATA[ID:72<br>ID_CAM:F-22<br>LATITUD:37.16787377<br>LONGITUD:-3.59623706]]></description><styleUrl>#icon-1535-4E342E</styleUrl><ExtendedData><Data name="ID"><value>72.0</value></Data><Data name="ID_CAM"><value>F-22</value></Data><Data name="LATITUD"><value>37.16787377</value></Data><Data name="LONGITUD"><value>-3.59623706</value></Data></ExtendedData><Point><coordinates> -3.59623706,37.16787377,0 </coordinates></Point></Placemark><Placemark><name>Acera del Darro (Puente del Rio Genil)</name><description><![CDATA[ID:73<br>ID_CAM:F-23<br>LATITUD:37.16787955<br>LONGITUD:-3.59623412]]></description><styleUrl>#icon-1535-4E342E</styleUrl><ExtendedData><Data name="ID"><value>73.0</value></Data><Data name="ID_CAM"><value>F-23</value></Data><Data name="LATITUD"><value>37.16787955</value></Data><Data name="LONGITUD"><value>-3.59623412</value></Data></ExtendedData><Point><coordinates> -3.59623412,37.16787955,0 </coordinates></Point></Placemark><Placemark><name>Paseo de los Basilios,desde Puente Blanco</name><description><![CDATA[ID:74<br>ID_CAM:F-24<br>LATITUD:37.16787858<br>LONGITUD:-3.59623113]]></description><styleUrl>#icon-1535-4E342E</styleUrl><ExtendedData><Data name="ID"><value>74.0</value></Data><Data name="ID_CAM"><value>F-24</value></Data><Data name="LATITUD"><value>37.16787858</value></Data><Data name="LONGITUD"><value>-3.59623113</value></Data></ExtendedData><Point><coordinates> -3.59623113,37.16787858,0 </coordinates></Point></Placemark><Placemark><name>Av. Fernando de los Ríos,desde rotonda Aviación</name><description><![CDATA[ID:75<br>ID_CAM:F-25<br>LATITUD:37.16304037<br>LONGITUD:-3.601480724]]></description><styleUrl>#icon-1535-4E342E</styleUrl><ExtendedData><Data name="ID"><value>75.0</value></Data><Data name="ID_CAM"><value>F-25</value></Data><Data name="LATITUD"><value>37.16304037</value></Data><Data name="LONGITUD"><value>-3.601480724</value></Data></ExtendedData><Point><coordinates> -3.601480724,37.16304037,0 </coordinates></Point></Placemark><Placemark><name>Palencia,desde av. de Dílar</name><description><![CDATA[ID:76<br>ID_CAM:F-26<br>LATITUD:37.16037289<br>LONGITUD:-3.59984756]]></description><styleUrl>#icon-1535-4E342E</styleUrl><ExtendedData><Data name="ID"><value>76.0</value></Data><Data name="ID_CAM"><value>F-26</value></Data><Data name="LATITUD"><value>37.16037289</value></Data><Data name="LONGITUD"><value>-3.59984756</value></Data></ExtendedData><Point><coordinates> -3.59984756,37.16037289,0 </coordinates></Point></Placemark><Placemark><name>Av. de Dílar,desde Palencia,dirección Centro</name><description><![CDATA[ID:77<br>ID_CAM:F-27<br>LATITUD:37.16037747<br>LONGITUD:-3.59984929]]></description><styleUrl>#icon-1535-4E342E</styleUrl><ExtendedData><Data name="ID"><value>77.0</value></Data><Data name="ID_CAM"><value>F-27</value></Data><Data name="LATITUD"><value>37.16037747</value></Data><Data name="LONGITUD"><value>-3.59984929</value></Data></ExtendedData><Point><coordinates> -3.59984929,37.16037747,0 </coordinates></Point></Placemark><Placemark><name>Poeta Manuel de Góngora,desde Pablo Picasso</name><description><![CDATA[ID:78<br>ID_CAM:F-28<br>LATITUD:37.16513021<br>LONGITUD:-3.59398463]]></description><styleUrl>#icon-1535-4E342E</styleUrl><ExtendedData><Data name="ID"><value>78.0</value></Data><Data name="ID_CAM"><value>F-28</value></Data><Data name="LATITUD"><value>37.16513021</value></Data><Data name="LONGITUD"><value>-3.59398463</value></Data></ExtendedData><Point><coordinates> -3.59398463,37.16513021,0 </coordinates></Point></Placemark><Placemark><name>Av. Fernando de los Ríos,desde Emir,dirección Armilla</name><description><![CDATA[ID:79<br>ID_CAM:F-29<br>LATITUD:37.15855852<br>LONGITUD:-3.60727117]]></description><styleUrl>#icon-1535-4E342E</styleUrl><ExtendedData><Data name="ID"><value>79.0</value></Data><Data name="ID_CAM"><value>F-29</value></Data><Data name="LATITUD"><value>37.15855852</value></Data><Data name="LONGITUD"><value>-3.60727117</value></Data></ExtendedData><Point><coordinates> -3.60727117,37.15855852,0 </coordinates></Point></Placemark><Placemark><name>Av. de Pulianas,desde pz. de San Isidro</name><description><![CDATA[ID:80<br>ID_CAM:F-30<br>LATITUD:37.18684974<br>LONGITUD:-3.60367015]]></description><styleUrl>#icon-1535-4E342E</styleUrl><ExtendedData><Data name="ID"><value>80.0</value></Data><Data name="ID_CAM"><value>F-30</value></Data><Data name="LATITUD"><value>37.18684974</value></Data><Data name="LONGITUD"><value>-3.60367015</value></Data></ExtendedData><Point><coordinates> -3.60367015,37.18684974,0 </coordinates></Point></Placemark><Placemark><name>Av. de Madrid,desde pz. de San Isidro,salida de paso subterráneo</name><description><![CDATA[ID:81<br>ID_CAM:F-31<br>LATITUD:37.18684327<br>LONGITUD:-3.60367262]]></description><styleUrl>#icon-1535-4E342E</styleUrl><ExtendedData><Data name="ID"><value>81.0</value></Data><Data name="ID_CAM"><value>F-31</value></Data><Data name="LATITUD"><value>37.18684327</value></Data><Data name="LONGITUD"><value>-3.60367262</value></Data></ExtendedData><Point><coordinates> -3.60367262,37.18684327,0 </coordinates></Point></Placemark><Placemark><name>GR-30,desde Méndez Núñez,dirección Motril</name><description><![CDATA[ID:82<br>ID_CAM:F-33<br>LATITUD:37.17634865<br>LONGITUD:-3.61408297]]></description><styleUrl>#icon-1535-4E342E</styleUrl><ExtendedData><Data name="ID"><value>82.0</value></Data><Data name="ID_CAM"><value>F-33</value></Data><Data name="LATITUD"><value>37.17634865</value></Data><Data name="LONGITUD"><value>-3.61408297</value></Data></ExtendedData><Point><coordinates> -3.61408297,37.17634865,0 </coordinates></Point></Placemark><Placemark><name>GR-30,desde Méndez Núñez,dirección Jaén</name><description><![CDATA[ID:83<br>ID_CAM:F-34<br>LATITUD:37.17635379<br>LONGITUD:-3.61408846]]></description><styleUrl>#icon-1535-4E342E</styleUrl><ExtendedData><Data name="ID"><value>83.0</value></Data><Data name="ID_CAM"><value>F-34</value></Data><Data name="LATITUD"><value>37.17635379</value></Data><Data name="LONGITUD"><value>-3.61408846</value></Data></ExtendedData><Point><coordinates> -3.61408846,37.17635379,0 </coordinates></Point></Placemark><Placemark><name>GR-30,desde Neptuno,dirección Motril</name><description><![CDATA[ID:84<br>ID_CAM:F-35<br>LATITUD:37.16763457<br>LONGITUD:-3.61002544]]></description><styleUrl>#icon-1535-4E342E</styleUrl><ExtendedData><Data name="ID"><value>84.0</value></Data><Data name="ID_CAM"><value>F-35</value></Data><Data name="LATITUD"><value>37.16763457</value></Data><Data name="LONGITUD"><value>-3.61002544</value></Data></ExtendedData><Point><coordinates> -3.61002544,37.16763457,0 </coordinates></Point></Placemark><Placemark><name>Arabial,desde Camino de Purchil,dirección Chana</name><description><![CDATA[ID:85<br>ID_CAM:F-36<br>LATITUD:37.17314084<br>LONGITUD:-3.60935186]]></description><styleUrl>#icon-1535-4E342E</styleUrl><ExtendedData><Data name="ID"><value>85.0</value></Data><Data name="ID_CAM"><value>F-36</value></Data><Data name="LATITUD"><value>37.17314084</value></Data><Data name="LONGITUD"><value>-3.60935186</value></Data></ExtendedData><Point><coordinates> -3.60935186,37.17314084,0 </coordinates></Point></Placemark><Placemark><name>Camino de Purchil,desde Arabial,dirección Vega</name><description><![CDATA[ID:86<br>ID_CAM:F-37<br>LATITUD:37.17313634<br>LONGITUD:-3.60935388]]></description><styleUrl>#icon-1535-4E342E</styleUrl><ExtendedData><Data name="ID"><value>86.0</value></Data><Data name="ID_CAM"><value>F-37</value></Data><Data name="LATITUD"><value>37.17313634</value></Data><Data name="LONGITUD"><value>-3.60935388</value></Data></ExtendedData><Point><coordinates> -3.60935388,37.17313634,0 </coordinates></Point></Placemark><Placemark><name>Pedro Machuca,desde av. de Pulianas</name><description><![CDATA[ID:87<br>ID_CAM:F-38<br>LATITUD:37.19846907<br>LONGITUD:-3.60400099]]></description><styleUrl>#icon-1535-4E342E</styleUrl><ExtendedData><Data name="ID"><value>87.0</value></Data><Data name="ID_CAM"><value>F-38</value></Data><Data name="LATITUD"><value>37.19846907</value></Data><Data name="LONGITUD"><value>-3.60400099</value></Data></ExtendedData><Point><coordinates> -3.60400099,37.19846907,0 </coordinates></Point></Placemark><Placemark><name>Av. Juan Pablo II,desde Tete Montoliú,dirección Centro</name><description><![CDATA[ID:88<br>ID_CAM:F-39<br>LATITUD:37.19745926<br>LONGITUD:-3.61036021]]></description><styleUrl>#icon-1535-4E342E</styleUrl><ExtendedData><Data name="ID"><value>88.0</value></Data><Data name="ID_CAM"><value>F-39</value></Data><Data name="LATITUD"><value>37.19745926</value></Data><Data name="LONGITUD"><value>-3.61036021</value></Data></ExtendedData><Point><coordinates> -3.61036021,37.19745926,0 </coordinates></Point></Placemark><Placemark><name>Paseo de la Bomba,desde pz. del Duque San Pedro de Galatino</name><description><![CDATA[ID:89<br>ID_CAM:F-40<br>LATITUD:37.16797685<br>LONGITUD:-3.58868398]]></description><styleUrl>#icon-1535-4E342E</styleUrl><ExtendedData><Data name="ID"><value>89.0</value></Data><Data name="ID_CAM"><value>F-40</value></Data><Data name="LATITUD"><value>37.16797685</value></Data><Data name="LONGITUD"><value>-3.58868398</value></Data></ExtendedData><Point><coordinates> -3.58868398,37.16797685,0 </coordinates></Point></Placemark><Placemark><name>Doctor Olóriz,desde av. de la Constitución</name><description><![CDATA[ID:132<br>ID_CAM:F-42<br>LATITUD:37.18639292<br>LONGITUD:-3.60824903]]></description><styleUrl>#icon-1535-4E342E</styleUrl><ExtendedData><Data name="ID"><value>132.0</value></Data><Data name="ID_CAM"><value>F-42</value></Data><Data name="LATITUD"><value>37.18639292</value></Data><Data name="LONGITUD"><value>-3.60824903</value></Data></ExtendedData><Point><coordinates> -3.60824903,37.18639292,0 </coordinates></Point></Placemark><Placemark><name>Av. de la Constitución,desde av. de Madrid,dirección Caleta</name><description><![CDATA[ID:145<br>ID_CAM:F-43<br>LATITUD:37.18450278<br>LONGITUD:-3.60456328]]></description><styleUrl>#icon-1535-4E342E</styleUrl><ExtendedData><Data name="ID"><value>145.0</value></Data><Data name="ID_CAM"><value>F-43</value></Data><Data name="LATITUD"><value>37.18450278</value></Data><Data name="LONGITUD"><value>-3.60456328</value></Data></ExtendedData><Point><coordinates> -3.60456328,37.18450278,0 </coordinates></Point></Placemark><Placemark><name>Av. de la Constitución,desde av. de Madrid,dirección Triunfo</name><description><![CDATA[ID:139<br>ID_CAM:F-44<br>LATITUD:37.18449931<br>LONGITUD:-3.60455603]]></description><styleUrl>#icon-1535-4E342E</styleUrl><ExtendedData><Data name="ID"><value>139.0</value></Data><Data name="ID_CAM"><value>F-44</value></Data><Data name="LATITUD"><value>37.18449931</value></Data><Data name="LONGITUD"><value>-3.60455603</value></Data></ExtendedData><Point><coordinates> -3.60455603,37.18449931,0 </coordinates></Point></Placemark><Placemark><name>Fuente Nueva,desde Rector López Argüeta</name><description><![CDATA[ID:146<br>ID_CAM:F-45<br>LATITUD:37.18141214<br>LONGITUD:-3.60602299]]></description><styleUrl>#icon-1535-4E342E</styleUrl><ExtendedData><Data name="ID"><value>146.0</value></Data><Data name="ID_CAM"><value>F-45</value></Data><Data name="LATITUD"><value>37.18141214</value></Data><Data name="LONGITUD"><value>-3.60602299</value></Data></ExtendedData><Point><coordinates> -3.60602299,37.18141214,0 </coordinates></Point></Placemark><Placemark><name>Arabial,desde Neptuno,dirección Zaidín</name><description><![CDATA[ID:133<br>ID_CAM:F-47<br>LATITUD:37.16958183<br>LONGITUD:-3.60715809]]></description><styleUrl>#icon-1535-4E342E</styleUrl><ExtendedData><Data name="ID"><value>133.0</value></Data><Data name="ID_CAM"><value>F-47</value></Data><Data name="LATITUD"><value>37.16958183</value></Data><Data name="LONGITUD"><value>-3.60715809</value></Data></ExtendedData><Point><coordinates> -3.60715809,37.16958183,0 </coordinates></Point></Placemark><Placemark><name>Camino de Ronda,desde rotonda Aviación</name><description><![CDATA[ID:134<br>ID_CAM:F-48<br>LATITUD:37.16313779<br>LONGITUD:-3.60147207]]></description><styleUrl>#icon-1535-4E342E</styleUrl><ExtendedData><Data name="ID"><value>134.0</value></Data><Data name="ID_CAM"><value>F-48</value></Data><Data name="LATITUD"><value>37.16313779</value></Data><Data name="LONGITUD"><value>-3.60147207</value></Data></ExtendedData><Point><coordinates> -3.60147207,37.16313779,0 </coordinates></Point></Placemark><Placemark><name>Paseo del Violón,desde rotonda Aviación</name><description><![CDATA[ID:147<br>ID_CAM:F-49<br>LATITUD:37.16313782<br>LONGITUD:-3.6014661]]></description><styleUrl>#icon-1535-4E342E</styleUrl><ExtendedData><Data name="ID"><value>147.0</value></Data><Data name="ID_CAM"><value>F-49</value></Data><Data name="LATITUD"><value>37.16313782</value></Data><Data name="LONGITUD"><value>-3.6014661</value></Data></ExtendedData><Point><coordinates> -3.6014661,37.16313782,0 </coordinates></Point></Placemark><Placemark><name>Av. de América,desde rotonda Aviación</name><description><![CDATA[ID:135<br>ID_CAM:F-50<br>LATITUD:37.16313203<br>LONGITUD:-3.60146904]]></description><styleUrl>#icon-1535-4E342E</styleUrl><ExtendedData><Data name="ID"><value>135.0</value></Data><Data name="ID_CAM"><value>F-50</value></Data><Data name="LATITUD"><value>37.16313203</value></Data><Data name="LONGITUD"><value>-3.60146904</value></Data></ExtendedData><Point><coordinates> -3.60146904,37.16313203,0 </coordinates></Point></Placemark><Placemark><name>Av. de Barcelona,desde av. de Dílar</name><description><![CDATA[ID:148<br>ID_CAM:F-51<br>LATITUD:37.16021579<br>LONGITUD:-3.60000264]]></description><styleUrl>#icon-1535-4E342E</styleUrl><ExtendedData><Data name="ID"><value>148.0</value></Data><Data name="ID_CAM"><value>F-51</value></Data><Data name="LATITUD"><value>37.16021579</value></Data><Data name="LONGITUD"><value>-3.60000264</value></Data></ExtendedData><Point><coordinates> -3.60000264,37.16021579,0 </coordinates></Point></Placemark><Placemark><name>Av. de Dílar,desde Palencia,dirección PTS</name><description><![CDATA[ID:149<br>ID_CAM:F-52<br>LATITUD:37.1603715<br>LONGITUD:-3.59985328]]></description><styleUrl>#icon-1535-4E342E</styleUrl><ExtendedData><Data name="ID"><value>149.0</value></Data><Data name="ID_CAM"><value>F-52</value></Data><Data name="LATITUD"><value>37.1603715</value></Data><Data name="LONGITUD"><value>-3.59985328</value></Data></ExtendedData><Point><coordinates> -3.59985328,37.1603715,0 </coordinates></Point></Placemark><Placemark><name>Andrés Segovia,desde rotonda con Pablo Picasso</name><description><![CDATA[ID:150<br>ID_CAM:F-53<br>LATITUD:37.16512406<br>LONGITUD:-3.59398333]]></description><styleUrl>#icon-1535-4E342E</styleUrl><ExtendedData><Data name="ID"><value>150.0</value></Data><Data name="ID_CAM"><value>F-53</value></Data><Data name="LATITUD"><value>37.16512406</value></Data><Data name="LONGITUD"><value>-3.59398333</value></Data></ExtendedData><Point><coordinates> -3.59398333,37.16512406,0 </coordinates></Point></Placemark><Placemark><name>Av. Fernando de los Ríos,desde Beethoven dirección centro</name><description><![CDATA[ID:151<br>ID_CAM:F-54<br>LATITUD:37.15851244<br>LONGITUD:-3.60671876]]></description><styleUrl>#icon-1535-4E342E</styleUrl><ExtendedData><Data name="ID"><value>151.0</value></Data><Data name="ID_CAM"><value>F-54</value></Data><Data name="LATITUD"><value>37.15851244</value></Data><Data name="LONGITUD"><value>-3.60671876</value></Data></ExtendedData><Point><coordinates> -3.60671876,37.15851244,0 </coordinates></Point></Placemark><Placemark><name>Av. de Madrid,desde pz. de San Isidro,dirección Jaén</name><description><![CDATA[ID:136<br>ID_CAM:F-55<br>LATITUD:37.186803<br>LONGITUD:-3.6038513]]></description><styleUrl>#icon-1535-4E342E</styleUrl><ExtendedData><Data name="ID"><value>136.0</value></Data><Data name="ID_CAM"><value>F-55</value></Data><Data name="LATITUD"><value>37.186803</value></Data><Data name="LONGITUD"><value>-3.6038513</value></Data></ExtendedData><Point><coordinates> -3.6038513,37.186803,0 </coordinates></Point></Placemark><Placemark><name>Puente Verde,desde pz. del Duque San Pedro de Galatino</name><description><![CDATA[ID:152<br>ID_CAM:F-58<br>LATITUD:37.16797223<br>LONGITUD:-3.58868242]]></description><styleUrl>#icon-1535-4E342E</styleUrl><ExtendedData><Data name="ID"><value>152.0</value></Data><Data name="ID_CAM"><value>F-58</value></Data><Data name="LATITUD"><value>37.16797223</value></Data><Data name="LONGITUD"><value>-3.58868242</value></Data></ExtendedData><Point><coordinates> -3.58868242,37.16797223,0 </coordinates></Point></Placemark><Placemark><name>Ctra de Málaga,desde Virgen de la Consolación,dirección Bobadilla</name><description><![CDATA[ID:153<br>ID_CAM:F-59<br>LATITUD:37.18988049<br>LONGITUD:-3.62906499]]></description><styleUrl>#icon-1535-4E342E</styleUrl><ExtendedData><Data name="ID"><value>153.0</value></Data><Data name="ID_CAM"><value>F-59</value></Data><Data name="LATITUD"><value>37.18988049</value></Data><Data name="LONGITUD"><value>-3.62906499</value></Data></ExtendedData><Point><coordinates> -3.62906499,37.18988049,0 </coordinates></Point></Placemark><Placemark><name>Ctra de Málaga,desde Virgen de la Consolación,dirección Centro</name><description><![CDATA[ID:154<br>ID_CAM:F-60<br>LATITUD:37.18988025<br>LONGITUD:-3.62905655]]></description><styleUrl>#icon-1535-4E342E</styleUrl><ExtendedData><Data name="ID"><value>154.0</value></Data><Data name="ID_CAM"><value>F-60</value></Data><Data name="LATITUD"><value>37.18988025</value></Data><Data name="LONGITUD"><value>-3.62905655</value></Data></ExtendedData><Point><coordinates> -3.62905655,37.18988025,0 </coordinates></Point></Placemark><Placemark><name>Camino de Ronda,desde Méndez Núñez,dirección Chana</name><description><![CDATA[ID:140<br>ID_CAM:F-61<br>LATITUD:37.17778538<br>LONGITUD:-3.61047964]]></description><styleUrl>#icon-1535-4E342E</styleUrl><ExtendedData><Data name="ID"><value>140.0</value></Data><Data name="ID_CAM"><value>F-61</value></Data><Data name="LATITUD"><value>37.17778538</value></Data><Data name="LONGITUD"><value>-3.61047964</value></Data></ExtendedData><Point><coordinates> -3.61047964,37.17778538,0 </coordinates></Point></Placemark><Placemark><name>Camino de Ronda,desde Méndez Núñez,dirección Zaidín</name><description><![CDATA[ID:141<br>ID_CAM:F-62<br>LATITUD:37.17777929<br>LONGITUD:-3.61047597]]></description><styleUrl>#icon-1535-4E342E</styleUrl><ExtendedData><Data name="ID"><value>141.0</value></Data><Data name="ID_CAM"><value>F-62</value></Data><Data name="LATITUD"><value>37.17777929</value></Data><Data name="LONGITUD"><value>-3.61047597</value></Data></ExtendedData><Point><coordinates> -3.61047597,37.17777929,0 </coordinates></Point></Placemark><Placemark><name>Av. de Andalucía,desde Sagrada Familia dirección Málaga</name><description><![CDATA[ID:155<br>ID_CAM:F-63<br>LATITUD:37.19319876<br>LONGITUD:-3.62418502]]></description><styleUrl>#icon-1535-4E342E</styleUrl><ExtendedData><Data name="ID"><value>155.0</value></Data><Data name="ID_CAM"><value>F-63</value></Data><Data name="LATITUD"><value>37.19319876</value></Data><Data name="LONGITUD"><value>-3.62418502</value></Data></ExtendedData><Point><coordinates> -3.62418502,37.19319876,0 </coordinates></Point></Placemark><Placemark><name>Av. de Andalucía,desde Sagrada Familia dirección centro</name><description><![CDATA[ID:156<br>ID_CAM:F-64<br>LATITUD:37.19311258<br>LONGITUD:-3.62384001]]></description><styleUrl>#icon-1535-4E342E</styleUrl><ExtendedData><Data name="ID"><value>156.0</value></Data><Data name="ID_CAM"><value>F-64</value></Data><Data name="LATITUD"><value>37.19311258</value></Data><Data name="LONGITUD"><value>-3.62384001</value></Data></ExtendedData><Point><coordinates> -3.62384001,37.19311258,0 </coordinates></Point></Placemark><Placemark><name>Crta. de Málaga - Circunvalación La Encina</name><description><![CDATA[ID:157<br>ID_CAM:F-65<br>LATITUD:37.18913897<br>LONGITUD:-3.62161994]]></description><styleUrl>#icon-1535-4E342E</styleUrl><ExtendedData><Data name="ID"><value>157.0</value></Data><Data name="ID_CAM"><value>F-65</value></Data><Data name="LATITUD"><value>37.18913897</value></Data><Data name="LONGITUD"><value>-3.62161994</value></Data></ExtendedData><Point><coordinates> -3.62161994,37.18913897,0 </coordinates></Point></Placemark><Placemark><name>Ctra de Murcia,desde rotonda Cno. San Antonio,dirección Albaicín</name><description><![CDATA[ID:137<br>ID_CAM:F-66<br>LATITUD:37.18501201<br>LONGITUD:-3.59632124]]></description><styleUrl>#icon-1535-4E342E</styleUrl><ExtendedData><Data name="ID"><value>137.0</value></Data><Data name="ID_CAM"><value>F-66</value></Data><Data name="LATITUD"><value>37.18501201</value></Data><Data name="LONGITUD"><value>-3.59632124</value></Data></ExtendedData><Point><coordinates> -3.59632124,37.18501201,0 </coordinates></Point></Placemark><Placemark><name>Fernando de los Ríos,desde Colonia San Sebastián,dirección Centro</name><description><![CDATA[ID:158<br>ID_CAM:F-68<br>LATITUD:37.15547571<br>LONGITUD:-3.60988619]]></description><styleUrl>#icon-1535-4E342E</styleUrl><ExtendedData><Data name="ID"><value>158.0</value></Data><Data name="ID_CAM"><value>F-68</value></Data><Data name="LATITUD"><value>37.15547571</value></Data><Data name="LONGITUD"><value>-3.60988619</value></Data></ExtendedData><Point><coordinates> -3.60988619,37.15547571,0 </coordinates></Point></Placemark><Placemark><name>Fernando de los Ríos,desde Colonia San Sebastián,dirección Armilla</name><description><![CDATA[ID:159<br>ID_CAM:F-69<br>LATITUD:37.15561644<br>LONGITUD:-3.61000126]]></description><styleUrl>#icon-1535-4E342E</styleUrl><ExtendedData><Data name="ID"><value>159.0</value></Data><Data name="ID_CAM"><value>F-69</value></Data><Data name="LATITUD"><value>37.15561644</value></Data><Data name="LONGITUD"><value>-3.61000126</value></Data></ExtendedData><Point><coordinates> -3.61000126,37.15561644,0 </coordinates></Point></Placemark><Placemark><name>Pz. del Humilladero</name><description><![CDATA[ID:144<br>ID_CAM:F-70<br>LATITUD:37.16961171<br>LONGITUD:-3.59591869]]></description><styleUrl>#icon-1535-4E342E</styleUrl><ExtendedData><Data name="ID"><value>144.0</value></Data><Data name="ID_CAM"><value>F-70</value></Data><Data name="LATITUD"><value>37.16961171</value></Data><Data name="LONGITUD"><value>-3.59591869</value></Data></ExtendedData><Point><coordinates> -3.59591869,37.16961171,0 </coordinates></Point></Placemark><Placemark><name>Av. Pablo Picasso,desde Plaza del Ángel</name><description><![CDATA[ID:179<br>ID_CAM:F-71<br>LATITUD:37.16401745<br>LONGITUD:-3.596466232]]></description><styleUrl>#icon-1535-4E342E</styleUrl><ExtendedData><Data name="ID"><value>179.0</value></Data><Data name="ID_CAM"><value>F-71</value></Data><Data name="LATITUD"><value>37.16401745</value></Data><Data name="LONGITUD"><value>-3.596466232</value></Data></ExtendedData><Point><coordinates> -3.596466232,37.16401745,0 </coordinates></Point></Placemark><Placemark><name>Plaza Rotary,desde San Antón</name><description><![CDATA[ID:180<br>ID_CAM:F-72<br>LATITUD:37.16747203<br>LONGITUD:-3.598735635]]></description><styleUrl>#icon-1535-4E342E</styleUrl><ExtendedData><Data name="ID"><value>180.0</value></Data><Data name="ID_CAM"><value>F-72</value></Data><Data name="LATITUD"><value>37.16747203</value></Data><Data name="LONGITUD"><value>-3.598735635</value></Data></ExtendedData><Point><coordinates> -3.598735635,37.16747203,0 </coordinates></Point></Placemark><Placemark><name>Av. de la Ciencia,desde Eudoxia Píriz</name><description><![CDATA[ID:181<br>ID_CAM:F-73<br>LATITUD:37.16297838<br>LONGITUD:-3.608190905]]></description><styleUrl>#icon-1535-4E342E</styleUrl><ExtendedData><Data name="ID"><value>181.0</value></Data><Data name="ID_CAM"><value>F-73</value></Data><Data name="LATITUD"><value>37.16297838</value></Data><Data name="LONGITUD"><value>-3.608190905</value></Data></ExtendedData><Point><coordinates> -3.608190905,37.16297838,0 </coordinates></Point></Placemark><Placemark><name>Eudoxia Píriz,desde Av. de la Ciencia</name><description><![CDATA[ID:182<br>ID_CAM:F-74<br>LATITUD:37.16297865<br>LONGITUD:-3.608193358]]></description><styleUrl>#icon-1535-4E342E</styleUrl><ExtendedData><Data name="ID"><value>182.0</value></Data><Data name="ID_CAM"><value>F-74</value></Data><Data name="LATITUD"><value>37.16297865</value></Data><Data name="LONGITUD"><value>-3.608193358</value></Data></ExtendedData><Point><coordinates> -3.608193358,37.16297865,0 </coordinates></Point></Placemark><Placemark><name>Virgen Blanca,desde Rotonda de Neptuno</name><description><![CDATA[ID:183<br>ID_CAM:F-75<br>LATITUD:37.16791086<br>LONGITUD:-3.609039025]]></description><styleUrl>#icon-1535-4E342E</styleUrl><ExtendedData><Data name="ID"><value>183.0</value></Data><Data name="ID_CAM"><value>F-75</value></Data><Data name="LATITUD"><value>37.16791086</value></Data><Data name="LONGITUD"><value>-3.609039025</value></Data></ExtendedData><Point><coordinates> -3.609039025,37.16791086,0 </coordinates></Point></Placemark><Placemark><name>Paseo de Cartuja,desde Labella Dávalos,dirección Norte</name><description><![CDATA[ID:184<br>ID_CAM:F-76<br>LATITUD:37.18939918<br>LONGITUD:-3.600520774]]></description><styleUrl>#icon-1535-4E342E</styleUrl><ExtendedData><Data name="ID"><value>184.0</value></Data><Data name="ID_CAM"><value>F-76</value></Data><Data name="LATITUD"><value>37.18939918</value></Data><Data name="LONGITUD"><value>-3.600520774</value></Data></ExtendedData><Point><coordinates> -3.600520774,37.18939918,0 </coordinates></Point></Placemark><Placemark><name>Camino de Ronda,desde Ramón y Cajal,dirección Sur</name><description><![CDATA[ID:185<br>ID_CAM:F-77<br>LATITUD:37.18410346<br>LONGITUD:-3.614394977]]></description><styleUrl>#icon-1535-4E342E</styleUrl><ExtendedData><Data name="ID"><value>185.0</value></Data><Data name="ID_CAM"><value>F-77</value></Data><Data name="LATITUD"><value>37.18410346</value></Data><Data name="LONGITUD"><value>-3.614394977</value></Data></ExtendedData><Point><coordinates> -3.614394977,37.18410346,0 </coordinates></Point></Placemark><Placemark><name>Ribera del Beiro,desde Av. de Andalucía,dirección Norte</name><description><![CDATA[ID:186<br>ID_CAM:F-78<br>LATITUD:37.18815031<br>LONGITUD:-3.612708252]]></description><styleUrl>#icon-1535-4E342E</styleUrl><ExtendedData><Data name="ID"><value>186.0</value></Data><Data name="ID_CAM"><value>F-78</value></Data><Data name="LATITUD"><value>37.18815031</value></Data><Data name="LONGITUD"><value>-3.612708252</value></Data></ExtendedData><Point><coordinates> -3.612708252,37.18815031,0 </coordinates></Point></Placemark><Placemark><name>Ribera del Beiro,desde Av. de Andalucía,dirección Sur</name><description><![CDATA[ID:187<br>ID_CAM:F-79<br>LATITUD:37.18815031<br>LONGITUD:-3.612708252]]></description><styleUrl>#icon-1535-4E342E</styleUrl><ExtendedData><Data name="ID"><value>187.0</value></Data><Data name="ID_CAM"><value>F-79</value></Data><Data name="LATITUD"><value>37.18815031</value></Data><Data name="LONGITUD"><value>-3.612708252</value></Data></ExtendedData><Point><coordinates> -3.612708252,37.18815031,0 </coordinates></Point></Placemark><Placemark><name>Acera del Darro,desde Plaza del Humilladero</name><description><![CDATA[ID:188<br>ID_CAM:F-80<br>LATITUD:37.16898872<br>LONGITUD:-3.5967738]]></description><styleUrl>#icon-1535-4E342E</styleUrl><ExtendedData><Data name="ID"><value>188.0</value></Data><Data name="ID_CAM"><value>F-80</value></Data><Data name="LATITUD"><value>37.16898872</value></Data><Data name="LONGITUD"><value>-3.5967738</value></Data></ExtendedData><Point><coordinates> -3.5967738,37.16898872,0 </coordinates></Point></Placemark><Placemark><name>Avd. Murcia-Ctra. Murcia</name><description><![CDATA[ID:196<br>ID_CAM:F-81<br>LATITUD:37.18785567<br>LONGITUD:-3.599957644]]></description><styleUrl>#icon-1535-4E342E</styleUrl><ExtendedData><Data name="ID"><value>196.0</value></Data><Data name="ID_CAM"><value>F-81</value></Data><Data name="LATITUD"><value>37.18785567</value></Data><Data name="LONGITUD"><value>-3.599957644</value></Data></ExtendedData><Point><coordinates> -3.599957644,37.18785567,0 </coordinates></Point></Placemark><Placemark><name>Avd. Murcia-Ctra. Murcia</name><description><![CDATA[ID:197<br>ID_CAM:F-82<br>LATITUD:37.1878553<br>LONGITUD:-3.599958222]]></description><styleUrl>#icon-1535-4E342E</styleUrl><ExtendedData><Data name="ID"><value>197.0</value></Data><Data name="ID_CAM"><value>F-82</value></Data><Data name="LATITUD"><value>37.1878553</value></Data><Data name="LONGITUD"><value>-3.599958222</value></Data></ExtendedData><Point><coordinates> -3.599958222,37.1878553,0 </coordinates></Point></Placemark><Placemark><name>Avd. Fuente Nueva-Melchor Almagro</name><description><![CDATA[ID:198<br>ID_CAM:F-83<br>LATITUD:37.18022539<br>LONGITUD:-3.607182546]]></description><styleUrl>#icon-1535-4E342E</styleUrl><ExtendedData><Data name="ID"><value>198.0</value></Data><Data name="ID_CAM"><value>F-83</value></Data><Data name="LATITUD"><value>37.18022539</value></Data><Data name="LONGITUD"><value>-3.607182546</value></Data></ExtendedData><Point><coordinates> -3.607182546,37.18022539,0 </coordinates></Point></Placemark><Placemark><name>Avd. Fuente Nueva-Melchor Almagro</name><description><![CDATA[ID:199<br>ID_CAM:F-84<br>LATITUD:37.18022502<br>LONGITUD:-3.607182228]]></description><styleUrl>#icon-1535-4E342E</styleUrl><ExtendedData><Data name="ID"><value>199.0</value></Data><Data name="ID_CAM"><value>F-84</value></Data><Data name="LATITUD"><value>37.18022502</value></Data><Data name="LONGITUD"><value>-3.607182228</value></Data></ExtendedData><Point><coordinates> -3.607182228,37.18022502,0 </coordinates></Point></Placemark><Placemark><name>Ctra. Alfacar - Tibónidas</name><description><![CDATA[ID:200<br>ID_CAM:F-85<br>LATITUD:37.19529<br>LONGITUD:-3.601255]]></description><styleUrl>#icon-1535-4E342E</styleUrl><ExtendedData><Data name="ID"><value>200.0</value></Data><Data name="ID_CAM"><value>F-85</value></Data><Data name="LATITUD"><value>37.19529</value></Data><Data name="LONGITUD"><value>-3.601255</value></Data></ExtendedData><Point><coordinates> -3.601255,37.19529,0 </coordinates></Point></Placemark><Placemark><name>Jardín de la Reina-Juncos-Alejandro Otero</name><description><![CDATA[ID:201<br>ID_CAM:F-86<br>LATITUD:37.16508485<br>LONGITUD:-3.604067337]]></description><styleUrl>#icon-1535-4E342E</styleUrl><ExtendedData><Data name="ID"><value>201.0</value></Data><Data name="ID_CAM"><value>F-86</value></Data><Data name="LATITUD"><value>37.16508485</value></Data><Data name="LONGITUD"><value>-3.604067337</value></Data></ExtendedData><Point><coordinates> -3.604067337,37.16508485,0 </coordinates></Point></Placemark><Placemark><name>Jardín de la Reina-Juncos-Alejandro Otero</name><description><![CDATA[ID:202<br>ID_CAM:F-87<br>LATITUD:37.16506741<br>LONGITUD:-3.603835501]]></description><styleUrl>#icon-1535-4E342E</styleUrl><ExtendedData><Data name="ID"><value>202.0</value></Data><Data name="ID_CAM"><value>F-87</value></Data><Data name="LATITUD"><value>37.16506741</value></Data><Data name="LONGITUD"><value>-3.603835501</value></Data></ExtendedData><Point><coordinates> -3.603835501,37.16506741,0 </coordinates></Point></Placemark><Placemark><name>Acera del Darro-Puente Casta¤eda</name><description><![CDATA[ID:203<br>ID_CAM:F-88<br>LATITUD:37.1714082<br>LONGITUD:-3.59858515]]></description><styleUrl>#icon-1535-4E342E</styleUrl><ExtendedData><Data name="ID"><value>203.0</value></Data><Data name="ID_CAM"><value>F-88</value></Data><Data name="LATITUD"><value>37.1714082</value></Data><Data name="LONGITUD"><value>-3.59858515</value></Data></ExtendedData><Point><coordinates> -3.59858515,37.1714082,0 </coordinates></Point></Placemark><Placemark><name>Avd. Fernando de los Ríos-Avd. de la Ciencia</name><description><![CDATA[ID:204<br>ID_CAM:F-89<br>LATITUD:37.16127737<br>LONGITUD:-3.604338007]]></description><styleUrl>#icon-1535-4E342E</styleUrl><ExtendedData><Data name="ID"><value>204.0</value></Data><Data name="ID_CAM"><value>F-89</value></Data><Data name="LATITUD"><value>37.16127737</value></Data><Data name="LONGITUD"><value>-3.604338007</value></Data></ExtendedData><Point><coordinates> -3.604338007,37.16127737,0 </coordinates></Point></Placemark><Placemark><name>Av. Fernando de los Ríos,desde Av. de la Ciencia,dirección sur</name><description><![CDATA[ID:205<br>ID_CAM:F-90<br>LATITUD:37.16120785<br>LONGITUD:-3.604643875]]></description><styleUrl>#icon-1535-4E342E</styleUrl><ExtendedData><Data name="ID"><value>205.0</value></Data><Data name="ID_CAM"><value>F-90</value></Data><Data name="LATITUD"><value>37.16120785</value></Data><Data name="LONGITUD"><value>-3.604643875</value></Data></ExtendedData><Point><coordinates> -3.604643875,37.16120785,0 </coordinates></Point></Placemark><Placemark><name>Cmno. de Ronda - Pasaje de la Luz</name><description><![CDATA[ID:206<br>ID_CAM:F-91<br>LATITUD:37.186974<br>LONGITUD:-3.614855]]></description><styleUrl>#icon-1535-4E342E</styleUrl><ExtendedData><Data name="ID"><value>206.0</value></Data><Data name="ID_CAM"><value>F-91</value></Data><Data name="LATITUD"><value>37.186974</value></Data><Data name="LONGITUD"><value>-3.614855</value></Data></ExtendedData><Point><coordinates> -3.614855,37.186974,0 </coordinates></Point></Placemark><Placemark><name>Cmno. de Ronda - Pasaje de la Luz</name><description><![CDATA[ID:207<br>ID_CAM:F-92<br>LATITUD:37.186974<br>LONGITUD:-3.614855]]></description><styleUrl>#icon-1535-4E342E</styleUrl><ExtendedData><Data name="ID"><value>207.0</value></Data><Data name="ID_CAM"><value>F-92</value></Data><Data name="LATITUD"><value>37.186974</value></Data><Data name="LONGITUD"><value>-3.614855</value></Data></ExtendedData><Point><coordinates> -3.614855,37.186974,0 </coordinates></Point></Placemark></Folder></Document></kml>