{"type":"FeatureCollection","features":[{"type":"Feature","geometry":{"type":"Point","coordinates":[-3.614356,37.189465,0]},"properties":{"name":"Cruz del Sur - Avda. Andalucía","description":{"@type":"html","value":"ID:55<br>ID_CAM:F-01<br>LATITUD:37.18946478<br>LONGITUD:-3.61435599"},"styleUrl":"#icon-1535-4E342E","label-scale":0,"icon-opacity":1,"icon-color":"#4e342e","icon-scale":1,"icon":"https://www.gstatic.com/mapspro/images/stock/503-wht-blank_maps.png","ID":"55.0","ID_CAM":"F-01","LATITUD":"37.18946478","LONGITUD":"-3.61435599"}},{"type":"Feature","geometry":{"type":"Point","coordinates":[-3.614348,37.189463,0]},"properties":{"name":"Av. de Andalucía,desde Cruz del Sur,dirección Caleta","description":{"@type":"html","value":"ID:56<br>ID_CAM:F-02<br>LATITUD:37.18946323<br>LONGITUD:-3.61434843"},"styleUrl":"#icon-1535-4E342E","label-scale":0,"icon-opacity":1,"icon-color":"#4e342e","icon-scale":1,"icon":"https://www.gstatic.com/mapspro/images/stock/503-wht-blank_maps.png","ID":"56.0","ID_CAM":"F-02","LATITUD":"37.18946323","LONGITUD":"-3.61434843"}},{"type":"Feature","geometry":{"type":"Point","coordinates":[-3.614352,37.189469,0]},"properties":{"name":"Pintor Francisco Pradilla,desde Cruz del Sur","description":{"@type":"html","value":"ID:57<br>ID_CAM:F-03<br>LATITUD:37.18946861<br>LONGITUD:-3.61435241"},"styleUrl":"#icon-1535-4E342E","label-scale":0,"icon-opacity":1,"icon-color":"#4e342e","icon-scale":1,"icon":"https://www.gstatic.com/mapspro/images/stock/503-wht-blank_maps.png","ID":"57.0","ID_CAM":"F-03","LATITUD":"37.18946861","LONGITUD":"-3.61435241"}},{"type":"Feature","geometry":{"type":"Point","coordinates":[-3.605966,37.190001,0]},"properties":{"name":"Doctor Olóriz,desde Antiguo Los Cármenes","description":{"@type":"html","value":"ID:58<br>ID_CAM:F-07<br>LATITUD:37.19000077<br>LONGITUD:-3.60596564"},"styleUrl":"#icon-1535-4E342E","label-scale":0,"icon-opacity":1,"icon-color":"#4e342e","icon-scale":1,"icon":"https://www.gstatic.com/mapspro/images/stock/503-wht-blank_maps.png","ID":"58.0","ID_CAM":"F-07","LATITUD":"37.19000077","LONGITUD":"-3.60596564"}},{"type":"Feature","geometry":{"type":"Point","coordinates":[-3.605966,37.190008,0]},"properties":{"name":"Av. de Madrid,desde Antiguo Los Cármenes,dirección Jaén","description":{"@type":"html","value":"ID:59<br>ID_CAM:F-08<br>LATITUD:37.19000753<br>LONGITUD:-3.6059657"},"styleUrl":"#icon-1535-4E342E","label-scale":0,"icon-opacity":1,"icon-color":"#4e342e","icon-scale":1,"icon":"https://www.gstatic.com/mapspro/images/stock/503-wht-blank_maps.png","ID":"59.0","ID_CAM":"F-08","LATITUD":"37.19000753","LONGITUD":"-3.6059657"}},{"type":"Feature","geometry":{"type":"Point","coordinates":[-3.604562,37.184498,0]},"properties":{"name":"Dr. Severo Ochoa,desde av. de la Constitución","description":{"@type":"html","value":"ID:60<br>ID_CAM:F-09<br>LATITUD:37.18449814<br>LONGITUD:-3.60456182"},"styleUrl":"#icon-1535-4E342E","label-scale":0,"icon-opacity":1,"icon-color":"#4e342e","icon-scale":1,"icon":"https://www.gstatic.com/mapspro/images/stock/503-wht-blank_maps.png","ID":"60.0","ID_CAM":"F-09","LATITUD":"37.18449814","LONGITUD":"-3.60456182"}},{"type":"Feature","geometry":{"type":"Point","coordinates":[-3.606021,37.181412,0]},"properties":{"name":"Dr. Severo Ochoa,desde Rector López Argüeta","description":{"@type":"html","value":"ID:61<br>ID_CAM:F-10<br>LATITUD:37.18141197<br>LONGITUD:-3.60602102"},"styleUrl":"#icon-1535-4E342E","label-scale":0,"icon-opacity":1,"icon-color":"#4e342e","icon-scale":1,"icon":"https://www.gstatic.com/mapspro/images/stock/503-wht-blank_maps.png","ID":"61.0","ID_CAM":"F-10","LATITUD":"37.18141197","LONGITUD":"-3.60602102"}},{"type":"Feature","geometry":{"type":"Point","coordinates":[-3.611885,37.17734,0]},"properties":{"name":"Méndez Núñez,desde Arabial,dirección Fuente Nueva","description":{"@type":"html","value":"ID:62<br>ID_CAM:F-11<br>LATITUD:37.17734025<br>LONGITUD:-3.61188532"},"styleUrl":"#icon-1535-4E342E","label-scale":0,"icon-opacity":1,"icon-color":"#4e342e","icon-scale":1,"icon":"https://www.gstatic.com/mapspro/images/stock/503-wht-blank_maps.png","ID":"62.0","ID_CAM":"F-11","LATITUD":"37.17734025","LONGITUD":"-3.61188532"}},{"type":"Feature","geometry":{"type":"Point","coordinates":[-3.611893,37.177337,0]},"properties":{"name":"Méndez Núñez,desde Arabial,dirección A44","description":{"@type":"html","value":"ID:63<br>ID_CAM:F-12<br>LATITUD:37.17733732<br>LONGITUD:-3.61189294"},"styleUrl":"#icon-1535-4E342E","label-scale":0,"icon-opacity":1,"icon-color":"#4e342e","icon-scale":1,"icon":"https://www.gstatic.com/mapspro/images/stock/503-wht-blank_maps.png","ID":"63.0","ID_CAM":"F-12","LATITUD":"37.17733732","LONGITUD":"-3.61189294"}},{"type":"Feature","geometry":{"type":"Point","coordinates":[-3.611887,37.177336,0]},"properties":{"name":"Arabial,desde Méndez Núñez,dirección Zaidín","description":{"@type":"html","value":"ID:64<br>ID_CAM:F-13<br>LATITUD:37.17733574<br>LONGITUD:-3.6118873"},"styleUrl":"#icon-1535-4E342E","label-scale":0,"icon-opacity":1,"icon-color":"#4e342e","icon-scale":1,"icon":"https://www.gstatic.com/mapspro/images/stock/503-wht-blank_maps.png","ID":"64.0","ID_CAM":"F-13","LATITUD":"37.17733574","LONGITUD":"-3.6118873"}},{"type":"Feature","geometry":{"type":"Point","coordinates":[-3.601174,37.182546,0]},"properties":{"name":"Gran Vía,desde Prof. Emilio Orozco,dirección pz. Isabel la Católica","description":{"@type":"html","value":"ID:65<br>ID_CAM:F-14<br>LATITUD:37.18254628<br>LONGITUD:-3.60117352"},"styleUrl":"#icon-1535-4E342E","label-scale":0,"icon-opacity":1,"icon-color":"#4e342e","icon-scale":1,"icon":"https://www.gstatic.com/mapspro/images/stock/503-wht-blank_maps.png","ID":"65.0","ID_CAM":"F-14","LATITUD":"37.18254628","LONGITUD":"-3.60117352"}},{"type":"Feature","geometry":{"type":"Point","coordinates":[-3.601178,37.182551,0]},"properties":{"name":"Triunfo","description":{"@type":"html","value":"ID:66<br>ID_CAM:F-15<br>LATITUD:37.18255135<br>LONGITUD:-3.60117809"},"styleUrl":"#icon-1535-4E342E","label-scale":0,"icon-opacity":1,"icon-color":"#4e342e","icon-scale":1,"icon":"https://www.gstatic.com/mapspro/images/stock/503-wht-blank_maps.png","ID":"66.0","ID_CAM":"F-15","LATITUD":"37.18255135","LONGITUD":"-3.60117809"}},{"type":"Feature","geometry":{"type":"Point","coordinates":[-3.598332,37.177069,0]},"properties":{"name":"Gran Vía,desde Cárcel Baja,dirección Triunfo","description":{"@type":"html","value":"ID:67<br>ID_CAM:F-16<br>LATITUD:37.17706875<br>LONGITUD:-3.59833173"},"styleUrl":"#icon-1535-4E342E","label-scale":0,"icon-opacity":1,"icon-color":"#4e342e","icon-scale":1,"icon":"https://www.gstatic.com/mapspro/images/stock/503-wht-blank_maps.png","ID":"67.0","ID_CAM":"F-16","LATITUD":"37.17706875","LONGITUD":"-3.59833173"}},{"type":"Feature","geometry":{"type":"Point","coordinates":[-3.599797,37.173611,0]},"properties":{"name":"Puerta Real","description":{"@type":"html","value":"ID:68<br>ID_CAM:F-17<br>LATITUD:37.17361104<br>LONGITUD:-3.59979669"},"styleUrl":"#icon-1535-4E342E","label-scale":0,"icon-opacity":1,"icon-color":"#4e342e","icon-scale":1,"icon":"https://www.gstatic.com/mapspro/images/stock/503-wht-blank_maps.png","ID":"68.0","ID_CAM":"F-17","LATITUD":"37.17361104","LONGITUD":"-3.59979669"}},{"type":"Feature","geometry":{"type":"Point","coordinates":[-3.607161,37.169582,0]},"properties":{"name":"Neptuno,desde Arabial,dirección A44","description":{"@type":"html","value":"ID:69<br>ID_CAM:F-19<br>LATITUD:37.16958163<br>LONGITUD:-3.60716131"},"styleUrl":"#icon-1535-4E342E","label-scale":0,"icon-opacity":1,"icon-color":"#4e342e","icon-scale":1,"icon":"https://www.gstatic.com/mapspro/images/stock/503-wht-blank_maps.png","ID":"69.0","ID_CAM":"F-19","LATITUD":"37.16958163","LONGITUD":"-3.60716131"}},{"type":"Feature","geometry":{"type":"Point","coordinates":[-3.607162,37.169588,0]},"properties":{"name":"Arabial,desde Neptuno,dirección Virgen Blanca","description":{"@type":"html","value":"ID:70<br>ID_CAM:F-20<br>LATITUD:37.16958786<br>LONGITUD:-3.60716192"},"styleUrl":"#icon-1535-4E342E","label-scale":0,"icon-opacity":1,"icon-color":"#4e342e","icon-scale":1,"icon":"https://www.gstatic.com/mapspro/images/stock/503-wht-blank_maps.png","ID":"70.0","ID_CAM":"F-20","LATITUD":"37.16958786","LONGITUD":"-3.60716192"}},{"type":"Feature","geometry":{"type":"Point","coordinates":[-3.596231,37.167874,0]},"properties":{"name":"Poeta Manuel de Góngora,desde Paseo del Violón","description":{"@type":"html","value":"ID:71<br>ID_CAM:F-21<br>LATITUD:37.1678738<br>LONGITUD:-3.59623109"},"styleUrl":"#icon-1535-4E342E","label-scale":0,"icon-opacity":1,"icon-color":"#4e342e","icon-scale":1,"icon":"https://www.gstatic.com/mapspro/images/stock/503-wht-blank_maps.png","ID":"71.0","ID_CAM":"F-21","LATITUD":"37.1678738","LONGITUD":"-3.59623109"}},{"type":"Feature","geometry":{"type":"Point","coordinates":[-3.596237,37.167874,0]},"properties":{"name":"Paseo del Violón,desde Puente Blanco","description":{"@type":"html","value":"ID:72<br>ID_CAM:F-22<br>LATITUD:37.16787377<br>LONGITUD:-3.59623706"},"styleUrl":"#icon-1535-4E342E","label-scale":0,"icon-opacity":1,"icon-color":"#4e342e","icon-scale":1,"icon":"https://www.gstatic.com/mapspro/images/stock/503-wht-blank_maps.png","ID":"72.0","ID_CAM":"F-22","LATITUD":"37.16787377","LONGITUD":"-3.59623706"}},{"type":"Feature","geometry":{"type":"Point","coordinates":[-3.596234,37.16788,0]},"properties":{"name":"Acera del Darro (Puente del Rio Genil)","description":{"@type":"html","value":"ID:73<br>ID_CAM:F-23<br>LATITUD:37.16787955<br>LONGITUD:-3.59623412"},"styleUrl":"#icon-1535-4E342E","label-scale":0,"icon-opacity":1,"icon-color":"#4e342e","icon-scale":1,"icon":"https://www.gstatic.com/mapspro/images/stock/503-wht-blank_maps.png","ID":"73.0","ID_CAM":"F-23","LATITUD":"37.16787955","LONGITUD":"-3.59623412"}},{"type":"Feature","geometry":{"type":"Point","coordinates":[-3.596231,37.167879,0]},"properties":{"name":"Paseo de los Basilios,desde Puente Blanco","description":{"@type":"html","value":"ID:74<br>ID_CAM:F-24<br>LATITUD:37.16787858<br>LONGITUD:-3.59623113"},"styleUrl":"#icon-1535-4E342E","label-scale":0,"icon-opacity":1,"icon-color":"#4e342e","icon-scale":1,"icon":"https://www.gstatic.com/mapspro/images/stock/503-wht-blank_maps.png","ID":"74.0","ID_CAM":"F-24","LATITUD":"37.16787858","LONGITUD":"-3.59623113"}},{"type":"Feature","geometry":{"type":"Point","coordinates":[-3.601481,37.16304,0]},"properties":{"name":"Av. Fernando de los Ríos,desde rotonda Aviación","description":{"@type":"html","value":"ID:75<br>ID_CAM:F-25<br>LATITUD:37.16304037<br>LONGITUD:-3.601480724"},"styleUrl":"#icon-1535-4E342E","label-scale":0,"icon-opacity":1,"icon-color":"#4e342e","icon-scale":1,"icon":"https://www.gstatic.com/mapspro/images/stock/503-wht-blank_maps.png","ID":"75.0","ID_CAM":"F-25","LATITUD":"37.16304037","LONGITUD":"-3.601480724"}},{"type":"Feature","geometry":{"type":"Point","coordinates":[-3.599848,37.160373,0]},"properties":{"name":"Palencia,desde av. de Dílar","description":{"@type":"html","value":"ID:76<br>ID_CAM:F-26<br>LATITUD:37.16037289<br>LONGITUD:-3.59984756"},"styleUrl":"#icon-1535-4E342E","label-scale":0,"icon-opacity":1,"icon-color":"#4e342e","icon-scale":1,"icon":"https://www.gstatic.com/mapspro/images/stock/503-wht-blank_maps.png","ID":"76.0","ID_CAM":"F-26","LATITUD":"37.16037289","LONGITUD":"-3.59984756"}},{"type":"Feature","geometry":{"type":"Point","coordinates":[-3.599849,37.160377,0]},"properties":{"name":"Av. de Dílar,desde Palencia,dirección Centro","description":{"@type":"html","value":"ID:77<br>ID_CAM:F-27<br>LATITUD:37.16037747<br>LONGITUD:-3.59984929"},"styleUrl":"#icon-1535-4E342E","label-scale":0,"icon-opacity":1,"icon-color":"#4e342e","icon-scale":1,"icon":"https://www.gstatic.com/mapspro/images/stock/503-wht-blank_maps.png","ID":"77.0","ID_CAM":"F-27","LATITUD":"37.16037747","LONGITUD":"-3.59984929"}},{"type":"Feature","geometry":{"type":"Point","coordinates":[-3.593985,37.16513,0]},"properties":{"name":"Poeta Manuel de Góngora,desde Pablo Picasso","description":{"@type":"html","value":"ID:78<br>ID_CAM:F-28<br>LATITUD:37.16513021<br>LONGITUD:-3.59398463"},"styleUrl":"#icon-1535-4E342E","label-scale":0,"icon-opacity":1,"icon-color":"#4e342e","icon-scale":1,"icon":"https://www.gstatic.com/mapspro/images/stock/503-wht-blank_maps.png","ID":"78.0","ID_CAM":"F-28","LATITUD":"37.16513021","LONGITUD":"-3.59398463"}},{"type":"Feature","geometry":{"type":"Point","coordinates":[-3.607271,37.158559,0]},"properties":{"name":"Av. Fernando de los Ríos,desde Emir,dirección Armilla","description":{"@type":"html","value":"ID:79<br>ID_CAM:F-29<br>LATITUD:37.15855852<br>LONGITUD:-3.60727117"},"styleUrl":"#icon-1535-4E342E","label-scale":0,"icon-opacity":1,"icon-color":"#4e342e","icon-scale":1,"icon":"https://www.gstatic.com/mapspro/images/stock/503-wht-blank_maps.png","ID":"79.0","ID_CAM":"F-29","LATITUD":"37.15855852","LONGITUD":"-3.60727117"}},{"type":"Feature","geometry":{"type":"Point","coordinates":[-3.60367,37.18685,0]},"properties":{"name":"Av. de Pulianas,desde pz. de San Isidro","description":{"@type":"html","value":"ID:80<br>ID_CAM:F-30<br>LATITUD:37.18684974<br>LONGITUD:-3.60367015"},"styleUrl":"#icon-1535-4E342E","label-scale":0,"icon-opacity":1,"icon-color":"#4e342e","icon-scale":1,"icon":"https://www.gstatic.com/mapspro/images/stock/503-wht-blank_maps.png","ID":"80.0","ID_CAM":"F-30","LATITUD":"37.18684974","LONGITUD":"-3.60367015"}},{"type":"Feature","geometry":{"type":"Point","coordinates":[-3.603673,37.186843,0]},"properties":{"name":"Av. de Madrid,desde pz. de San Isidro,salida de paso subterráneo","description":{"@type":"html","value":"ID:81<br>ID_CAM:F-31<br>LATITUD:37.18684327<br>LONGITUD:-3.60367262"},"styleUrl":"#icon-1535-4E342E","label-scale":0,"icon-opacity":1,"icon-color":"#4e342e","icon-scale":1,"icon":"https://www.gstatic.com/mapspro/images/stock/503-wht-blank_maps.png","ID":"81.0","ID_CAM":"F-31","LATITUD":"37.18684327","LONGITUD":"-3.60367262"}},{"type":"Feature","geometry":{"type":"Point","coordinates":[-3.614083,37.176349,0]},"properties":{"name":"GR-30,desde Méndez Núñez,dirección Motril","description":{"@type":"html","value":"ID:82<br>ID_CAM:F-33<br>LATITUD:37.17634865<br>LONGITUD:-3.61408297"},"styleUrl":"#icon-1535-4E342E","label-scale":0,"icon-opacity":1,"icon-color":"#4e342e","icon-scale":1,"icon":"https://www.gstatic.com/mapspro/images/stock/503-wht-blank_maps.png","ID":"82.0","ID_CAM":"F-33","LATITUD":"37.17634865","LONGITUD":"-3.61408297"}},{"type":"Feature","geometry":{"type":"Point","coordinates":[-3.614088,37.176354,0]},"properties":{"name":"GR-30,desde Méndez Núñez,dirección Jaén","description":{"@type":"html","value":"ID:83<br>ID_CAM:F-34<br>LATITUD:37.17635379<br>LONGITUD:-3.61408846"},"styleUrl":"#icon-1535-4E342E","label-scale":0,"icon-opacity":1,"icon-color":"#4e342e","icon-scale":1,"icon":"https://www.gstatic.com/mapspro/images/stock/503-wht-blank_maps.png","ID":"83.0","ID_CAM":"F-34","LATITUD":"37.17635379","LONGITUD":"-3.61408846"}},{"type":"Feature","geometry":{"type":"Point","coordinates":[-3.610025,37.167635,0]},"properties":{"name":"GR-30,desde Neptuno,dirección Motril","description":{"@type":"html","value":"ID:84<br>ID_CAM:F-35<br>LATITUD:37.16763457<br>LONGITUD:-3.61002544"},"styleUrl":"#icon-1535-4E342E","label-scale":0,"icon-opacity":1,"icon-color":"#4e342e","icon-scale":1,"icon":"https://www.gstatic.com/mapspro/images/stock/503-wht-blank_maps.png","ID":"84.0","ID_CAM":"F-35","LATITUD":"37.16763457","LONGITUD":"-3.61002544"}},{"type":"Feature","geometry":{"type":"Point","coordinates":[-3.609352,37.173141,0]},"properties":{"name":"Arabial,desde Camino de Purchil,dirección Chana","description":{"@type":"html","value":"ID:85<br>ID_CAM:F-36<br>LATITUD:37.17314084<br>LONGITUD:-3.60935186"},"styleUrl":"#icon-1535-4E342E","label-scale":0,"icon-opacity":1,"icon-color":"#4e342e","icon-scale":1,"icon":"https://www.gstatic.com/mapspro/images/stock/503-wht-blank_maps.png","ID":"85.0","ID_CAM":"F-36","LATITUD":"37.17314084","LONGITUD":"-3.60935186"}},{"type":"Feature","geometry":{"type":"Point","coordinates":[-3.609354,37.173136,0]},"properties":{"name":"Camino de Purchil,desde Arabial,dirección Vega","description":{"@type":"html","value":"ID:86<br>ID_CAM:F-37<br>LATITUD:37.17313634<br>LONGITUD:-3.60935388"},"styleUrl":"#icon-1535-4E342E","label-scale":0,"icon-opacity":1,"icon-color":"#4e342e","icon-scale":1,"icon":"https://www.gstatic.com/mapspro/images/stock/503-wht-blank_maps.png","ID":"86.0","ID_CAM":"F-37","LATITUD":"37.17313634","LONGITUD":"-3.60935388"}},{"type":"Feature","geometry":{"type":"Point","coordinates":[-3.604001,37.198469,0]},"properties":{"name":"Pedro Machuca,desde av. de Pulianas","description":{"@type":"html","value":"ID:87<br>ID_CAM:F-38<br>LATITUD:37.19846907<br>LONGITUD:-3.60400099"},"styleUrl":"#icon-1535-4E342E","label-scale":0,"icon-opacity":1,"icon-color":"#4e342e","icon-scale":1,"icon":"https://www.gstatic.com/mapspro/images/stock/503-wht-blank_maps.png","ID":"87.0","ID_CAM":"F-38","LATITUD":"37.19846907","LONGITUD":"-3.60400099"}},{"type":"Feature","geometry":{"type":"Point","coordinates":[-3.61036,37.197459,0]},"properties":{"name":"Av. Juan Pablo II,desde Tete Montoliú,dirección Centro","description":{"@type":"html","value":"ID:88<br>ID_CAM:F-39<br>LATITUD:37.19745926<br>LONGITUD:-3.61036021"},"styleUrl":"#icon-1535-4E342E","label-scale":0,"icon-opacity":1,"icon-color":"#4e342e","icon-scale":1,"icon":"https://www.gstatic.com/mapspro/images/stock/503-wht-blank_maps.png","ID":"88.0","ID_CAM":"F-39","LATITUD":"37.19745926","LONGITUD":"-3.61036021"}},{"type":"Feature","geometry":{"type":"Point","coordinates":[-3.588684,37.167977,0]},"properties":{"name":"Paseo de la Bomba,desde pz. del Duque San Pedro de Galatino","description":{"@type":"html","value":"ID:89<br>ID_CAM:F-40<br>LATITUD:37.16797685<br>LONGITUD:-3.58868398"},"styleUrl":"#icon-1535-4E342E","label-scale":0,"icon-opacity":1,"icon-color":"#4e342e","icon-scale":1,"icon":"https://www.gstatic.com/mapspro/images/stock/503-wht-blank_maps.png","ID":"89.0","ID_CAM":"F-40","LATITUD":"37.16797685","LONGITUD":"-3.58868398"}},{"type":"Feature","geometry":{"type":"Point","coordinates":[-3.608249,37.186393,0]},"properties":{"name":"Doctor Olóriz,desde av. de la Constitución","description":{"@type":"html","value":"ID:132<br>ID_CAM:F-42<br>LATITUD:37.18639292<br>LONGITUD:-3.60824903"},"styleUrl":"#icon-1535-4E342E","label-scale":0,"icon-opacity":1,"icon-color":"#4e342e","icon-scale":1,"icon":"https://www.gstatic.com/mapspro/images/stock/503-wht-blank_maps.png","ID":"132.0","ID_CAM":"F-42","LATITUD":"37.18639292","LONGITUD":"-3.60824903"}},{"type":"Feature","geometry":{"type":"Point","coordinates":[-3.604563,37.184503,0]},"properties":{"name":"Av. de la Constitución,desde av. de Madrid,dirección Caleta","description":{"@type":"html","value":"ID:145<br>ID_CAM:F-43<br>LATITUD:37.18450278<br>LONGITUD:-3.60456328"},"styleUrl":"#icon-1535-4E342E","label-scale":0,"icon-opacity":1,"icon-color":"#4e342e","icon-scale":1,"icon":"https://www.gstatic.com/mapspro/images/stock/503-wht-blank_maps.png","ID":"145.0","ID_CAM":"F-43","LATITUD":"37.18450278","LONGITUD":"-3.60456328"}},{"type":"Feature","geometry":{"type":"Point","coordinates":[-3.604556,37.184499,0]},"properties":{"name":"Av. de la Constitución,desde av. de Madrid,dirección Triunfo","description":{"@type":"html","value":"ID:139<br>ID_CAM:F-44<br>LATITUD:37.18449931<br>LONGITUD:-3.60455603"},"styleUrl":"#icon-1535-4E342E","label-scale":0,"icon-opacity":1,"icon-color":"#4e342e","icon-scale":1,"icon":"https://www.gstatic.com/mapspro/images/stock/503-wht-blank_maps.png","ID":"139.0","ID_CAM":"F-44","LATITUD":"37.18449931","LONGITUD":"-3.60455603"}},{"type":"Feature","geometry":{"type":"Point","coordinates":[-3.606023,37.181412,0]},"properties":{"name":"Fuente Nueva,desde Rector López Argüeta","description":{"@type":"html","value":"ID:146<br>ID_CAM:F-45<br>LATITUD:37.18141214<br>LONGITUD:-3.60602299"},"styleUrl":"#icon-1535-4E342E","label-scale":0,"icon-opacity":1,"icon-color":"#4e342e","icon-scale":1,"icon":"https://www.gstatic.com/mapspro/images/stock/503-wht-blank_maps.png","ID":"146.0","ID_CAM":"F-45","LATITUD":"37.18141214","LONGITUD":"-3.60602299"}},{"type":"Feature","geometry":{"type":"Point","coordinates":[-3.607158,37.169582,0]},"properties":{"name":"Arabial,desde Neptuno,dirección Zaidín","description":{"@type":"html","value":"ID:133<br>ID_CAM:F-47<br>LATITUD:37.16958183<br>LONGITUD:-3.60715809"},"styleUrl":"#icon-1535-4E342E","label-scale":0,"icon-opacity":1,"icon-color":"#4e342e","icon-scale":1,"icon":"https://www.gstatic.com/mapspro/images/stock/503-wht-blank_maps.png","ID":"133.0","ID_CAM":"F-47","LATITUD":"37.16958183","LONGITUD":"-3.60715809"}},{"type":"Feature","geometry":{"type":"Point","coordinates":[-3.601472,37.163138,0]},"properties":{"name":"Camino de Ronda,desde rotonda Aviación","description":{"@type":"html","value":"ID:134<br>ID_CAM:F-48<br>LATITUD:37.16313779<br>LONGITUD:-3.60147207"},"styleUrl":"#icon-1535-4E342E","label-scale":0,"icon-opacity":1,"icon-color":"#4e342e","icon-scale":1,"icon":"https://www.gstatic.com/mapspro/images/stock/503-wht-blank_maps.png","ID":"134.0","ID_CAM":"F-48","LATITUD":"37.16313779","LONGITUD":"-3.60147207"}},{"type":"Feature","geometry":{"type":"Point","coordinates":[-3.601466,37.163138,0]},"properties":{"name":"Paseo del Violón,desde rotonda Aviación","description":{"@type":"html","value":"ID:147<br>ID_CAM:F-49<br>LATITUD:37.16313782<br>LONGITUD:-3.6014661"},"styleUrl":"#icon-1535-4E342E","label-scale":0,"icon-opacity":1,"icon-color":"#4e342e","icon-scale":1,"icon":"https://www.gstatic.com/mapspro/images/stock/503-wht-blank_maps.png","ID":"147.0","ID_CAM":"F-49","LATITUD":"37.16313782","LONGITUD":"-3.6014661"}},{"type":"Feature","geometry":{"type":"Point","coordinates":[-3.601469,37.163132,0]},"properties":{"name":"Av. de América,desde rotonda Aviación","description":{"@type":"html","value":"ID:135<br>ID_CAM:F-50<br>LATITUD:37.16313203<br>LONGITUD:-3.60146904"},"styleUrl":"#icon-1535-4E342E","label-scale":0,"icon-opacity":1,"icon-color":"#4e342e","icon-scale":1,"icon":"https://www.gstatic.com/mapspro/images/stock/503-wht-blank_maps.png","ID":"135.0","ID_CAM":"F-50","LATITUD":"37.16313203","LONGITUD":"-3.60146904"}},{"type":"Feature","geometry":{"type":"Point","coordinates":[-3.600003,37.160216,0]},"properties":{"name":"Av. de Barcelona,desde av. de Dílar","description":{"@type":"html","value":"ID:148<br>ID_CAM:F-51<br>LATITUD:37.16021579<br>LONGITUD:-3.60000264"},"styleUrl":"#icon-1535-4E342E","label-scale":0,"icon-opacity":1,"icon-color":"#4e342e","icon-scale":1,"icon":"https://www.gstatic.com/mapspro/images/stock/503-wht-blank_maps.png","ID":"148.0","ID_CAM":"F-51","LATITUD":"37.16021579","LONGITUD":"-3.60000264"}},{"type":"Feature","geometry":{"type":"Point","coordinates":[-3.599853,37.160372,0]},"properties":{"name":"Av. de Dílar,desde Palencia,dirección PTS","description":{"@type":"html","value":"ID:149<br>ID_CAM:F-52<br>LATITUD:37.1603715<br>LONGITUD:-3.59985328"},"styleUrl":"#icon-1535-4E342E","label-scale":0,"icon-opacity":1,"icon-color":"#4e342e","icon-scale":1,"icon":"https://www.gstatic.com/mapspro/images/stock/503-wht-blank_maps.png","ID":"149.0","ID_CAM":"F-52","LATITUD":"37.1603715","LONGITUD":"-3.59985328"}},{"type":"Feature","geometry":{"type":"Point","coordinates":[-3.593983,37.165124,0]},"properties":{"name":"Andrés Segovia,desde rotonda con Pablo Picasso","description":{"@type":"html","value":"ID:150<br>ID_CAM:F-53<br>LATITUD:37.16512406<br>LONGITUD:-3.59398333"},"styleUrl":"#icon-1535-4E342E","label-scale":0,"icon-opacity":1,"icon-color":"#4e342e","icon-scale":1,"icon":"https://www.gstatic.com/mapspro/images/stock/503-wht-blank_maps.png","ID":"150.0","ID_CAM":"F-53","LATITUD":"37.16512406","LONGITUD":"-3.59398333"}},{"type":"Feature","geometry":{"type":"Point","coordinates":[-3.606719,37.158512,0]},"properties":{"name":"Av. Fernando de los Ríos,desde Beethoven dirección centro","description":{"@type":"html","value":"ID:151<br>ID_CAM:F-54<br>LATITUD:37.15851244<br>LONGITUD:-3.60671876"},"styleUrl":"#icon-1535-4E342E","label-scale":0,"icon-opacity":1,"icon-color":"#4e342e","icon-scale":1,"icon":"https://www.gstatic.com/mapspro/images/stock/503-wht-blank_maps.png","ID":"151.0","ID_CAM":"F-54","LATITUD":"37.15851244","LONGITUD":"-3.60671876"}},{"type":"Feature","geometry":{"type":"Point","coordinates":[-3.603851,37.186803,0]},"properties":{"name":"Av. de Madrid,desde pz. de San Isidro,dirección Jaén","description":{"@type":"html","value":"ID:136<br>ID_CAM:F-55<br>LATITUD:37.186803<br>LONGITUD:-3.6038513"},"styleUrl":"#icon-1535-4E342E","label-scale":0,"icon-opacity":1,"icon-color":"#4e342e","icon-scale":1,"icon":"https://www.gstatic.com/mapspro/images/stock/503-wht-blank_maps.png","ID":"136.0","ID_CAM":"F-55","LATITUD":"37.186803","LONGITUD":"-3.6038513"}},{"type":"Feature","geometry":{"type":"Point","coordinates":[-3.588682,37.167972,0]},"properties":{"name":"Puente Verde,desde pz. del Duque San Pedro de Galatino","description":{"@type":"html","value":"ID:152<br>ID_CAM:F-58<br>LATITUD:37.16797223<br>LONGITUD:-3.58868242"},"styleUrl":"#icon-1535-4E342E","label-scale":0,"icon-opacity":1,"icon-color":"#4e342e","icon-scale":1,"icon":"https://www.gstatic.com/mapspro/images/stock/503-wht-blank_maps.png","ID":"152.0","ID_CAM":"F-58","LATITUD":"37.16797223","LONGITUD":"-3.58868242"}},{"type":"Feature","geometry":{"type":"Point","coordinates":[-3.629065,37.18988,0]},"properties":{"name":"Ctra de Málaga,desde Virgen de la Consolación,dirección Bobadilla","description":{"@type":"html","value":"ID:153<br>ID_CAM:F-59<br>LATITUD:37.18988049<br>LONGITUD:-3.62906499"},"styleUrl":"#icon-1535-4E342E","label-scale":0,"icon-opacity":1,"icon-color":"#4e342e","icon-scale":1,"icon":"https://www.gstatic.com/mapspro/images/stock/503-wht-blank_maps.png","ID":"153.0","ID_CAM":"F-59","LATITUD":"37.18988049","LONGITUD":"-3.62906499"}},{"type":"Feature","geometry":{"type":"Point","coordinates":[-3.629057,37.18988,0]},"properties":{"name":"Ctra de Málaga,desde Virgen de la Consolación,dirección Centro","description":{"@type":"html","value":"ID:154<br>ID_CAM:F-60<br>LATITUD:37.18988025<br>LONGITUD:-3.62905655"},"styleUrl":"#icon-1535-4E342E","label-scale":0,"icon-opacity":1,"icon-color":"#4e342e","icon-scale":1,"icon":"https://www.gstatic.com/mapspro/images/stock/503-wht-blank_maps.png","ID":"154.0","ID_CAM":"F-60","LATITUD":"37.18988025","LONGITUD":"-3.62905655"}},{"type":"Feature","geometry":{"type":"Point","coordinates":[-3.61048,37.177785,0]},"properties":{"name":"Camino de Ronda,desde Méndez Núñez,dirección Chana","description":{"@type":"html","value":"ID:140<br>ID_CAM:F-61<br>LATITUD:37.17778538<br>LONGITUD:-3.61047964"},"styleUrl":"#icon-1535-4E342E","label-scale":0,"icon-opacity":1,"icon-color":"#4e342e","icon-scale":1,"icon":"https://www.gstatic.com/mapspro/images/stock/503-wht-blank_maps.png","ID":"140.0","ID_CAM":"F-61","LATITUD":"37.17778538","LONGITUD":"-3.61047964"}},{"type":"Feature","geometry":{"type":"Point","coordinates":[-3.610476,37.177779,0]},"properties":{"name":"Camino de Ronda,desde Méndez Núñez,dirección Zaidín","description":{"@type":"html","value":"ID:141<br>ID_CAM:F-62<br>LATITUD:37.17777929<br>LONGITUD:-3.61047597"},"styleUrl":"#icon-1535-4E342E","label-scale":0,"icon-opacity":1,"icon-color":"#4e342e","icon-scale":1,"icon":"https://www.gstatic.com/mapspro/images/stock/503-wht-blank_maps.png","ID":"141.0","ID_CAM":"F-62","LATITUD":"37.17777929","LONGITUD":"-3.61047597"}},{"type":"Feature","geometry":{"type":"Point","coordinates":[-3.624185,37.193199,0]},"properties":{"name":"Av. de Andalucía,desde Sagrada Familia dirección Málaga","description":{"@type":"html","value":"ID:155<br>ID_CAM:F-63<br>LATITUD:37.19319876<br>LONGITUD:-3.62418502"},"styleUrl":"#icon-1535-4E342E","label-scale":0,"icon-opacity":1,"icon-color":"#4e342e","icon-scale":1,"icon":"https://www.gstatic.com/mapspro/images/stock/503-wht-blank_maps.png","ID":"155.0","ID_CAM":"F-63","LATITUD":"37.19319876","LONGITUD":"-3.62418502"}},{"type":"Feature","geometry":{"type":"Point","coordinates":[-3.62384,37.193113,0]},"properties":{"name":"Av. de Andalucía,desde Sagrada Familia dirección centro","description":{"@type":"html","value":"ID:156<br>ID_CAM:F-64<br>LATITUD:37.19311258<br>LONGITUD:-3.62384001"},"styleUrl":"#icon-1535-4E342E","label-scale":0,"icon-opacity":1,"icon-color":"#4e342e","icon-scale":1,"icon":"https://www.gstatic.com/mapspro/images/stock/503-wht-blank_maps.png","ID":"156.0","ID_CAM":"F-64","LATITUD":"37.19311258","LONGITUD":"-3.62384001"}},{"type":"Feature","geometry":{"type":"Point","coordinates":[-3.62162,37.189139,0]},"properties":{"name":"Crta. de Málaga - Circunvalación La Encina","description":{"@type":"html","value":"ID:157<br>ID_CAM:F-65<br>LATITUD:37.18913897<br>LONGITUD:-3.62161994"},"styleUrl":"#icon-1535-4E342E","label-scale":0,"icon-opacity":1,"icon-color":"#4e342e","icon-scale":1,"icon":"https://www.gstatic.com/mapspro/images/stock/503-wht-blank_maps.png","ID":"157.0","ID_CAM":"F-65","LATITUD":"37.18913897","LONGITUD":"-3.62161994"}},{"type":"Feature","geometry":{"type":"Point","coordinates":[-3.596321,37.185012,0]},"properties":{"name":"Ctra de Murcia,desde rotonda Cno. San Antonio,dirección Albaicín","description":{"@type":"html","value":"ID:137<br>ID_CAM:F-66<br>LATITUD:37.18501201<br>LONGITUD:-3.59632124"},"styleUrl":"#icon-1535-4E342E","label-scale":0,"icon-opacity":1,"icon-color":"#4e342e","icon-scale":1,"icon":"https://www.gstatic.com/mapspro/images/stock/503-wht-blank_maps.png","ID":"137.0","ID_CAM":"F-66","LATITUD":"37.18501201","LONGITUD":"-3.59632124"}},{"type":"Feature","geometry":{"type":"Point","coordinates":[-3.609886,37.155476,0]},"properties":{"name":"Fernando de los Ríos,desde Colonia San Sebastián,dirección Centro","description":{"@type":"html","value":"ID:158<br>ID_CAM:F-68<br>LATITUD:37.15547571<br>LONGITUD:-3.60988619"},"styleUrl":"#icon-1535-4E342E","label-scale":0,"icon-opacity":1,"icon-color":"#4e342e","icon-scale":1,"icon":"https://www.gstatic.com/mapspro/images/stock/503-wht-blank_maps.png","ID":"158.0","ID_CAM":"F-68","LATITUD":"37.15547571","LONGITUD":"-3.60988619"}},{"type":"Feature","geometry":{"type":"Point","coordinates":[-3.610001,37.155616,0]},"properties":{"name":"Fernando de los Ríos,desde Colonia San Sebastián,dirección Armilla","description":{"@type":"html","value":"ID:159<br>ID_CAM:F-69<br>LATITUD:37.15561644<br>LONGITUD:-3.61000126"},"styleUrl":"#icon-1535-4E342E","label-scale":0,"icon-opacity":1,"icon-color":"#4e342e","icon-scale":1,"icon":"https://www.gstatic.com/mapspro/images/stock/503-wht-blank_maps.png","ID":"159.0","ID_CAM":"F-69","LATITUD":"37.15561644","LONGITUD":"-3.61000126"}},{"type":"Feature","geometry":{"type":"Point","coordinates":[-3.595919,37.169612,0]},"properties":{"name":"Pz. del Humilladero","description":{"@type":"html","value":"ID:144<br>ID_CAM:F-70<br>LATITUD:37.16961171<br>LONGITUD:-3.59591869"},"styleUrl":"#icon-1535-4E342E","label-scale":0,"icon-opacity":1,"icon-color":"#4e342e","icon-scale":1,"icon":"https://www.gstatic.com/mapspro/images/stock/503-wht-blank_maps.png","ID":"144.0","ID_CAM":"F-70","LATITUD":"37.16961171","LONGITUD":"-3.59591869"}},{"type":"Feature","geometry":{"type":"Point","coordinates":[-3.596466,37.164017,0]},"properties":{"name":"Av. Pablo Picasso,desde Plaza del Ángel","description":{"@type":"html","value":"ID:179<br>ID_CAM:F-71<br>LATITUD:37.16401745<br>LONGITUD:-3.596466232"},"styleUrl":"#icon-1535-4E342E","label-scale":0,"icon-opacity":1,"icon-color":"#4e342e","icon-scale":1,"icon":"https://www.gstatic.com/mapspro/images/stock/503-wht-blank_maps.png","ID":"179.0","ID_CAM":"F-71","LATITUD":"37.16401745","LONGITUD":"-3.596466232"}},{"type":"Feature","geometry":{"type":"Point","coordinates":[-3.598736,37.167472,0]},"properties":{"name":"Plaza Rotary,desde San Antón","description":{"@type":"html","value":"ID:180<br>ID_CAM:F-72<br>LATITUD:37.16747203<br>LONGITUD:-3.598735635"},"styleUrl":"#icon-1535-4E342E","label-scale":0,"icon-opacity":1,"icon-color":"#4e342e","icon-scale":1,"icon":"https://www.gstatic.com/mapspro/images/stock/503-wht-blank_maps.png","ID":"180.0","ID_CAM":"F-72","LATITUD":"37.16747203","LONGITUD":"-3.598735635"}},{"type":"Feature","geometry":{"type":"Point","coordinates":[-3.608191,37.162978,0]},"properties":{"name":"Av. de la Ciencia,desde Eudoxia Píriz","description":{"@type":"html","value":"ID:181<br>ID_CAM:F-73<br>LATITUD:37.16297838<br>LONGITUD:-3.608190905"},"styleUrl":"#icon-1535-4E342E","label-scale":0,"icon-opacity":1,"icon-color":"#4e342e","icon-scale":1,"icon":"https://www.gstatic.com/mapspro/images/stock/503-wht-blank_maps.png","ID":"181.0","ID_CAM":"F-73","LATITUD":"37.16297838","LONGITUD":"-3.608190905"}},{"type":"Feature","geometry":{"type":"Point","coordinates":[-3.608193,37.162979,0]},"properties":{"name":"Eudoxia Píriz,desde Av. de la Ciencia","description":{"@type":"html","value":"ID:182<br>ID_CAM:F-74<br>LATITUD:37.16297865<br>LONGITUD:-3.608193358"},"styleUrl":"#icon-1535-4E342E","label-scale":0,"icon-opacity":1,"icon-color":"#4e342e","icon-scale":1,"icon":"https://www.gstatic.com/mapspro/images/stock/503-wht-blank_maps.png","ID":"182.0","ID_CAM":"F-74","LATITUD":"37.16297865","LONGITUD":"-3.608193358"}},{"type":"Feature","geometry":{"type":"Point","coordinates":[-3.609039,37.167911,0]},"properties":{"name":"Virgen Blanca,desde Rotonda de Neptuno","description":{"@type":"html","value":"ID:183<br>ID_CAM:F-75<br>LATITUD:37.16791086<br>LONGITUD:-3.609039025"},"styleUrl":"#icon-1535-4E342E","label-scale":0,"icon-opacity":1,"icon-color":"#4e342e","icon-scale":1,"icon":"https://www.gstatic.com/mapspro/images/stock/503-wht-blank_maps.png","ID":"183.0","ID_CAM":"F-75","LATITUD":"37.16791086","LONGITUD":"-3.609039025"}},{"type":"Feature","geometry":{"type":"Point","coordinates":[-3.600521,37.189399,0]},"properties":{"name":"Paseo de Cartuja,desde Labella Dávalos,dirección Norte","description":{"@type":"html","value":"ID:184<br>ID_CAM:F-76<br>LATITUD:37.18939918<br>LONGITUD:-3.600520774"},"styleUrl":"#icon-1535-4E342E","label-scale":0,"icon-opacity":1,"icon-color":"#4e342e","icon-scale":1,"icon":"https://www.gstatic.com/mapspro/images/stock/503-wht-blank_maps.png","ID":"184.0","ID_CAM":"F-76","LATITUD":"37.18939918","LONGITUD":"-3.600520774"}},{"type":"Feature","geometry":{"type":"Point","coordinates":[-3.614395,37.184103,0]},"properties":{"name":"Camino de Ronda,desde Ramón y Cajal,dirección Sur","description":{"@type":"html","value":"ID:185<br>ID_CAM:F-77<br>LATITUD:37.18410346<br>LONGITUD:-3.614394977"},"styleUrl":"#icon-1535-4E342E","label-scale":0,"icon-opacity":1,"icon-color":"#4e342e","icon-scale":1,"icon":"https://www.gstatic.com/mapspro/images/stock/503-wht-blank_maps.png","ID":"185.0","ID_CAM":"F-77","LATITUD":"37.18410346","LONGITUD":"-3.614394977"}},{"type":"Feature","geometry":{"type":"Point","coordinates":[-3.612708,37.18815,0]},"properties":{"name":"Ribera del Beiro,desde Av. de Andalucía,dirección Norte","description":{"@type":"html","value":"ID:186<br>ID_CAM:F-78<br>LATITUD:37.18815031<br>LONGITUD:-3.612708252"},"styleUrl":"#icon-1535-4E342E","label-scale":0,"icon-opacity":1,"icon-color":"#4e342e","icon-scale":1,"icon":"https://www.gstatic.com/mapspro/images/stock/503-wht-blank_maps.png","ID":"186.0","ID_CAM":"F-78","LATITUD":"37.18815031","LONGITUD":"-3.612708252"}},{"type":"Feature","geometry":{"type":"Point","coordinates":[-3.612708,37.18815,0]},"properties":{"name":"Ribera del Beiro,desde Av. de Andalucía,dirección Sur","description":{"@type":"html","value":"ID:187<br>ID_CAM:F-79<br>LATITUD:37.18815031<br>LONGITUD:-3.612708252"},"styleUrl":"#icon-1535-4E342E","label-scale":0,"icon-opacity":1,"icon-color":"#4e342e","icon-scale":1,"icon":"https://www.gstatic.com/mapspro/images/stock/503-wht-blank_maps.png","ID":"187.0","ID_CAM":"F-79","LATITUD":"37.18815031","LONGITUD":"-3.612708252"}},{"type":"Feature","geometry":{"type":"Point","coordinates":[-3.596774,37.168989,0]},"properties":{"name":"Acera del Darro,desde Plaza del Humilladero","description":{"@type":"html","value":"ID:188<br>ID_CAM:F-80<br>LATITUD:37.16898872<br>LONGITUD:-3.5967738"},"styleUrl":"#icon-1535-4E342E","label-scale":0,"icon-opacity":1,"icon-color":"#4e342e","icon-scale":1,"icon":"https://www.gstatic.com/mapspro/images/stock/503-wht-blank_maps.png","ID":"188.0","ID_CAM":"F-80","LATITUD":"37.16898872","LONGITUD":"-3.5967738"}},{"type":"Feature","geometry":{"type":"Point","coordinates":[-3.599958,37.187856,0]},"properties":{"name":"Avd. Murcia-Ctra. Murcia","description":{"@type":"html","value":"ID:196<br>ID_CAM:F-81<br>LATITUD:37.18785567<br>LONGITUD:-3.599957644"},"styleUrl":"#icon-1535-4E342E","label-scale":0,"icon-opacity":1,"icon-color":"#4e342e","icon-scale":1,"icon":"https://www.gstatic.com/mapspro/images/stock/503-wht-blank_maps.png","ID":"196.0","ID_CAM":"F-81","LATITUD":"37.18785567","LONGITUD":"-3.599957644"}},{"type":"Feature","geometry":{"type":"Point","coordinates":[-3.599958,37.187855,0]},"properties":{"name":"Avd. Murcia-Ctra. Murcia","description":{"@type":"html","value":"ID:197<br>ID_CAM:F-82<br>LATITUD:37.1878553<br>LONGITUD:-3.599958222"},"styleUrl":"#icon-1535-4E342E","label-scale":0,"icon-opacity":1,"icon-color":"#4e342e","icon-scale":1,"icon":"https://www.gstatic.com/mapspro/images/stock/503-wht-blank_maps.png","ID":"197.0","ID_CAM":"F-82","LATITUD":"37.1878553","LONGITUD":"-3.599958222"}},{"type":"Feature","geometry":{"type":"Point","coordinates":[-3.607183,37.180225,0]},"properties":{"name":"Avd. Fuente Nueva-Melchor Almagro","description":{"@type":"html","value":"ID:198<br>ID_CAM:F-83<br>LATITUD:37.18022539<br>LONGITUD:-3.607182546"},"styleUrl":"#icon-1535-4E342E","label-scale":0,"icon-opacity":1,"icon-color":"#4e342e","icon-scale":1,"icon":"https://www.gstatic.com/mapspro/images/stock/503-wht-blank_maps.png","ID":"198.0","ID_CAM":"F-83","LATITUD":"37.18022539","LONGITUD":"-3.607182546"}},{"type":"Feature","geometry":{"type":"Point","coordinates":[-3.607182,37.180225,0]},"properties":{"name":"Avd. Fuente Nueva-Melchor Almagro","description":{"@type":"html","value":"ID:199<br>ID_CAM:F-84<br>LATITUD:37.18022502<br>LONGITUD:-3.607182228"},"styleUrl":"#icon-1535-4E342E","label-scale":0,"icon-opacity":1,"icon-color":"#4e342e","icon-scale":1,"icon":"https://www.gstatic.com/mapspro/images/stock/503-wht-blank_maps.png","ID":"199.0","ID_CAM":"F-84","LATITUD":"37.18022502","LONGITUD":"-3.607182228"}},{"type":"Feature","geometry":{"type":"Point","coordinates":[-3.601255,37.19529,0]},"properties":{"name":"Ctra. Alfacar - Tibónidas","description":{"@type":"html","value":"ID:200<br>ID_CAM:F-85<br>LATITUD:37.19529<br>LONGITUD:-3.601255"},"styleUrl":"#icon-1535-4E342E","label-scale":0,"icon-opacity":1,"icon-color":"#4e342e","icon-scale":1,"icon":"https://www.gstatic.com/mapspro/images/stock/503-wht-blank_maps.png","ID":"200.0","ID_CAM":"F-85","LATITUD":"37.19529","LONGITUD":"-3.601255"}},{"type":"Feature","geometry":{"type":"Point","coordinates":[-3.604067,37.165085,0]},"properties":{"name":"Jardín de la Reina-Juncos-Alejandro Otero","description":{"@type":"html","value":"ID:201<br>ID_CAM:F-86<br>LATITUD:37.16508485<br>LONGITUD:-3.604067337"},"styleUrl":"#icon-1535-4E342E","label-scale":0,"icon-opacity":1,"icon-color":"#4e342e","icon-scale":1,"icon":"https://www.gstatic.com/mapspro/images/stock/503-wht-blank_maps.png","ID":"201.0","ID_CAM":"F-86","LATITUD":"37.16508485","LONGITUD":"-3.604067337"}},{"type":"Feature","geometry":{"type":"Point","coordinates":[-3.603836,37.165067,0]},"properties":{"name":"Jardín de la Reina-Juncos-Alejandro Otero","description":{"@type":"html","value":"ID:202<br>ID_CAM:F-87<br>LATITUD:37.16506741<br>LONGITUD:-3.603835501"},"styleUrl":"#icon-1535-4E342E","label-scale":0,"icon-opacity":1,"icon-color":"#4e342e","icon-scale":1,"icon":"https://www.gstatic.com/mapspro/images/stock/503-wht-blank_maps.png","ID":"202.0","ID_CAM":"F-87","LATITUD":"37.16506741","LONGITUD":"-3.603835501"}},{"type":"Feature","geometry":{"type":"Point","coordinates":[-3.598585,37.171408,0]},"properties":{"name":"Acera del Darro-Puente Casta¤eda","description":{"@type":"html","value":"ID:203<br>ID_CAM:F-88<br>LATITUD:37.1714082<br>LONGITUD:-3.59858515"},"styleUrl":"#icon-1535-4E342E","label-scale":0,"icon-opacity":1,"icon-color":"#4e342e","icon-scale":1,"icon":"https://www.gstatic.com/mapspro/images/stock/503-wht-blank_maps.png","ID":"203.0","ID_CAM":"F-88","LATITUD":"37.1714082","LONGITUD":"-3.59858515"}},{"type":"Feature","geometry":{"type":"Point","coordinates":[-3.604338,37.161277,0]},"properties":{"name":"Avd. Fernando de los Ríos-Avd. de la Ciencia","description":{"@type":"html","value":"ID:204<br>ID_CAM:F-89<br>LATITUD:37.16127737<br>LONGITUD:-3.604338007"},"styleUrl":"#icon-1535-4E342E","label-scale":0,"icon-opacity":1,"icon-color":"#4e342e","icon-scale":1,"icon":"https://www.gstatic.com/mapspro/images/stock/503-wht-blank_maps.png","ID":"204.0","ID_CAM":"F-89","LATITUD":"37.16127737","LONGITUD":"-3.604338007"}},{"type":"Feature","geometry":{"type":"Point","coordinates":[-3.604644,37.161208,0]},"properties":{"name":"Av. Fernando de los Ríos,desde Av. de la Ciencia,dirección sur","description":{"@type":"html","value":"ID:205<br>ID_CAM:F-90<br>LATITUD:37.16120785<br>LONGITUD:-3.604643875"},"styleUrl":"#icon-1535-4E342E","label-scale":0,"icon-opacity":1,"icon-color":"#4e342e","icon-scale":1,"icon":"https://www.gstatic.com/mapspro/images/stock/503-wht-blank_maps.png","ID":"205.0","ID_CAM":"F-90","LATITUD":"37.16120785","LONGITUD":"-3.604643875"}},{"type":"Feature","geometry":{"type":"Point","coordinates":[-3.614855,37.186974,0]},"properties":{"name":"Cmno. de Ronda - Pasaje de la Luz","description":{"@type":"html","value":"ID:206<br>ID_CAM:F-91<br>LATITUD:37.186974<br>LONGITUD:-3.614855"},"styleUrl":"#icon-1535-4E342E","label-scale":0,"icon-opacity":1,"icon-color":"#4e342e","icon-scale":1,"icon":"https://www.gstatic.com/mapspro/images/stock/503-wht-blank_maps.png","ID":"206.0","ID_CAM":"F-91","LATITUD":"37.186974","LONGITUD":"-3.614855"}},{"type":"Feature","geometry":{"type":"Point","coordinates":[-3.614855,37.186974,0]},"properties":{"name":"Cmno. de Ronda - Pasaje de la Luz","description":{"@type":"html","value":"ID:207<br>ID_CAM:F-92<br>LATITUD:37.186974<br>LONGITUD:-3.614855"},"styleUrl":"#icon-1535-4E342E","label-scale":0,"icon-opacity":1,"icon-color":"#4e342e","icon-scale":1,"icon":"https://www.gstatic.com/mapspro/images/stock/503-wht-blank_maps.png","ID":"207.0","ID_CAM":"F-92","LATITUD":"37.186974","LONGITUD":"-3.614855"}}]}