{"type":"FeatureCollection","features":[{"type":"Feature","geometry":{"type":"Point","coordinates":[-3.588237,37.178887,0]},"properties":{"name":"REY CHICO,PLACETA,DEL,nº S/N","description":{"@type":"html","value":"Reserva Aparcabicis <br><br> Distrito CENTRO <br> Longitud 4,5 <br> Nº Plazas 6 <br> Estacionamiento Batería <br> Observaciones <br> POINT_Y 37,178887 <br> POINT_X -3,588237"},"styleUrl":"#icon-1522-097138","label-scale":0,"icon-opacity":1,"icon-color":"#097138","icon-scale":1,"icon":"https://www.gstatic.com/mapspro/images/stock/503-wht-blank_maps.png"}},{"type":"Feature","geometry":{"type":"Point","coordinates":[-3.630655,37.188423,0]},"properties":{"name":"PINTOR FERNANDO BELDA,CALLE,nº 62","description":{"@type":"html","value":"Reserva Aparcabicis <br><br> Distrito CHANA <br> Longitud 4 <br> Nº Plazas 6 <br> Estacionamiento Batería <br> Observaciones Modulo privado <br> POINT_Y 37,188423 <br> POINT_X -3,630655"},"styleUrl":"#icon-1522-097138","label-scale":0,"icon-opacity":1,"icon-color":"#097138","icon-scale":1,"icon":"https://www.gstatic.com/mapspro/images/stock/503-wht-blank_maps.png"}},{"type":"Feature","geometry":{"type":"Point","coordinates":[-3.630476,37.187594,0]},"properties":{"name":"PINTOR FERNANDO BELDA,CALLE,nº 62","description":{"@type":"html","value":"Reserva Aparcabicis <br><br> Distrito CHANA <br> Longitud 4 <br> Nº Plazas 6 <br> Estacionamiento Batería <br> Observaciones Modulo privado <br> POINT_Y 37,187594 <br> POINT_X -3,630476"},"styleUrl":"#icon-1522-097138","label-scale":0,"icon-opacity":1,"icon-color":"#097138","icon-scale":1,"icon":"https://www.gstatic.com/mapspro/images/stock/503-wht-blank_maps.png"}},{"type":"Feature","geometry":{"type":"Point","coordinates":[-3.630412,37.187466,0]},"properties":{"name":"PINTOR FERNANDO BELDA,CALLE,nº 62","description":{"@type":"html","value":"Reserva Aparcabicis <br><br> Distrito CHANA <br> Longitud 4 <br> Nº Plazas 6 <br> Estacionamiento Batería <br> Observaciones Modulo privado <br> POINT_Y 37,187466 <br> POINT_X -3,630412"},"styleUrl":"#icon-1522-097138","label-scale":0,"icon-opacity":1,"icon-color":"#097138","icon-scale":1,"icon":"https://www.gstatic.com/mapspro/images/stock/503-wht-blank_maps.png"}},{"type":"Feature","geometry":{"type":"Point","coordinates":[-3.608659,37.168385,0]},"properties":{"name":"NEPTUNO,CALLE,nº 10","description":{"@type":"html","value":"Reserva Aparcabicis <br><br> Distrito RONDA <br> Longitud 4,5 <br> Nº Plazas 12 <br> Estacionamiento Batería <br> Observaciones <br> POINT_Y 37,168385 <br> POINT_X -3,608659"},"styleUrl":"#icon-1522-097138","label-scale":0,"icon-opacity":1,"icon-color":"#097138","icon-scale":1,"icon":"https://www.gstatic.com/mapspro/images/stock/503-wht-blank_maps.png"}},{"type":"Feature","geometry":{"type":"Point","coordinates":[-3.608598,37.17422,0]},"properties":{"name":"RONDA,CAMINO,DE,nº 97","description":{"@type":"html","value":"Reserva Aparcabicis <br><br> Distrito RONDA <br> Longitud 3 <br> Nº Plazas 5 <br> Estacionamiento Batería <br> Observaciones Modulo privado <br> POINT_Y 37,17422 <br> POINT_X -3,608598"},"styleUrl":"#icon-1522-097138","label-scale":0,"icon-opacity":1,"icon-color":"#097138","icon-scale":1,"icon":"https://www.gstatic.com/mapspro/images/stock/503-wht-blank_maps.png"}},{"type":"Feature","geometry":{"type":"Point","coordinates":[-3.613923,37.178867,0]},"properties":{"name":"CAÑAVERAL,CALLE,nº 13","description":{"@type":"html","value":"Reserva Aparcabicis <br><br> Distrito RONDA <br> Longitud 4,5 <br> Nº Plazas 6 <br> Estacionamiento Batería <br> Observaciones <br> POINT_Y 37,178867 <br> POINT_X -3,613923"},"styleUrl":"#icon-1522-097138","label-scale":0,"icon-opacity":1,"icon-color":"#097138","icon-scale":1,"icon":"https://www.gstatic.com/mapspro/images/stock/503-wht-blank_maps.png"}},{"type":"Feature","geometry":{"type":"Point","coordinates":[-3.599932,37.177861,0]},"properties":{"name":"RADIO GRANADA,PLACETA,nº 2","description":{"@type":"html","value":"Reserva Aparcabicis <br><br> Distrito CENTRO <br> Longitud 4,5 <br> Nº Plazas 6 <br> Estacionamiento Batería <br> Observaciones <br> POINT_Y 37,177861 <br> POINT_X -3,599932"},"styleUrl":"#icon-1522-097138","label-scale":0,"icon-opacity":1,"icon-color":"#097138","icon-scale":1,"icon":"https://www.gstatic.com/mapspro/images/stock/503-wht-blank_maps.png"}},{"type":"Feature","geometry":{"type":"Point","coordinates":[-3.613131,37.199453,0]},"properties":{"name":"JUAN PABLO II,AVENIDA,nº 33","description":{"@type":"html","value":"Reserva Aparcabicis <br><br> Distrito NORTE <br> Longitud 9 <br> Nº Plazas 12 <br> Estacionamiento Batería <br> Observaciones <br> POINT_Y 37,199453 <br> POINT_X -3,613131"},"styleUrl":"#icon-1522-097138","label-scale":0,"icon-opacity":1,"icon-color":"#097138","icon-scale":1,"icon":"https://www.gstatic.com/mapspro/images/stock/503-wht-blank_maps.png"}},{"type":"Feature","geometry":{"type":"Point","coordinates":[-3.608439,37.174263,0]},"properties":{"name":"RONDA,CAMINO,DE,nº 97","description":{"@type":"html","value":"Reserva Aparcabicis <br><br> Distrito RONDA <br> Longitud 4,5 <br> Nº Plazas 6 <br> Estacionamiento Batería <br> Observaciones <br> POINT_Y 37,174263 <br> POINT_X -3,608439"},"styleUrl":"#icon-1522-097138","label-scale":0,"icon-opacity":1,"icon-color":"#097138","icon-scale":1,"icon":"https://www.gstatic.com/mapspro/images/stock/503-wht-blank_maps.png"}},{"type":"Feature","geometry":{"type":"Point","coordinates":[-3.605051,37.170551,0]},"properties":{"name":"RECOGIDAS,CALLE,nº 55","description":{"@type":"html","value":"Reserva Aparcabicis <br><br> Distrito RONDA <br> Longitud 4,5 <br> Nº Plazas 6 <br> Estacionamiento Batería <br> Observaciones <br> POINT_Y 37,170551 <br> POINT_X -3,605051"},"styleUrl":"#icon-1522-097138","label-scale":0,"icon-opacity":1,"icon-color":"#097138","icon-scale":1,"icon":"https://www.gstatic.com/mapspro/images/stock/503-wht-blank_maps.png"}},{"type":"Feature","geometry":{"type":"Point","coordinates":[-3.594523,37.152384,0]},"properties":{"name":"TORRE DE COMARES,CALLE,nº 4","description":{"@type":"html","value":"Reserva Aparcabicis <br><br> Distrito GENIL <br> Longitud 4,5 <br> Nº Plazas 6 <br> Estacionamiento Batería <br> Observaciones <br> POINT_Y 37,152384 <br> POINT_X -3,594523"},"styleUrl":"#icon-1522-097138","label-scale":0,"icon-opacity":1,"icon-color":"#097138","icon-scale":1,"icon":"https://www.gstatic.com/mapspro/images/stock/503-wht-blank_maps.png"}},{"type":"Feature","geometry":{"type":"Point","coordinates":[-3.595636,37.15852,0]},"properties":{"name":"ANDRES SEGOVIA,CALLE,nº 60","description":{"@type":"html","value":"Reserva Aparcabicis <br><br> Distrito ZAIDIN <br> Longitud 4,5 <br> Nº Plazas 6 <br> Estacionamiento Batería <br> Observaciones <br> POINT_Y 37,15852 <br> POINT_X -3,595636"},"styleUrl":"#icon-1522-097138","label-scale":0,"icon-opacity":1,"icon-color":"#097138","icon-scale":1,"icon":"https://www.gstatic.com/mapspro/images/stock/503-wht-blank_maps.png"}},{"type":"Feature","geometry":{"type":"Point","coordinates":[-3.595003,37.155738,0]},"properties":{"name":"EMPERADOR CARLOS V,PASEO,DEL,nº S/N","description":{"@type":"html","value":"Reserva Aparcabicis <br><br> Distrito GENIL <br> Longitud 8 <br> Nº Plazas 12 <br> Estacionamiento Batería <br> Observaciones <br> POINT_Y 37,155738 <br> POINT_X -3,595003"},"styleUrl":"#icon-1522-097138","label-scale":0,"icon-opacity":1,"icon-color":"#097138","icon-scale":1,"icon":"https://www.gstatic.com/mapspro/images/stock/503-wht-blank_maps.png"}},{"type":"Feature","geometry":{"type":"Point","coordinates":[-3.630434,37.187508,0]},"properties":{"name":"PINTOR FERNANDO BELDA,CALLE,nº 62","description":{"@type":"html","value":"Reserva Aparcabicis <br><br> Distrito CHANA <br> Longitud 4 <br> Nº Plazas 6 <br> Estacionamiento Batería <br> Observaciones Modulo privado <br> POINT_Y 37,187508 <br> POINT_X -3,630434"},"styleUrl":"#icon-1522-097138","label-scale":0,"icon-opacity":1,"icon-color":"#097138","icon-scale":1,"icon":"https://www.gstatic.com/mapspro/images/stock/503-wht-blank_maps.png"}},{"type":"Feature","geometry":{"type":"Point","coordinates":[-3.608628,37.174227,0]},"properties":{"name":"RONDA,CAMINO,DE,nº 97","description":{"@type":"html","value":"Reserva Aparcabicis <br><br> Distrito RONDA <br> Longitud 3 <br> Nº Plazas 5 <br> Estacionamiento Batería <br> Observaciones Modulo privado <br> POINT_Y 37,174227 <br> POINT_X -3,608628"},"styleUrl":"#icon-1522-097138","label-scale":0,"icon-opacity":1,"icon-color":"#097138","icon-scale":1,"icon":"https://www.gstatic.com/mapspro/images/stock/503-wht-blank_maps.png"}},{"type":"Feature","geometry":{"type":"Point","coordinates":[-3.602669,37.175367,0]},"properties":{"name":"BUENSUCESO,CALLE,nº 12","description":{"@type":"html","value":"Reserva Aparcabicis <br><br> Distrito CENTRO <br> Longitud 4,5 <br> Nº Plazas 6 <br> Estacionamiento Batería <br> Observaciones <br> POINT_Y 37,175367 <br> POINT_X -3,602669"},"styleUrl":"#icon-1522-097138","label-scale":0,"icon-opacity":1,"icon-color":"#097138","icon-scale":1,"icon":"https://www.gstatic.com/mapspro/images/stock/503-wht-blank_maps.png"}},{"type":"Feature","geometry":{"type":"Point","coordinates":[-3.58467,37.174089,0]},"properties":{"name":"SABICA,PASEO,DE LA,nº 20","description":{"@type":"html","value":"Reserva Aparcabicis <br><br> Distrito CENTRO <br> Longitud 5 <br> Nº Plazas 10 <br> Estacionamiento Batería <br> Observaciones Privado <br> POINT_Y 37,174089 <br> POINT_X -3,58467"},"styleUrl":"#icon-1522-097138","label-scale":0,"icon-opacity":1,"icon-color":"#097138","icon-scale":1,"icon":"https://www.gstatic.com/mapspro/images/stock/503-wht-blank_maps.png"}},{"type":"Feature","geometry":{"type":"Point","coordinates":[-3.606022,37.176992,0]},"properties":{"name":"GRAN CAPITAN,PLAZA,DE,nº 2","description":{"@type":"html","value":"Reserva Aparcabicis <br><br> Distrito CENTRO <br> Longitud 4,5 <br> Nº Plazas 12 <br> Estacionamiento Batería <br> Observaciones <br> POINT_Y 37,176992 <br> POINT_X -3,606022"},"styleUrl":"#icon-1522-097138","label-scale":0,"icon-opacity":1,"icon-color":"#097138","icon-scale":1,"icon":"https://www.gstatic.com/mapspro/images/stock/503-wht-blank_maps.png"}},{"type":"Feature","geometry":{"type":"Point","coordinates":[-3.598077,37.168224,0]},"properties":{"name":"GENERAL EMILIO HERRERA,PLAZA,nº 4","description":{"@type":"html","value":"Reserva Aparcabicis <br><br> Distrito CENTRO <br> Longitud 6 <br> Nº Plazas 12 <br> Estacionamiento Batería <br> Observaciones <br> POINT_Y 37,168224 <br> POINT_X -3,598077"},"styleUrl":"#icon-1522-097138","label-scale":0,"icon-opacity":1,"icon-color":"#097138","icon-scale":1,"icon":"https://www.gstatic.com/mapspro/images/stock/503-wht-blank_maps.png"}},{"type":"Feature","geometry":{"type":"Point","coordinates":[-3.609663,37.176603,0]},"properties":{"name":"RONDA,CAMINO,DE,nº 136","description":{"@type":"html","value":"Reserva Aparcabicis <br><br> Distrito RONDA <br> Longitud 9 <br> Nº Plazas 12 <br> Estacionamiento Batería <br> Observaciones <br> POINT_Y 37,176603 <br> POINT_X -3,609663"},"styleUrl":"#icon-1522-097138","label-scale":0,"icon-opacity":1,"icon-color":"#097138","icon-scale":1,"icon":"https://www.gstatic.com/mapspro/images/stock/503-wht-blank_maps.png"}},{"type":"Feature","geometry":{"type":"Point","coordinates":[-3.592915,37.156951,0]},"properties":{"name":"BARON PIERRE DE COUBERTIN,PLAZA,nº 1","description":{"@type":"html","value":"Reserva Aparcabicis <br><br> Distrito GENIL <br> Longitud 4,5 <br> Nº Plazas 7 <br> Estacionamiento Batería <br> Observaciones <br> POINT_Y 37,156951 <br> POINT_X -3,592915"},"styleUrl":"#icon-1522-097138","label-scale":0,"icon-opacity":1,"icon-color":"#097138","icon-scale":1,"icon":"https://www.gstatic.com/mapspro/images/stock/503-wht-blank_maps.png"}},{"type":"Feature","geometry":{"type":"Point","coordinates":[-3.597174,37.169682,0]},"properties":{"name":"PUENTE DE LA VIRGEN,CALLE,nº 4","description":{"@type":"html","value":"Reserva Aparcabicis <br><br> Distrito CENTRO <br> Longitud 4,5 <br> Nº Plazas 6 <br> Estacionamiento Batería <br> Observaciones <br> POINT_Y 37,169682 <br> POINT_X -3,597174"},"styleUrl":"#icon-1522-097138","label-scale":0,"icon-opacity":1,"icon-color":"#097138","icon-scale":1,"icon":"https://www.gstatic.com/mapspro/images/stock/503-wht-blank_maps.png"}},{"type":"Feature","geometry":{"type":"Point","coordinates":[-3.588719,37.159005,0]},"properties":{"name":"BAJO DE HUETOR,CAMINO,nº 78","description":{"@type":"html","value":"Reserva Aparcabicis <br><br> Distrito GENIL <br> Longitud 4,5 <br> Nº Plazas 6 <br> Estacionamiento Batería <br> Observaciones <br> POINT_Y 37,159005 <br> POINT_X -3,588719"},"styleUrl":"#icon-1522-097138","label-scale":0,"icon-opacity":1,"icon-color":"#097138","icon-scale":1,"icon":"https://www.gstatic.com/mapspro/images/stock/503-wht-blank_maps.png"}},{"type":"Feature","geometry":{"type":"Point","coordinates":[-3.60256,37.169049,0]},"properties":{"name":"ALHAMAR,CALLE,nº 26","description":{"@type":"html","value":"Reserva Aparcabicis <br><br> Distrito RONDA <br> Longitud 4,5 <br> Nº Plazas 6 <br> Estacionamiento Batería <br> Observaciones <br> POINT_Y 37,169049 <br> POINT_X -3,60256"},"styleUrl":"#icon-1522-097138","label-scale":0,"icon-opacity":1,"icon-color":"#097138","icon-scale":1,"icon":"https://www.gstatic.com/mapspro/images/stock/503-wht-blank_maps.png"}},{"type":"Feature","geometry":{"type":"Point","coordinates":[-3.602212,37.179501,0]},"properties":{"name":"SAN JERONIMO,CALLE,nº 46","description":{"@type":"html","value":"Reserva Aparcabicis <br><br> Distrito CENTRO <br> Longitud 6 <br> Nº Plazas 12 <br> Estacionamiento Batería <br> Observaciones <br> POINT_Y 37,179501 <br> POINT_X -3,602212"},"styleUrl":"#icon-1522-097138","label-scale":0,"icon-opacity":1,"icon-color":"#097138","icon-scale":1,"icon":"https://www.gstatic.com/mapspro/images/stock/503-wht-blank_maps.png"}},{"type":"Feature","geometry":{"type":"Point","coordinates":[-3.615248,37.195643,0]},"properties":{"name":"ARGENTINITA,AVENIDA,DE LA,nº 1","description":{"@type":"html","value":"Reserva Aparcabicis <br><br> Distrito BEIRO <br> Longitud 4,5 <br> Nº Plazas 12 <br> Estacionamiento Batería <br> Observaciones <br> POINT_Y 37,195643 <br> POINT_X -3,615248"},"styleUrl":"#icon-1522-097138","label-scale":0,"icon-opacity":1,"icon-color":"#097138","icon-scale":1,"icon":"https://www.gstatic.com/mapspro/images/stock/503-wht-blank_maps.png"}},{"type":"Feature","geometry":{"type":"Point","coordinates":[-3.612737,37.177413,0]},"properties":{"name":"GUITARRISTA MANUEL CANO,PLAZA,nº 3","description":{"@type":"html","value":"Reserva Aparcabicis <br><br> Distrito RONDA <br> Longitud 4,5 <br> Nº Plazas 6 <br> Estacionamiento Batería <br> Observaciones Privado <br> POINT_Y 37,177413 <br> POINT_X -3,612737"},"styleUrl":"#icon-1522-097138","label-scale":0,"icon-opacity":1,"icon-color":"#097138","icon-scale":1,"icon":"https://www.gstatic.com/mapspro/images/stock/503-wht-blank_maps.png"}},{"type":"Feature","geometry":{"type":"Point","coordinates":[-3.605331,37.168993,0]},"properties":{"name":"MARQUES DE LA ENSENADA,CALLE,nº 1","description":{"@type":"html","value":"Reserva Aparcabicis <br><br> Distrito RONDA <br> Longitud 4,5 <br> Nº Plazas 6 <br> Estacionamiento Batería <br> Observaciones <br> POINT_Y 37,168993 <br> POINT_X -3,605331"},"styleUrl":"#icon-1522-097138","label-scale":0,"icon-opacity":1,"icon-color":"#097138","icon-scale":1,"icon":"https://www.gstatic.com/mapspro/images/stock/503-wht-blank_maps.png"}},{"type":"Feature","geometry":{"type":"Point","coordinates":[-3.605691,37.170136,0]},"properties":{"name":"RONDA,CAMINO,DE,nº 69","description":{"@type":"html","value":"Reserva Aparcabicis <br><br> Distrito RONDA <br> Longitud 4,5 <br> Nº Plazas 6 <br> Estacionamiento Batería <br> Observaciones <br> POINT_Y 37,170136 <br> POINT_X -3,605691"},"styleUrl":"#icon-1522-097138","label-scale":0,"icon-opacity":1,"icon-color":"#097138","icon-scale":1,"icon":"https://www.gstatic.com/mapspro/images/stock/503-wht-blank_maps.png"}},{"type":"Feature","geometry":{"type":"Point","coordinates":[-3.599151,37.19719,0]},"properties":{"name":"PUERTA LOS GUZMANES,CALLE,nº Polideportivo","description":{"@type":"html","value":"Reserva Aparcabicis <br><br> Distrito NORTE <br> Longitud 7,1 <br> Nº Plazas 12 <br> Estacionamiento Batería <br> Observaciones 6 Horquillas <br> POINT_Y 37,19719 <br> POINT_X -3,599151"},"styleUrl":"#icon-1522-097138","label-scale":0,"icon-opacity":1,"icon-color":"#097138","icon-scale":1,"icon":"https://www.gstatic.com/mapspro/images/stock/503-wht-blank_maps.png"}},{"type":"Feature","geometry":{"type":"Point","coordinates":[-3.624784,37.191414,0]},"properties":{"name":"SAGRADA FAMILIA,CALLE,nº 18","description":{"@type":"html","value":"Reserva Aparcabicis <br><br> Distrito CHANA <br> Longitud 2 <br> Nº Plazas 6 <br> Estacionamiento Batería <br> Observaciones <br> POINT_Y 37,191414 <br> POINT_X -3,624784"},"styleUrl":"#icon-1522-097138","label-scale":0,"icon-opacity":1,"icon-color":"#097138","icon-scale":1,"icon":"https://www.gstatic.com/mapspro/images/stock/503-wht-blank_maps.png"}},{"type":"Feature","geometry":{"type":"Point","coordinates":[-3.583511,37.16577,0]},"properties":{"name":"LAGUNA DE LA CALDERA,CALLE,nº 42","description":{"@type":"html","value":"Reserva Aparcabicis <br><br> Distrito GENIL <br> Longitud 4 <br> Nº Plazas 8 <br> Estacionamiento Batería <br> Observaciones <br> POINT_Y 37,16577 <br> POINT_X -3,583511"},"styleUrl":"#icon-1522-097138","label-scale":0,"icon-opacity":1,"icon-color":"#097138","icon-scale":1,"icon":"https://www.gstatic.com/mapspro/images/stock/503-wht-blank_maps.png"}},{"type":"Feature","geometry":{"type":"Point","coordinates":[-3.604357,37.147592,0]},"properties":{"name":"INVESTIGACION,AVENIDA,DE LA,nº S/N","description":{"@type":"html","value":"Reserva Aparcabicis <br><br> Distrito ZAIDIN <br> Longitud 2 <br> Nº Plazas 6 <br> Estacionamiento Batería <br> Observaciones <br> POINT_Y 37,147592 <br> POINT_X -3,604357"},"styleUrl":"#icon-1522-097138","label-scale":0,"icon-opacity":1,"icon-color":"#097138","icon-scale":1,"icon":"https://www.gstatic.com/mapspro/images/stock/503-wht-blank_maps.png"}},{"type":"Feature","geometry":{"type":"Point","coordinates":[-3.626864,37.194638,0]},"properties":{"name":"ANDALUCIA,AVENIDA,DE,nº Puerta P. Almun","description":{"@type":"html","value":"Reserva Aparcabicis <br><br> Distrito CHANA <br> Longitud 0,9 <br> Nº Plazas 4 <br> Estacionamiento Batería <br> Observaciones 2 Horquillas <br> POINT_Y 37,194638 <br> POINT_X -3,626864"},"styleUrl":"#icon-1522-097138","label-scale":0,"icon-opacity":1,"icon-color":"#097138","icon-scale":1,"icon":"https://www.gstatic.com/mapspro/images/stock/503-wht-blank_maps.png"}},{"type":"Feature","geometry":{"type":"Point","coordinates":[-3.603918,37.198357,0]},"properties":{"name":"PULIANAS,AVENIDA,DE,nº 66","description":{"@type":"html","value":"Reserva Aparcabicis <br><br> Distrito NORTE <br> Longitud 3 <br> Nº Plazas 8 <br> Estacionamiento Batería <br> Observaciones 4 Horquillas <br> POINT_Y 37,198357 <br> POINT_X -3,603918"},"styleUrl":"#icon-1522-097138","label-scale":0,"icon-opacity":1,"icon-color":"#097138","icon-scale":1,"icon":"https://www.gstatic.com/mapspro/images/stock/503-wht-blank_maps.png"}},{"type":"Feature","geometry":{"type":"Point","coordinates":[-3.612927,37.187587,0]},"properties":{"name":"SUR,AVENIDA,DEL,nº 13","description":{"@type":"html","value":"Reserva Aparcabicis <br><br> Distrito BEIRO <br> Longitud 1,7 <br> Nº Plazas 6 <br> Estacionamiento Batería <br> Observaciones 3 Horquillas <br> POINT_Y 37,187587 <br> POINT_X -3,612927"},"styleUrl":"#icon-1522-097138","label-scale":0,"icon-opacity":1,"icon-color":"#097138","icon-scale":1,"icon":"https://www.gstatic.com/mapspro/images/stock/503-wht-blank_maps.png"}},{"type":"Feature","geometry":{"type":"Point","coordinates":[-3.616029,37.199179,0]},"properties":{"name":"POLIBIO,CALLE,nº 2","description":{"@type":"html","value":"Reserva Aparcabicis <br><br> Distrito NORTE <br> Longitud 4,5 <br> Nº Plazas 6 <br> Estacionamiento Batería <br> Observaciones Modulo privado <br> POINT_Y 37,199179 <br> POINT_X -3,616029"},"styleUrl":"#icon-1522-097138","label-scale":0,"icon-opacity":1,"icon-color":"#097138","icon-scale":1,"icon":"https://www.gstatic.com/mapspro/images/stock/503-wht-blank_maps.png"}},{"type":"Feature","geometry":{"type":"Point","coordinates":[-3.591351,37.161751,0]},"properties":{"name":"PRIMAVERA,CALLE,nº 26","description":{"@type":"html","value":"Reserva Aparcabicis <br><br> Distrito GENIL <br> Longitud 4,5 <br> Nº Plazas 6 <br> Estacionamiento Batería <br> Observaciones <br> POINT_Y 37,161751 <br> POINT_X -3,591351"},"styleUrl":"#icon-1522-097138","label-scale":0,"icon-opacity":1,"icon-color":"#097138","icon-scale":1,"icon":"https://www.gstatic.com/mapspro/images/stock/503-wht-blank_maps.png"}},{"type":"Feature","geometry":{"type":"Point","coordinates":[-3.577836,37.171136,0]},"properties":{"name":"SABICA,PASEO,DE LA,nº S/N","description":{"@type":"html","value":"Reserva Aparcabicis <br><br> Distrito CENTRO <br> Longitud 4 <br> Nº Plazas 6 <br> Estacionamiento Batería <br> Observaciones Modulo privado <br> POINT_Y 37,171136 <br> POINT_X -3,577836"},"styleUrl":"#icon-1522-097138","label-scale":0,"icon-opacity":1,"icon-color":"#097138","icon-scale":1,"icon":"https://www.gstatic.com/mapspro/images/stock/503-wht-blank_maps.png"}},{"type":"Feature","geometry":{"type":"Point","coordinates":[-3.612846,37.17737,0]},"properties":{"name":"GUITARRISTA MANUEL CANO,PLAZA,nº 3","description":{"@type":"html","value":"Reserva Aparcabicis <br><br> Distrito RONDA <br> Longitud 4,5 <br> Nº Plazas 6 <br> Estacionamiento Batería <br> Observaciones privado <br> POINT_Y 37,17737 <br> POINT_X -3,612846"},"styleUrl":"#icon-1522-097138","label-scale":0,"icon-opacity":1,"icon-color":"#097138","icon-scale":1,"icon":"https://www.gstatic.com/mapspro/images/stock/503-wht-blank_maps.png"}},{"type":"Feature","geometry":{"type":"Point","coordinates":[-3.594683,37.174357,0]},"properties":{"name":"HOSPICIO VIEJO,PLACETA,DEL,nº 13","description":{"@type":"html","value":"Reserva Aparcabicis <br><br> Distrito CENTRO <br> Longitud 4,5 <br> Nº Plazas 6 <br> Estacionamiento Batería <br> Observaciones <br> POINT_Y 37,174357 <br> POINT_X -3,594683"},"styleUrl":"#icon-1522-097138","label-scale":0,"icon-opacity":1,"icon-color":"#097138","icon-scale":1,"icon":"https://www.gstatic.com/mapspro/images/stock/503-wht-blank_maps.png"}},{"type":"Feature","geometry":{"type":"Point","coordinates":[-3.600465,37.203443,0]},"properties":{"name":"JESUS ESCUDERO GARCIA,PLAZA,nº 2","description":{"@type":"html","value":"Reserva Aparcabicis <br><br> Distrito NORTE <br> Longitud 4,5 <br> Nº Plazas 6 <br> Estacionamiento Batería <br> Observaciones <br> POINT_Y 37,203443 <br> POINT_X -3,600465"},"styleUrl":"#icon-1522-097138","label-scale":0,"icon-opacity":1,"icon-color":"#097138","icon-scale":1,"icon":"https://www.gstatic.com/mapspro/images/stock/503-wht-blank_maps.png"}},{"type":"Feature","geometry":{"type":"Point","coordinates":[-3.613885,37.178882,0]},"properties":{"name":"CAÑAVERAL,CALLE,nº 13","description":{"@type":"html","value":"Reserva Aparcabicis <br><br> Distrito RONDA <br> Longitud 4,5 <br> Nº Plazas 6 <br> Estacionamiento Batería <br> Observaciones <br> POINT_Y 37,178882 <br> POINT_X -3,613885"},"styleUrl":"#icon-1522-097138","label-scale":0,"icon-opacity":1,"icon-color":"#097138","icon-scale":1,"icon":"https://www.gstatic.com/mapspro/images/stock/503-wht-blank_maps.png"}},{"type":"Feature","geometry":{"type":"Point","coordinates":[-3.592923,37.156909,0]},"properties":{"name":"BARON PIERRE DE COUBERTIN,PLAZA,nº 1","description":{"@type":"html","value":"Reserva Aparcabicis <br><br> Distrito GENIL <br> Longitud 4,5 <br> Nº Plazas 6 <br> Estacionamiento Batería <br> Observaciones <br> POINT_Y 37,156909 <br> POINT_X -3,592923"},"styleUrl":"#icon-1522-097138","label-scale":0,"icon-opacity":1,"icon-color":"#097138","icon-scale":1,"icon":"https://www.gstatic.com/mapspro/images/stock/503-wht-blank_maps.png"}},{"type":"Feature","geometry":{"type":"Point","coordinates":[-3.58422,37.157476,0]},"properties":{"name":"LAGUNA DE CAMEROS,PASEO,nº 1","description":{"@type":"html","value":"Reserva Aparcabicis <br><br> Distrito GENIL <br> Longitud 20 <br> Nº Plazas 120 <br> Estacionamiento Batería <br> Observaciones Modulo privado <br> POINT_Y 37,157476 <br> POINT_X -3,58422"},"styleUrl":"#icon-1522-097138","label-scale":0,"icon-opacity":1,"icon-color":"#097138","icon-scale":1,"icon":"https://www.gstatic.com/mapspro/images/stock/503-wht-blank_maps.png"}},{"type":"Feature","geometry":{"type":"Point","coordinates":[-3.587101,37.157501,0]},"properties":{"name":"BAJO DE HUETOR,CAMINO,nº 59","description":{"@type":"html","value":"Reserva Aparcabicis <br><br> Distrito GENIL <br> Longitud 4,5 <br> Nº Plazas 6 <br> Estacionamiento Batería <br> Observaciones <br> POINT_Y 37,157501 <br> POINT_X -3,587101"},"styleUrl":"#icon-1522-097138","label-scale":0,"icon-opacity":1,"icon-color":"#097138","icon-scale":1,"icon":"https://www.gstatic.com/mapspro/images/stock/503-wht-blank_maps.png"}},{"type":"Feature","geometry":{"type":"Point","coordinates":[-3.606549,37.168133,0]},"properties":{"name":"ELENA MARTIN VIVALDI,CALLE,nº 1","description":{"@type":"html","value":"Reserva Aparcabicis <br><br> Distrito RONDA <br> Longitud 4,5 <br> Nº Plazas 12 <br> Estacionamiento Batería <br> Observaciones <br> POINT_Y 37,168133 <br> POINT_X -3,606549"},"styleUrl":"#icon-1522-097138","label-scale":0,"icon-opacity":1,"icon-color":"#097138","icon-scale":1,"icon":"https://www.gstatic.com/mapspro/images/stock/503-wht-blank_maps.png"}},{"type":"Feature","geometry":{"type":"Point","coordinates":[-3.605625,37.18281,0]},"properties":{"name":"RECTOR MARIN OCETE,CALLE,nº 14","description":{"@type":"html","value":"Reserva Aparcabicis <br><br> Distrito BEIRO <br> Longitud 10 <br> Nº Plazas 20 <br> Estacionamiento Batería <br> Observaciones Privado <br> POINT_Y 37,18281 <br> POINT_X -3,605625"},"styleUrl":"#icon-1522-097138","label-scale":0,"icon-opacity":1,"icon-color":"#097138","icon-scale":1,"icon":"https://www.gstatic.com/mapspro/images/stock/503-wht-blank_maps.png"}},{"type":"Feature","geometry":{"type":"Point","coordinates":[-3.595105,37.155901,0]},"properties":{"name":"EMPERADOR CARLOS V,PASEO,DEL,nº S/N","description":{"@type":"html","value":"Reserva Aparcabicis <br><br> Distrito GENIL <br> Longitud 8 <br> Nº Plazas 12 <br> Estacionamiento Batería <br> Observaciones <br> POINT_Y 37,155901 <br> POINT_X -3,595105"},"styleUrl":"#icon-1522-097138","label-scale":0,"icon-opacity":1,"icon-color":"#097138","icon-scale":1,"icon":"https://www.gstatic.com/mapspro/images/stock/503-wht-blank_maps.png"}},{"type":"Feature","geometry":{"type":"Point","coordinates":[-3.595509,37.160959,0]},"properties":{"name":"HIPICA,PLAZA,DE LA,nº S/N","description":{"@type":"html","value":"Reserva Aparcabicis <br><br> Distrito ZAIDIN <br> Longitud 4,5 <br> Nº Plazas 6 <br> Estacionamiento Batería <br> Observaciones <br> POINT_Y 37,160959 <br> POINT_X -3,595509"},"styleUrl":"#icon-1522-097138","label-scale":0,"icon-opacity":1,"icon-color":"#097138","icon-scale":1,"icon":"https://www.gstatic.com/mapspro/images/stock/503-wht-blank_maps.png"}},{"type":"Feature","geometry":{"type":"Point","coordinates":[-3.606101,37.178429,0]},"properties":{"name":"MADRE TERESA,CALLE,nº 1","description":{"@type":"html","value":"Reserva Aparcabicis <br><br> Distrito CENTRO <br> Longitud 3 <br> Nº Plazas 8 <br> Estacionamiento Batería <br> Observaciones <br> POINT_Y 37,178429 <br> POINT_X -3,606101"},"styleUrl":"#icon-1522-097138","label-scale":0,"icon-opacity":1,"icon-color":"#097138","icon-scale":1,"icon":"https://www.gstatic.com/mapspro/images/stock/503-wht-blank_maps.png"}},{"type":"Feature","geometry":{"type":"Point","coordinates":[-3.605922,37.158136,0]},"properties":{"name":"BEETHOVEN,CALLE,nº 8","description":{"@type":"html","value":"Reserva Aparcabicis <br><br> Distrito ZAIDIN <br> Longitud 4,5 <br> Nº Plazas 6 <br> Estacionamiento Batería <br> Observaciones <br> POINT_Y 37,158136 <br> POINT_X -3,605922"},"styleUrl":"#icon-1522-097138","label-scale":0,"icon-opacity":1,"icon-color":"#097138","icon-scale":1,"icon":"https://www.gstatic.com/mapspro/images/stock/503-wht-blank_maps.png"}},{"type":"Feature","geometry":{"type":"Point","coordinates":[-3.626791,37.188001,0]},"properties":{"name":"WASHINGTON IRVING,CALLE,nº S/N","description":{"@type":"html","value":"Reserva Aparcabicis <br><br> Distrito CHANA <br> Longitud 2,6 <br> Nº Plazas 8 <br> Estacionamiento Batería <br> Observaciones 4 Horquillas <br> POINT_Y 37,188001 <br> POINT_X -3,626791"},"styleUrl":"#icon-1522-097138","label-scale":0,"icon-opacity":1,"icon-color":"#097138","icon-scale":1,"icon":"https://www.gstatic.com/mapspro/images/stock/503-wht-blank_maps.png"}},{"type":"Feature","geometry":{"type":"Point","coordinates":[-3.620545,37.203361,0]},"properties":{"name":"FEDERICO GARCIA LORCA,AVENIDA,nº 36","description":{"@type":"html","value":"Reserva Aparcabicis <br><br> Distrito NORTE <br> Longitud 0,9 <br> Nº Plazas 4 <br> Estacionamiento Batería <br> Observaciones 2 Horquillas <br> POINT_Y 37,203361 <br> POINT_X -3,620545"},"styleUrl":"#icon-1522-097138","label-scale":0,"icon-opacity":1,"icon-color":"#097138","icon-scale":1,"icon":"https://www.gstatic.com/mapspro/images/stock/503-wht-blank_maps.png"}},{"type":"Feature","geometry":{"type":"Point","coordinates":[-3.610443,37.203728,0]},"properties":{"name":"JOAQUINA EGUARAS,CALLE,nº Frente Correos","description":{"@type":"html","value":"Reserva Aparcabicis <br><br> Distrito NORTE <br> Longitud 2,6 <br> Nº Plazas 8 <br> Estacionamiento Batería <br> Observaciones <br> POINT_Y 37,203728 <br> POINT_X -3,610443"},"styleUrl":"#icon-1522-097138","label-scale":0,"icon-opacity":1,"icon-color":"#097138","icon-scale":1,"icon":"https://www.gstatic.com/mapspro/images/stock/503-wht-blank_maps.png"}},{"type":"Feature","geometry":{"type":"Point","coordinates":[-3.585834,37.160561,0]},"properties":{"name":"CERRO DE LOS MACHOS,CALLE,nº 5","description":{"@type":"html","value":"Reserva Aparcabicis <br><br> Distrito GENIL <br> Longitud 2 <br> Nº Plazas 6 <br> Estacionamiento Batería <br> Observaciones <br> POINT_Y 37,160561 <br> POINT_X -3,585834"},"styleUrl":"#icon-1522-097138","label-scale":0,"icon-opacity":1,"icon-color":"#097138","icon-scale":1,"icon":"https://www.gstatic.com/mapspro/images/stock/503-wht-blank_maps.png"}},{"type":"Feature","geometry":{"type":"Point","coordinates":[-3.598638,37.166726,0]},"properties":{"name":"ROTARY,PLAZA,nº S/N","description":{"@type":"html","value":"Reserva Aparcabicis <br><br> Distrito RONDA <br> Longitud 2,72 <br> Nº Plazas 8 <br> Estacionamiento Batería <br> Observaciones <br> POINT_Y 37,166726 <br> POINT_X -3,598638"},"styleUrl":"#icon-1522-097138","label-scale":0,"icon-opacity":1,"icon-color":"#097138","icon-scale":1,"icon":"https://www.gstatic.com/mapspro/images/stock/503-wht-blank_maps.png"}},{"type":"Feature","geometry":{"type":"Point","coordinates":[-3.597374,37.17215,0]},"properties":{"name":"MARIANA PINEDA,PLAZA,DE,nº 10","description":{"@type":"html","value":"Reserva Aparcabicis <br><br> Distrito CENTRO <br> Longitud 4 <br> Nº Plazas 6 <br> Estacionamiento Batería <br> Observaciones <br> POINT_Y 37,17215 <br> POINT_X -3,597374"},"styleUrl":"#icon-1522-097138","label-scale":0,"icon-opacity":1,"icon-color":"#097138","icon-scale":1,"icon":"https://www.gstatic.com/mapspro/images/stock/503-wht-blank_maps.png"}},{"type":"Feature","geometry":{"type":"Point","coordinates":[-3.60659,37.14806,0]},"properties":{"name":"INVESTIGACION,AVENIDA,DE LA,nº S/N","description":{"@type":"html","value":"Reserva Aparcabicis <br><br> Distrito ZAIDIN <br> Longitud 6 <br> Nº Plazas 10 <br> Estacionamiento Batería <br> Observaciones <br> POINT_Y 37,14806 <br> POINT_X -3,60659"},"styleUrl":"#icon-1522-097138","label-scale":0,"icon-opacity":1,"icon-color":"#097138","icon-scale":1,"icon":"https://www.gstatic.com/mapspro/images/stock/503-wht-blank_maps.png"}},{"type":"Feature","geometry":{"type":"Point","coordinates":[-3.595779,37.172016,0]},"properties":{"name":"CAMPOS,PLAZA,DE LOS,nº 6","description":{"@type":"html","value":"Reserva Aparcabicis <br><br> Distrito CENTRO <br> Longitud 4 <br> Nº Plazas 6 <br> Estacionamiento Batería <br> Observaciones 3 Horquillas <br> POINT_Y 37,172016 <br> POINT_X -3,595779"},"styleUrl":"#icon-1522-097138","label-scale":0,"icon-opacity":1,"icon-color":"#097138","icon-scale":1,"icon":"https://www.gstatic.com/mapspro/images/stock/503-wht-blank_maps.png"}},{"type":"Feature","geometry":{"type":"Point","coordinates":[-3.610595,37.186715,0]},"properties":{"name":"FAISAN,CALLE,nº 2","description":{"@type":"html","value":"Reserva Aparcabicis <br><br> Distrito BEIRO <br> Longitud 5,5 <br> Nº Plazas 12 <br> Estacionamiento Batería <br> Observaciones 6 Horquillas <br> POINT_Y 37,186715 <br> POINT_X -3,610595"},"styleUrl":"#icon-1522-097138","label-scale":0,"icon-opacity":1,"icon-color":"#097138","icon-scale":1,"icon":"https://www.gstatic.com/mapspro/images/stock/503-wht-blank_maps.png"}},{"type":"Feature","geometry":{"type":"Point","coordinates":[-3.587542,37.163597,0]},"properties":{"name":"CERVANTES,AVENIDA,DE,nº 29","description":{"@type":"html","value":"Reserva Aparcabicis <br><br> Distrito GENIL <br> Longitud 4,7 <br> Nº Plazas 6 <br> Estacionamiento Batería <br> Observaciones 3 Horquillas <br> POINT_Y 37,163597 <br> POINT_X -3,587542"},"styleUrl":"#icon-1522-097138","label-scale":0,"icon-opacity":1,"icon-color":"#097138","icon-scale":1,"icon":"https://www.gstatic.com/mapspro/images/stock/503-wht-blank_maps.png"}},{"type":"Feature","geometry":{"type":"Point","coordinates":[-3.593398,37.173685,0]},"properties":{"name":"REALEJO,CUESTA,DEL,nº 2","description":{"@type":"html","value":"Reserva Aparcabicis <br><br> Distrito CENTRO <br> Longitud 1,3 <br> Nº Plazas 6 <br> Estacionamiento Batería <br> Observaciones <br> POINT_Y 37,173685 <br> POINT_X -3,593398"},"styleUrl":"#icon-1522-097138","label-scale":0,"icon-opacity":1,"icon-color":"#097138","icon-scale":1,"icon":"https://www.gstatic.com/mapspro/images/stock/503-wht-blank_maps.png"}},{"type":"Feature","geometry":{"type":"Point","coordinates":[-3.599485,37.175239,0]},"properties":{"name":"BIB-RAMBLA,PLAZA,DE,nº 19","description":{"@type":"html","value":"Reserva Aparcabicis <br><br> Distrito CENTRO <br> Longitud 4,5 <br> Nº Plazas 6 <br> Estacionamiento Batería <br> Observaciones Módulo Simple <br> POINT_Y 37,175239 <br> POINT_X -3,599485"},"styleUrl":"#icon-1522-097138","label-scale":0,"icon-opacity":1,"icon-color":"#097138","icon-scale":1,"icon":"https://www.gstatic.com/mapspro/images/stock/503-wht-blank_maps.png"}},{"type":"Feature","geometry":{"type":"Point","coordinates":[-3.595668,37.169523,0]},"properties":{"name":"SALON,PASEO,DEL,nº 1","description":{"@type":"html","value":"Reserva Aparcabicis <br><br> Distrito CENTRO <br> Longitud 7 <br> Nº Plazas 12 <br> Estacionamiento Batería <br> Observaciones 6 Horquillas <br> POINT_Y 37,169523 <br> POINT_X -3,595668"},"styleUrl":"#icon-1522-097138","label-scale":0,"icon-opacity":1,"icon-color":"#097138","icon-scale":1,"icon":"https://www.gstatic.com/mapspro/images/stock/503-wht-blank_maps.png"}},{"type":"Feature","geometry":{"type":"Point","coordinates":[-3.59837,37.174115,0]},"properties":{"name":"ESCUDO DEL CARMEN,CALLE,nº 20","description":{"@type":"html","value":"Reserva Aparcabicis <br><br> Distrito CENTRO <br> Longitud 4,5 <br> Nº Plazas 6 <br> Estacionamiento Batería <br> Observaciones <br> POINT_Y 37,174115 <br> POINT_X -3,59837"},"styleUrl":"#icon-1522-097138","label-scale":0,"icon-opacity":1,"icon-color":"#097138","icon-scale":1,"icon":"https://www.gstatic.com/mapspro/images/stock/503-wht-blank_maps.png"}},{"type":"Feature","geometry":{"type":"Point","coordinates":[-3.612778,37.177397,0]},"properties":{"name":"GUITARRISTA MANUEL CANO,PLAZA,nº 3","description":{"@type":"html","value":"Reserva Aparcabicis <br><br> Distrito RONDA <br> Longitud 4,5 <br> Nº Plazas 6 <br> Estacionamiento Batería <br> Observaciones Privado <br> POINT_Y 37,177397 <br> POINT_X -3,612778"},"styleUrl":"#icon-1522-097138","label-scale":0,"icon-opacity":1,"icon-color":"#097138","icon-scale":1,"icon":"https://www.gstatic.com/mapspro/images/stock/503-wht-blank_maps.png"}},{"type":"Feature","geometry":{"type":"Point","coordinates":[-3.605373,37.1925,0]},"properties":{"name":"SAN AGAPITO,CALLE,nº 1","description":{"@type":"html","value":"Reserva Aparcabicis <br><br> Distrito BEIRO <br> Longitud 5 <br> Nº Plazas 6 <br> Estacionamiento Batería <br> Observaciones <br> POINT_Y 37,1925 <br> POINT_X -3,605373"},"styleUrl":"#icon-1522-097138","label-scale":0,"icon-opacity":1,"icon-color":"#097138","icon-scale":1,"icon":"https://www.gstatic.com/mapspro/images/stock/503-wht-blank_maps.png"}},{"type":"Feature","geometry":{"type":"Point","coordinates":[-3.627759,37.191909,0]},"properties":{"name":"VIRGEN DE LA CONSOLACION,CALLE,nº S/N","description":{"@type":"html","value":"Reserva Aparcabicis <br><br> Distrito CHANA <br> Longitud 4,5 <br> Nº Plazas 6 <br> Estacionamiento Batería <br> Observaciones <br> POINT_Y 37,191909 <br> POINT_X -3,627759"},"styleUrl":"#icon-1522-097138","label-scale":0,"icon-opacity":1,"icon-color":"#097138","icon-scale":1,"icon":"https://www.gstatic.com/mapspro/images/stock/503-wht-blank_maps.png"}},{"type":"Feature","geometry":{"type":"Point","coordinates":[-3.604597,37.172609,0]},"properties":{"name":"GRACIA,PLAZA,DE,nº 2","description":{"@type":"html","value":"Reserva Aparcabicis <br><br> Distrito RONDA <br> Longitud 4,5 <br> Nº Plazas 6 <br> Estacionamiento Batería <br> Observaciones <br> POINT_Y 37,172609 <br> POINT_X -3,604597"},"styleUrl":"#icon-1522-097138","label-scale":0,"icon-opacity":1,"icon-color":"#097138","icon-scale":1,"icon":"https://www.gstatic.com/mapspro/images/stock/503-wht-blank_maps.png"}},{"type":"Feature","geometry":{"type":"Point","coordinates":[-3.601976,37.154603,0]},"properties":{"name":"PALOMAS,PLAZA,DE LAS,nº 1","description":{"@type":"html","value":"Reserva Aparcabicis <br><br> Distrito ZAIDIN <br> Longitud 4,5 <br> Nº Plazas 6 <br> Estacionamiento Batería <br> Observaciones <br> POINT_Y 37,154603 <br> POINT_X -3,601976"},"styleUrl":"#icon-1522-097138","label-scale":0,"icon-opacity":1,"icon-color":"#097138","icon-scale":1,"icon":"https://www.gstatic.com/mapspro/images/stock/503-wht-blank_maps.png"}},{"type":"Feature","geometry":{"type":"Point","coordinates":[-3.595001,37.158488,0]},"properties":{"name":"ANDRES SEGOVIA,CALLE,nº 53","description":{"@type":"html","value":"Reserva Aparcabicis <br><br> Distrito GENIL <br> Longitud 4,5 <br> Nº Plazas 6 <br> Estacionamiento Batería <br> Observaciones <br> POINT_Y 37,158488 <br> POINT_X -3,595001"},"styleUrl":"#icon-1522-097138","label-scale":0,"icon-opacity":1,"icon-color":"#097138","icon-scale":1,"icon":"https://www.gstatic.com/mapspro/images/stock/503-wht-blank_maps.png"}},{"type":"Feature","geometry":{"type":"Point","coordinates":[-3.630673,37.19741,0]},"properties":{"name":"PERIODISTA EDUARDO MOLINA FAJARDO,CALLE,nº 38","description":{"@type":"html","value":"Reserva Aparcabicis <br><br> Distrito CHANA <br> Longitud 6 <br> Nº Plazas 6 <br> Estacionamiento Batería <br> Observaciones Modulo privado <br> POINT_Y 37,19741 <br> POINT_X -3,630673"},"styleUrl":"#icon-1522-097138","label-scale":0,"icon-opacity":1,"icon-color":"#097138","icon-scale":1,"icon":"https://www.gstatic.com/mapspro/images/stock/503-wht-blank_maps.png"}},{"type":"Feature","geometry":{"type":"Point","coordinates":[-3.601845,37.175773,0]},"properties":{"name":"TRINIDAD,PLAZA,DE LA,nº 4","description":{"@type":"html","value":"Reserva Aparcabicis <br><br> Distrito CENTRO <br> Longitud 3 <br> Nº Plazas 8 <br> Estacionamiento Batería <br> Observaciones <br> POINT_Y 37,175773 <br> POINT_X -3,601845"},"styleUrl":"#icon-1522-097138","label-scale":0,"icon-opacity":1,"icon-color":"#097138","icon-scale":1,"icon":"https://www.gstatic.com/mapspro/images/stock/503-wht-blank_maps.png"}},{"type":"Feature","geometry":{"type":"Point","coordinates":[-3.595149,37.168184,0]},"properties":{"name":"BASILIOS,PASEO,DE LOS,nº 2","description":{"@type":"html","value":"Reserva Aparcabicis <br><br> Distrito GENIL <br> Longitud 6 <br> Nº Plazas 12 <br> Estacionamiento Batería <br> Observaciones <br> POINT_Y 37,168184 <br> POINT_X -3,595149"},"styleUrl":"#icon-1522-097138","label-scale":0,"icon-opacity":1,"icon-color":"#097138","icon-scale":1,"icon":"https://www.gstatic.com/mapspro/images/stock/503-wht-blank_maps.png"}},{"type":"Feature","geometry":{"type":"Point","coordinates":[-3.602296,37.182348,0]},"properties":{"name":"NATALIO RIVAS,CALLE,nº 13","description":{"@type":"html","value":"Reserva Aparcabicis <br><br> Distrito CENTRO <br> Longitud 5,98 <br> Nº Plazas 12 <br> Estacionamiento Batería <br> Observaciones <br> POINT_Y 37,182348 <br> POINT_X -3,602296"},"styleUrl":"#icon-1522-097138","label-scale":0,"icon-opacity":1,"icon-color":"#097138","icon-scale":1,"icon":"https://www.gstatic.com/mapspro/images/stock/503-wht-blank_maps.png"}},{"type":"Feature","geometry":{"type":"Point","coordinates":[-3.610778,37.187454,0]},"properties":{"name":"CALETA,PLAZA,DE LA,nº 1","description":{"@type":"html","value":"Reserva Aparcabicis <br><br> Distrito BEIRO <br> Longitud 5 <br> Nº Plazas 12 <br> Estacionamiento Batería <br> Observaciones <br> POINT_Y 37,187454 <br> POINT_X -3,610778"},"styleUrl":"#icon-1522-097138","label-scale":0,"icon-opacity":1,"icon-color":"#097138","icon-scale":1,"icon":"https://www.gstatic.com/mapspro/images/stock/503-wht-blank_maps.png"}},{"type":"Feature","geometry":{"type":"Point","coordinates":[-3.615827,37.179089,0]},"properties":{"name":"CAÑAVERAL,CAMINO,nº 3","description":{"@type":"html","value":"Reserva Aparcabicis <br><br> Distrito RONDA <br> Longitud 4,5 <br> Nº Plazas 6 <br> Estacionamiento Batería <br> Observaciones <br> POINT_Y 37,179089 <br> POINT_X -3,615827"},"styleUrl":"#icon-1522-097138","label-scale":0,"icon-opacity":1,"icon-color":"#097138","icon-scale":1,"icon":"https://www.gstatic.com/mapspro/images/stock/503-wht-blank_maps.png"}},{"type":"Feature","geometry":{"type":"Point","coordinates":[-3.596786,37.153967,0]},"properties":{"name":"SALVADOR ALLENDE,AVENIDA,nº 2","description":{"@type":"html","value":"Reserva Aparcabicis <br><br> Distrito ZAIDIN <br> Longitud 2,6 <br> Nº Plazas 8 <br> Estacionamiento Batería <br> Observaciones 4 Horquillas <br> POINT_Y 37,153967 <br> POINT_X -3,596786"},"styleUrl":"#icon-1522-097138","label-scale":0,"icon-opacity":1,"icon-color":"#097138","icon-scale":1,"icon":"https://www.gstatic.com/mapspro/images/stock/503-wht-blank_maps.png"}},{"type":"Feature","geometry":{"type":"Point","coordinates":[-3.602152,37.183217,0]},"properties":{"name":"CONSTITUCION,AVENIDA,DE LA,nº S/N","description":{"@type":"html","value":"Reserva Aparcabicis <br><br> Distrito BEIRO <br> Longitud 2,6 <br> Nº Plazas 8 <br> Estacionamiento Batería <br> Observaciones 4 Horquillas <br> POINT_Y 37,183217 <br> POINT_X -3,602152"},"styleUrl":"#icon-1522-097138","label-scale":0,"icon-opacity":1,"icon-color":"#097138","icon-scale":1,"icon":"https://www.gstatic.com/mapspro/images/stock/503-wht-blank_maps.png"}},{"type":"Feature","geometry":{"type":"Point","coordinates":[-3.590483,37.166364,0]},"properties":{"name":"PROFESOR ALBAREDA,CALLE,nº 1","description":{"@type":"html","value":"Reserva Aparcabicis <br><br> Distrito GENIL <br> Longitud 5,9 <br> Nº Plazas 6 <br> Estacionamiento Batería <br> Observaciones 3 Horquillas <br> POINT_Y 37,166364 <br> POINT_X -3,590483"},"styleUrl":"#icon-1522-097138","label-scale":0,"icon-opacity":1,"icon-color":"#097138","icon-scale":1,"icon":"https://www.gstatic.com/mapspro/images/stock/503-wht-blank_maps.png"}},{"type":"Feature","geometry":{"type":"Point","coordinates":[-3.595627,37.168946,0]},"properties":{"name":"SALON,PASEO,DEL,nº 1","description":{"@type":"html","value":"Reserva Aparcabicis <br><br> Distrito CENTRO <br> Longitud 4,5 <br> Nº Plazas 6 <br> Estacionamiento Batería <br> Observaciones Módulo Simple <br> POINT_Y 37,168946 <br> POINT_X -3,595627"},"styleUrl":"#icon-1522-097138","label-scale":0,"icon-opacity":1,"icon-color":"#097138","icon-scale":1,"icon":"https://www.gstatic.com/mapspro/images/stock/503-wht-blank_maps.png"}},{"type":"Feature","geometry":{"type":"Point","coordinates":[-3.616021,37.199177,0]},"properties":{"name":"POLIBIO,CALLE,nº S/N","description":{"@type":"html","value":"Reserva Bicicletas <br><br> Distrito NORTE <br> Longitud 8 <br> Nº Plazas 10 <br> Estacionamiento Batería <br> Observaciones <br> POINT_Y 37,199177 <br> POINT_X -3,616021"},"styleUrl":"#icon-1522-097138","label-scale":0,"icon-opacity":1,"icon-color":"#097138","icon-scale":1,"icon":"https://www.gstatic.com/mapspro/images/stock/503-wht-blank_maps.png"}},{"type":"Feature","geometry":{"type":"Point","coordinates":[-3.598971,37.172383,0]},"properties":{"name":"ACERA DEL CASINO,CALLE,nº 7","description":{"@type":"html","value":"Reserva Aparcabicis <br><br> Distrito CENTRO <br> Longitud 3 <br> Nº Plazas 8 <br> Estacionamiento Batería <br> Observaciones <br> POINT_Y 37,172383 <br> POINT_X -3,598971"},"styleUrl":"#icon-1522-097138","label-scale":0,"icon-opacity":1,"icon-color":"#097138","icon-scale":1,"icon":"https://www.gstatic.com/mapspro/images/stock/503-wht-blank_maps.png"}},{"type":"Feature","geometry":{"type":"Point","coordinates":[-3.630455,37.187552,0]},"properties":{"name":"PINTOR FERNANDO BELDA,CALLE,nº 62","description":{"@type":"html","value":"Reserva Aparcabicis <br><br> Distrito CHANA <br> Longitud 4 <br> Nº Plazas 6 <br> Estacionamiento Batería <br> Observaciones Modulo privado <br> POINT_Y 37,187552 <br> POINT_X -3,630455"},"styleUrl":"#icon-1522-097138","label-scale":0,"icon-opacity":1,"icon-color":"#097138","icon-scale":1,"icon":"https://www.gstatic.com/mapspro/images/stock/503-wht-blank_maps.png"}},{"type":"Feature","geometry":{"type":"Point","coordinates":[-3.608357,37.168537,0]},"properties":{"name":"NEPTUNO,CALLE,nº 10","description":{"@type":"html","value":"Reserva Aparcabicis <br><br> Distrito RONDA <br> Longitud 4,5 <br> Nº Plazas 6 <br> Estacionamiento Batería <br> Observaciones <br> POINT_Y 37,168537 <br> POINT_X -3,608357"},"styleUrl":"#icon-1522-097138","label-scale":0,"icon-opacity":1,"icon-color":"#097138","icon-scale":1,"icon":"https://www.gstatic.com/mapspro/images/stock/503-wht-blank_maps.png"}},{"type":"Feature","geometry":{"type":"Point","coordinates":[-3.587585,37.163299,0]},"properties":{"name":"CERVANTES,AVENIDA,DE,nº 24","description":{"@type":"html","value":"Reserva Aparcabicis <br><br> Distrito GENIL <br> Longitud 4,5 <br> Nº Plazas 6 <br> Estacionamiento Batería <br> Observaciones <br> POINT_Y 37,163299 <br> POINT_X -3,587585"},"styleUrl":"#icon-1522-097138","label-scale":0,"icon-opacity":1,"icon-color":"#097138","icon-scale":1,"icon":"https://www.gstatic.com/mapspro/images/stock/503-wht-blank_maps.png"}},{"type":"Feature","geometry":{"type":"Point","coordinates":[-3.62353,37.184795,0]},"properties":{"name":"ALPUJARRAS,AVENIDA,DE LAS,nº 31","description":{"@type":"html","value":"Reserva Aparcabicis <br><br> Distrito CHANA <br> Longitud 4,5 <br> Nº Plazas 12 <br> Estacionamiento Batería <br> Observaciones <br> POINT_Y 37,184795 <br> POINT_X -3,62353"},"styleUrl":"#icon-1522-097138","label-scale":0,"icon-opacity":1,"icon-color":"#097138","icon-scale":1,"icon":"https://www.gstatic.com/mapspro/images/stock/503-wht-blank_maps.png"}},{"type":"Feature","geometry":{"type":"Point","coordinates":[-3.599787,37.168169,0]},"properties":{"name":"NUESTRO PADRE JESUS DESPOJADO,PLAZA,DE,nº 1","description":{"@type":"html","value":"Reserva Aparcabicis <br><br> Distrito RONDA <br> Longitud 4,5 <br> Nº Plazas 6 <br> Estacionamiento Batería <br> Observaciones <br> POINT_Y 37,168169 <br> POINT_X -3,599787"},"styleUrl":"#icon-1522-097138","label-scale":0,"icon-opacity":1,"icon-color":"#097138","icon-scale":1,"icon":"https://www.gstatic.com/mapspro/images/stock/503-wht-blank_maps.png"}},{"type":"Feature","geometry":{"type":"Point","coordinates":[-3.60262,37.175389,0]},"properties":{"name":"BUENSUCESO,CALLE,nº 12","description":{"@type":"html","value":"Reserva Aparcabicis <br><br> Distrito CENTRO <br> Longitud 4,5 <br> Nº Plazas 6 <br> Estacionamiento Batería <br> Observaciones <br> POINT_Y 37,175389 <br> POINT_X -3,60262"},"styleUrl":"#icon-1522-097138","label-scale":0,"icon-opacity":1,"icon-color":"#097138","icon-scale":1,"icon":"https://www.gstatic.com/mapspro/images/stock/503-wht-blank_maps.png"}},{"type":"Feature","geometry":{"type":"Point","coordinates":[-3.624584,37.196828,0]},"properties":{"name":"PERIODISTA DANIEL SAUCEDO ARANDA,CALLE,nº S/N","description":{"@type":"html","value":"Reserva Aparcabicis <br><br> Distrito CHANA <br> Longitud 28 <br> Nº Plazas 56 <br> Estacionamiento Batería <br> Observaciones Privado <br> POINT_Y 37,196828 <br> POINT_X -3,624584"},"styleUrl":"#icon-1522-097138","label-scale":0,"icon-opacity":1,"icon-color":"#097138","icon-scale":1,"icon":"https://www.gstatic.com/mapspro/images/stock/503-wht-blank_maps.png"}},{"type":"Feature","geometry":{"type":"Point","coordinates":[-3.596365,37.177154,0]},"properties":{"name":"IMPRENTA,CALLE,nº 3","description":{"@type":"html","value":"Reserva Aparcabicis <br><br> Distrito ALBAICIN <br> Longitud 6 <br> Nº Plazas 12 <br> Estacionamiento Batería <br> Observaciones <br> POINT_Y 37,177154 <br> POINT_X -3,596365"},"styleUrl":"#icon-1522-097138","label-scale":0,"icon-opacity":1,"icon-color":"#097138","icon-scale":1,"icon":"https://www.gstatic.com/mapspro/images/stock/503-wht-blank_maps.png"}},{"type":"Feature","geometry":{"type":"Point","coordinates":[-3.59144,37.172898,0]},"properties":{"name":"CAMPO DEL PRINCIPE,PLAZA,nº 11","description":{"@type":"html","value":"Reserva Aparcabicis <br><br> Distrito CENTRO <br> Longitud 6 <br> Nº Plazas 12 <br> Estacionamiento Batería <br> Observaciones <br> POINT_Y 37,172898 <br> POINT_X -3,59144"},"styleUrl":"#icon-1522-097138","label-scale":0,"icon-opacity":1,"icon-color":"#097138","icon-scale":1,"icon":"https://www.gstatic.com/mapspro/images/stock/503-wht-blank_maps.png"}},{"type":"Feature","geometry":{"type":"Point","coordinates":[-3.630641,37.188389,0]},"properties":{"name":"PINTOR FERNANDO BELDA,CALLE,nº 62","description":{"@type":"html","value":"Reserva Aparcabicis <br><br> Distrito CHANA <br> Longitud 4 <br> Nº Plazas 6 <br> Estacionamiento Batería <br> Observaciones Modulo privado <br> POINT_Y 37,188389 <br> POINT_X -3,630641"},"styleUrl":"#icon-1522-097138","label-scale":0,"icon-opacity":1,"icon-color":"#097138","icon-scale":1,"icon":"https://www.gstatic.com/mapspro/images/stock/503-wht-blank_maps.png"}},{"type":"Feature","geometry":{"type":"Point","coordinates":[-3.610852,37.190716,0]},"properties":{"name":"RECTOR JOSÉ VIDA SORIA,CALLE,nº S/N","description":{"@type":"html","value":"Reserva Aparcabicis <br><br> Distrito BEIRO <br> Longitud 18 <br> Nº Plazas 36 <br> Estacionamiento Batería <br> Observaciones <br> POINT_Y 37,190716 <br> POINT_X -3,610852"},"styleUrl":"#icon-1522-097138","label-scale":0,"icon-opacity":1,"icon-color":"#097138","icon-scale":1,"icon":"https://www.gstatic.com/mapspro/images/stock/503-wht-blank_maps.png"}},{"type":"Feature","geometry":{"type":"Point","coordinates":[-3.627167,37.189544,0]},"properties":{"name":"MALAGA,CARRETERA,DE,nº 100","description":{"@type":"html","value":"Reserva Aparcabicis <br><br> Distrito CHANA <br> Longitud 0,9 <br> Nº Plazas 4 <br> Estacionamiento Batería <br> Observaciones 2 Horquillas <br> POINT_Y 37,189544 <br> POINT_X -3,627167"},"styleUrl":"#icon-1522-097138","label-scale":0,"icon-opacity":1,"icon-color":"#097138","icon-scale":1,"icon":"https://www.gstatic.com/mapspro/images/stock/503-wht-blank_maps.png"}},{"type":"Feature","geometry":{"type":"Point","coordinates":[-3.590203,37.162302,0]},"properties":{"name":"BAJO DE HUETOR,CAMINO,nº 50","description":{"@type":"html","value":"Reserva Aparcabicis <br><br> Distrito GENIL <br> Longitud 4,7 <br> Nº Plazas 8 <br> Estacionamiento Batería <br> Observaciones <br> POINT_Y 37,162302 <br> POINT_X -3,590203"},"styleUrl":"#icon-1522-097138","label-scale":0,"icon-opacity":1,"icon-color":"#097138","icon-scale":1,"icon":"https://www.gstatic.com/mapspro/images/stock/503-wht-blank_maps.png"}},{"type":"Feature","geometry":{"type":"Point","coordinates":[-3.592161,37.153626,0]},"properties":{"name":"EMPERADOR CARLOS V,PASEO,DEL,nº 19","description":{"@type":"html","value":"Reserva Aparcabicis <br><br> Distrito GENIL <br> Longitud 3 <br> Nº Plazas 8 <br> Estacionamiento Batería <br> Observaciones 4 Horquillas <br> POINT_Y 37,153626 <br> POINT_X -3,592161"},"styleUrl":"#icon-1522-097138","label-scale":0,"icon-opacity":1,"icon-color":"#097138","icon-scale":1,"icon":"https://www.gstatic.com/mapspro/images/stock/503-wht-blank_maps.png"}},{"type":"Feature","geometry":{"type":"Point","coordinates":[-3.593493,37.173525,0]},"properties":{"name":"MOLINOS,CALLE,nº 2","description":{"@type":"html","value":"Reserva Aparcabicis <br><br> Distrito CENTRO <br> Longitud 1,1 <br> Nº Plazas 4 <br> Estacionamiento Batería <br> Observaciones 2 Horquillas <br> POINT_Y 37,173525 <br> POINT_X -3,593493"},"styleUrl":"#icon-1522-097138","label-scale":0,"icon-opacity":1,"icon-color":"#097138","icon-scale":1,"icon":"https://www.gstatic.com/mapspro/images/stock/503-wht-blank_maps.png"}},{"type":"Feature","geometry":{"type":"Point","coordinates":[-3.606055,37.149338,0]},"properties":{"name":"ILUSTRACION,AVENIDA,DE LA,nº S/N","description":{"@type":"html","value":"Reserva Aparcabicis <br><br> Distrito ZAIDIN <br> Longitud 2 <br> Nº Plazas 6 <br> Estacionamiento Batería <br> Observaciones <br> POINT_Y 37,149338 <br> POINT_X -3,606055"},"styleUrl":"#icon-1522-097138","label-scale":0,"icon-opacity":1,"icon-color":"#097138","icon-scale":1,"icon":"https://www.gstatic.com/mapspro/images/stock/503-wht-blank_maps.png"}},{"type":"Feature","geometry":{"type":"Point","coordinates":[-3.59956,37.173379,0]},"properties":{"name":"PUERTA REAL DE ESPAÑA,CALLE,nº 2","description":{"@type":"html","value":"Reserva Aparcabicis <br><br> Distrito CENTRO <br> Longitud 4,5 <br> Nº Plazas 6 <br> Estacionamiento Batería <br> Observaciones <br> POINT_Y 37,173379 <br> POINT_X -3,59956"},"styleUrl":"#icon-1522-097138","label-scale":0,"icon-opacity":1,"icon-color":"#097138","icon-scale":1,"icon":"https://www.gstatic.com/mapspro/images/stock/503-wht-blank_maps.png"}},{"type":"Feature","geometry":{"type":"Point","coordinates":[-3.619427,37.200974,0]},"properties":{"name":"FEDERICO GARCIA LORCA,AVENIDA,nº 21","description":{"@type":"html","value":"Reserva Aparcabicis <br><br> Distrito NORTE <br> Longitud 4,5 <br> Nº Plazas 6 <br> Estacionamiento Batería <br> Observaciones <br> POINT_Y 37,200974 <br> POINT_X -3,619427"},"styleUrl":"#icon-1522-097138","label-scale":0,"icon-opacity":1,"icon-color":"#097138","icon-scale":1,"icon":"https://www.gstatic.com/mapspro/images/stock/503-wht-blank_maps.png"}},{"type":"Feature","geometry":{"type":"Point","coordinates":[-3.630603,37.188409,0]},"properties":{"name":"PINTOR FERNANDO BELDA,CALLE,nº 62","description":{"@type":"html","value":"Reserva Aparcabicis <br><br> Distrito CHANA <br> Longitud 4 <br> Nº Plazas 6 <br> Estacionamiento Batería <br> Observaciones Modulo privado <br> POINT_Y 37,188409 <br> POINT_X -3,630603"},"styleUrl":"#icon-1522-097138","label-scale":0,"icon-opacity":1,"icon-color":"#097138","icon-scale":1,"icon":"https://www.gstatic.com/mapspro/images/stock/503-wht-blank_maps.png"}},{"type":"Feature","geometry":{"type":"Point","coordinates":[-3.601513,37.175408,0]},"properties":{"name":"ALHONDIGA,PLAZA,DE LA,nº 1","description":{"@type":"html","value":"Reserva Aparcabicis <br><br> Distrito CENTRO <br> Longitud 4,5 <br> Nº Plazas 6 <br> Estacionamiento Batería <br> Observaciones <br> POINT_Y 37,175408 <br> POINT_X -3,601513"},"styleUrl":"#icon-1522-097138","label-scale":0,"icon-opacity":1,"icon-color":"#097138","icon-scale":1,"icon":"https://www.gstatic.com/mapspro/images/stock/503-wht-blank_maps.png"}},{"type":"Feature","geometry":{"type":"Point","coordinates":[-3.609504,37.175996,0]},"properties":{"name":"RONDA,CAMINO,DE,nº 105","description":{"@type":"html","value":"Reserva Aparcabicis <br><br> Distrito RONDA <br> Longitud 4,5 <br> Nº Plazas 6 <br> Estacionamiento Batería <br> Observaciones <br> POINT_Y 37,175996 <br> POINT_X -3,609504"},"styleUrl":"#icon-1522-097138","label-scale":0,"icon-opacity":1,"icon-color":"#097138","icon-scale":1,"icon":"https://www.gstatic.com/mapspro/images/stock/503-wht-blank_maps.png"}},{"type":"Feature","geometry":{"type":"Point","coordinates":[-3.598313,37.172431,0]},"properties":{"name":"CAMPILLO,PLAZA,DEL,nº 2","description":{"@type":"html","value":"Reserva Aparcabicis <br><br> Distrito CENTRO <br> Longitud 4,5 <br> Nº Plazas 6 <br> Estacionamiento Batería <br> Observaciones <br> POINT_Y 37,172431 <br> POINT_X -3,598313"},"styleUrl":"#icon-1522-097138","label-scale":0,"icon-opacity":1,"icon-color":"#097138","icon-scale":1,"icon":"https://www.gstatic.com/mapspro/images/stock/503-wht-blank_maps.png"}},{"type":"Feature","geometry":{"type":"Point","coordinates":[-3.614978,37.18272,0]},"properties":{"name":"ARABIAL,CALLE,nº 127","description":{"@type":"html","value":"Reserva Aparcabicis <br><br> Distrito RONDA <br> Longitud 4,5 <br> Nº Plazas 6 <br> Estacionamiento Batería <br> Observaciones <br> POINT_Y 37,18272 <br> POINT_X -3,614978"},"styleUrl":"#icon-1522-097138","label-scale":0,"icon-opacity":1,"icon-color":"#097138","icon-scale":1,"icon":"https://www.gstatic.com/mapspro/images/stock/503-wht-blank_maps.png"}},{"type":"Feature","geometry":{"type":"Point","coordinates":[-3.596755,37.161154,0]},"properties":{"name":"ZUBIA,CAMINO,DE LA,nº 27","description":{"@type":"html","value":"Reserva Aparcabicis <br><br> Distrito ZAIDIN <br> Longitud 4,5 <br> Nº Plazas 6 <br> Estacionamiento Batería <br> Observaciones Modulo privado <br> POINT_Y 37,161154 <br> POINT_X -3,596755"},"styleUrl":"#icon-1522-097138","label-scale":0,"icon-opacity":1,"icon-color":"#097138","icon-scale":1,"icon":"https://www.gstatic.com/mapspro/images/stock/503-wht-blank_maps.png"}},{"type":"Feature","geometry":{"type":"Point","coordinates":[-3.604498,37.167773,0]},"properties":{"name":"RONDA,CAMINO,DE,nº 51","description":{"@type":"html","value":"Reserva Aparcabicis <br><br> Distrito RONDA <br> Longitud 4,5 <br> Nº Plazas 6 <br> Estacionamiento Batería <br> Observaciones <br> POINT_Y 37,167773 <br> POINT_X -3,604498"},"styleUrl":"#icon-1522-097138","label-scale":0,"icon-opacity":1,"icon-color":"#097138","icon-scale":1,"icon":"https://www.gstatic.com/mapspro/images/stock/503-wht-blank_maps.png"}},{"type":"Feature","geometry":{"type":"Point","coordinates":[-3.603952,37.175673,0]},"properties":{"name":"OBISPO HURTADO,CALLE,nº 1","description":{"@type":"html","value":"Reserva Aparcabicis <br><br> Distrito CENTRO <br> Longitud 4,5 <br> Nº Plazas 6 <br> Estacionamiento Batería <br> Observaciones <br> POINT_Y 37,175673 <br> POINT_X -3,603952"},"styleUrl":"#icon-1522-097138","label-scale":0,"icon-opacity":1,"icon-color":"#097138","icon-scale":1,"icon":"https://www.gstatic.com/mapspro/images/stock/503-wht-blank_maps.png"}},{"type":"Feature","geometry":{"type":"Point","coordinates":[-3.615515,37.193847,0]},"properties":{"name":"PERETE,CALLE,nº 34","description":{"@type":"html","value":"Reserva Aparcabicis <br><br> Distrito BEIRO <br> Longitud 3 <br> Nº Plazas 8 <br> Estacionamiento Batería <br> Observaciones <br> POINT_Y 37,193847 <br> POINT_X -3,615515"},"styleUrl":"#icon-1522-097138","label-scale":0,"icon-opacity":1,"icon-color":"#097138","icon-scale":1,"icon":"https://www.gstatic.com/mapspro/images/stock/503-wht-blank_maps.png"}},{"type":"Feature","geometry":{"type":"Point","coordinates":[-3.596076,37.169797,0]},"properties":{"name":"CARRERA DE LA VIRGEN,CALLE,nº 33","description":{"@type":"html","value":"Reserva Aparcabicis <br><br> Distrito CENTRO <br> Longitud 4 <br> Nº Plazas 6 <br> Estacionamiento Batería <br> Observaciones Protección Paso de Peatones - Dársena <br> POINT_Y 37,169797 <br> POINT_X -3,596076"},"styleUrl":"#icon-1522-097138","label-scale":0,"icon-opacity":1,"icon-color":"#097138","icon-scale":1,"icon":"https://www.gstatic.com/mapspro/images/stock/503-wht-blank_maps.png"}},{"type":"Feature","geometry":{"type":"Point","coordinates":[-3.608435,37.171459,0]},"properties":{"name":"ARABIAL,CALLE,nº 49","description":{"@type":"html","value":"Reserva Aparcabicis <br><br> Distrito RONDA <br> Longitud 4 <br> Nº Plazas 6 <br> Estacionamiento Batería <br> Observaciones Modulo privado <br> POINT_Y 37,171459 <br> POINT_X -3,608435"},"styleUrl":"#icon-1522-A52714","label-scale":0,"icon-opacity":1,"icon-color":"#a52714","icon-scale":1,"icon":"https://www.gstatic.com/mapspro/images/stock/503-wht-blank_maps.png"}},{"type":"Feature","geometry":{"type":"Point","coordinates":[-3.592959,37.168469,0]},"properties":{"name":"BASILIOS,PASEO,DE LOS,nº 3","description":{"@type":"html","value":"Reserva Aparcabicis <br><br> Distrito GENIL <br> Longitud 4,5 <br> Nº Plazas 6 <br> Estacionamiento Batería <br> Observaciones <br> POINT_Y 37,168469 <br> POINT_X -3,592959"},"styleUrl":"#icon-1522-A52714","label-scale":0,"icon-opacity":1,"icon-color":"#a52714","icon-scale":1,"icon":"https://www.gstatic.com/mapspro/images/stock/503-wht-blank_maps.png"}},{"type":"Feature","geometry":{"type":"Point","coordinates":[-3.586138,37.162517,0]},"properties":{"name":"REAL DE LOS NEVEROS,CAMINO,nº 1","description":{"@type":"html","value":"Reserva Aparcabicis <br><br> Distrito GENIL <br> Longitud 4,5 <br> Nº Plazas 6 <br> Estacionamiento Batería <br> Observaciones <br> POINT_Y 37,162517 <br> POINT_X -3,586138"},"styleUrl":"#icon-1522-A52714","label-scale":0,"icon-opacity":1,"icon-color":"#a52714","icon-scale":1,"icon":"https://www.gstatic.com/mapspro/images/stock/503-wht-blank_maps.png"}},{"type":"Feature","geometry":{"type":"Point","coordinates":[-3.616705,37.188437,0]},"properties":{"name":"MALAGA,CARRETERA,DE,nº 37","description":{"@type":"html","value":"Reserva Aparcabicis <br><br> Distrito CHANA <br> Longitud 4,5 <br> Nº Plazas 17 <br> Estacionamiento Batería <br> Observaciones Modulo privado <br> POINT_Y 37,188437 <br> POINT_X -3,616705"},"styleUrl":"#icon-1522-A52714","label-scale":0,"icon-opacity":1,"icon-color":"#a52714","icon-scale":1,"icon":"https://www.gstatic.com/mapspro/images/stock/503-wht-blank_maps.png"}},{"type":"Feature","geometry":{"type":"Point","coordinates":[-3.607437,37.177096,0]},"properties":{"name":"MARTINEZ DE LA ROSA,CALLE,nº 5","description":{"@type":"html","value":"Reserva Aparcabicis <br><br> Distrito RONDA <br> Longitud 4,5 <br> Nº Plazas 6 <br> Estacionamiento Batería <br> Observaciones <br> POINT_Y 37,177096 <br> POINT_X -3,607437"},"styleUrl":"#icon-1522-A52714","label-scale":0,"icon-opacity":1,"icon-color":"#a52714","icon-scale":1,"icon":"https://www.gstatic.com/mapspro/images/stock/503-wht-blank_maps.png"}},{"type":"Feature","geometry":{"type":"Point","coordinates":[-3.607825,37.170389,0]},"properties":{"name":"ARABIAL,CALLE,nº 49","description":{"@type":"html","value":"Reserva Aparcabicis <br><br> Distrito RONDA <br> Longitud 4 <br> Nº Plazas 6 <br> Estacionamiento Batería <br> Observaciones Modulo privado <br> POINT_Y 37,170389 <br> POINT_X -3,607825"},"styleUrl":"#icon-1522-A52714","label-scale":0,"icon-opacity":1,"icon-color":"#a52714","icon-scale":1,"icon":"https://www.gstatic.com/mapspro/images/stock/503-wht-blank_maps.png"}},{"type":"Feature","geometry":{"type":"Point","coordinates":[-3.613023,37.174127,0]},"properties":{"name":"HUERTA DEL RASILLO,CALLE,nº 6","description":{"@type":"html","value":"Reserva Aparcabicis <br><br> Distrito RONDA <br> Longitud 4,5 <br> Nº Plazas 12 <br> Estacionamiento Batería <br> Observaciones <br> POINT_Y 37,174127 <br> POINT_X -3,613023"},"styleUrl":"#icon-1522-A52714","label-scale":0,"icon-opacity":1,"icon-color":"#a52714","icon-scale":1,"icon":"https://www.gstatic.com/mapspro/images/stock/503-wht-blank_maps.png"}},{"type":"Feature","geometry":{"type":"Point","coordinates":[-3.583126,37.164564,0]},"properties":{"name":"FUENTE DE LA BICHA,PASEO,nº 30","description":{"@type":"html","value":"Reserva Aparcabicis <br><br> Distrito GENIL <br> Longitud 4,5 <br> Nº Plazas 7 <br> Estacionamiento Batería <br> Observaciones <br> POINT_Y 37,164564 <br> POINT_X -3,583126"},"styleUrl":"#icon-1522-A52714","label-scale":0,"icon-opacity":1,"icon-color":"#a52714","icon-scale":1,"icon":"https://www.gstatic.com/mapspro/images/stock/503-wht-blank_maps.png"}},{"type":"Feature","geometry":{"type":"Point","coordinates":[-3.615269,37.180125,0]},"properties":{"name":"SANTO TOMAS DE VILLANUEVA,CALLE,nº 17","description":{"@type":"html","value":"Reserva Aparcabicis <br><br> Distrito RONDA <br> Longitud 4,5 <br> Nº Plazas 6 <br> Estacionamiento Batería <br> Observaciones <br> POINT_Y 37,180125 <br> POINT_X -3,615269"},"styleUrl":"#icon-1522-A52714","label-scale":0,"icon-opacity":1,"icon-color":"#a52714","icon-scale":1,"icon":"https://www.gstatic.com/mapspro/images/stock/503-wht-blank_maps.png"}},{"type":"Feature","geometry":{"type":"Point","coordinates":[-3.6037,37.181492,0]},"properties":{"name":"VENTANILLA,CALLE,nº 9","description":{"@type":"html","value":"Reserva Aparcabicis <br><br> Distrito CENTRO <br> Longitud 4,5 <br> Nº Plazas 6 <br> Estacionamiento Batería <br> Observaciones <br> POINT_Y 37,181492 <br> POINT_X -3,6037"},"styleUrl":"#icon-1522-A52714","label-scale":0,"icon-opacity":1,"icon-color":"#a52714","icon-scale":1,"icon":"https://www.gstatic.com/mapspro/images/stock/503-wht-blank_maps.png"}},{"type":"Feature","geometry":{"type":"Point","coordinates":[-3.60548,37.15798,0]},"properties":{"name":"BEETHOVEN,CALLE,nº 6","description":{"@type":"html","value":"Reserva Aparcabicis <br><br> Distrito ZAIDIN <br> Longitud 4,6 <br> Nº Plazas 6 <br> Estacionamiento Batería <br> Observaciones <br> POINT_Y 37,15798 <br> POINT_X -3,60548"},"styleUrl":"#icon-1522-A52714","label-scale":0,"icon-opacity":1,"icon-color":"#a52714","icon-scale":1,"icon":"https://www.gstatic.com/mapspro/images/stock/503-wht-blank_maps.png"}},{"type":"Feature","geometry":{"type":"Point","coordinates":[-3.593984,37.18806,0]},"properties":{"name":"TALLACARNE,CALLEJON,DE,nº 6","description":{"@type":"html","value":"Reserva Aparcabicis <br><br> Distrito ALBAICIN <br> Longitud 4,5 <br> Nº Plazas 6 <br> Estacionamiento Batería <br> Observaciones <br> POINT_Y 37,18806 <br> POINT_X -3,593984"},"styleUrl":"#icon-1522-A52714","label-scale":0,"icon-opacity":1,"icon-color":"#a52714","icon-scale":1,"icon":"https://www.gstatic.com/mapspro/images/stock/503-wht-blank_maps.png"}},{"type":"Feature","geometry":{"type":"Point","coordinates":[-3.595464,37.170871,0]},"properties":{"name":"CASTAÑEDA,CALLE,nº 23","description":{"@type":"html","value":"Reserva Aparcabicis <br><br> Distrito CENTRO <br> Longitud 4,5 <br> Nº Plazas 12 <br> Estacionamiento Batería <br> Observaciones <br> POINT_Y 37,170871 <br> POINT_X -3,595464"},"styleUrl":"#icon-1522-A52714","label-scale":0,"icon-opacity":1,"icon-color":"#a52714","icon-scale":1,"icon":"https://www.gstatic.com/mapspro/images/stock/503-wht-blank_maps.png"}},{"type":"Feature","geometry":{"type":"Point","coordinates":[-3.583054,37.164537,0]},"properties":{"name":"FUENTE DE LA BICHA,PASEO,nº 30","description":{"@type":"html","value":"Reserva Aparcabicis <br><br> Distrito GENIL <br> Longitud 4,5 <br> Nº Plazas 7 <br> Estacionamiento Batería <br> Observaciones <br> POINT_Y 37,164537 <br> POINT_X -3,583054"},"styleUrl":"#icon-1522-A52714","label-scale":0,"icon-opacity":1,"icon-color":"#a52714","icon-scale":1,"icon":"https://www.gstatic.com/mapspro/images/stock/503-wht-blank_maps.png"}},{"type":"Feature","geometry":{"type":"Point","coordinates":[-3.597628,37.16252,0]},"properties":{"name":"DUQUE DE SAN PEDRO GALATINO,AVENIDA,DEL,nº 10","description":{"@type":"html","value":"Reserva Aparcabicis <br><br> Distrito ZAIDIN <br> Longitud 4,5 <br> Nº Plazas 6 <br> Estacionamiento Batería <br> Observaciones <br> POINT_Y 37,16252 <br> POINT_X -3,597628"},"styleUrl":"#icon-1522-A52714","label-scale":0,"icon-opacity":1,"icon-color":"#a52714","icon-scale":1,"icon":"https://www.gstatic.com/mapspro/images/stock/503-wht-blank_maps.png"}},{"type":"Feature","geometry":{"type":"Point","coordinates":[-3.600039,37.188978,0]},"properties":{"name":"CARTUJA,PASEO,DE,nº 2","description":{"@type":"html","value":"Reserva Aparcabicis <br><br> Distrito BEIRO <br> Longitud 4,5 <br> Nº Plazas 6 <br> Estacionamiento Batería <br> Observaciones <br> POINT_Y 37,188978 <br> POINT_X -3,600039"},"styleUrl":"#icon-1522-A52714","label-scale":0,"icon-opacity":1,"icon-color":"#a52714","icon-scale":1,"icon":"https://www.gstatic.com/mapspro/images/stock/503-wht-blank_maps.png"}},{"type":"Feature","geometry":{"type":"Point","coordinates":[-3.613106,37.169877,0]},"properties":{"name":"VIRGEN BLANCA,CALLE,nº 25","description":{"@type":"html","value":"Reserva Aparcabicis <br><br> Distrito RONDA <br> Longitud 6 <br> Nº Plazas 12 <br> Estacionamiento Batería <br> Observaciones <br> POINT_Y 37,169877 <br> POINT_X -3,613106"},"styleUrl":"#icon-1522-A52714","label-scale":0,"icon-opacity":1,"icon-color":"#a52714","icon-scale":1,"icon":"https://www.gstatic.com/mapspro/images/stock/503-wht-blank_maps.png"}},{"type":"Feature","geometry":{"type":"Point","coordinates":[-3.598362,37.163588,0]},"properties":{"name":"DILAR,AVENIDA,DE,nº 4 A","description":{"@type":"html","value":"Reserva Aparcabicis <br><br> Distrito ZAIDIN <br> Longitud 4,5 <br> Nº Plazas 6 <br> Estacionamiento Batería <br> Observaciones <br> POINT_Y 37,163588 <br> POINT_X -3,598362"},"styleUrl":"#icon-1522-A52714","label-scale":0,"icon-opacity":1,"icon-color":"#a52714","icon-scale":1,"icon":"https://www.gstatic.com/mapspro/images/stock/503-wht-blank_maps.png"}},{"type":"Feature","geometry":{"type":"Point","coordinates":[-3.619416,37.197744,0]},"properties":{"name":"ESPARTERA,CALLE,LA,nº S/N","description":{"@type":"html","value":"Reserva Aparcabicis <br><br> Distrito NORTE <br> Longitud 4,5 <br> Nº Plazas 6 <br> Estacionamiento Batería <br> Observaciones <br> POINT_Y 37,197744 <br> POINT_X -3,619416"},"styleUrl":"#icon-1522-A52714","label-scale":0,"icon-opacity":1,"icon-color":"#a52714","icon-scale":1,"icon":"https://www.gstatic.com/mapspro/images/stock/503-wht-blank_maps.png"}},{"type":"Feature","geometry":{"type":"Point","coordinates":[-3.604581,37.182058,0]},"properties":{"name":"SANTA BARBARA,CALLE,nº 15","description":{"@type":"html","value":"Reserva Aparcabicis <br><br> Distrito CENTRO <br> Longitud 4,5 <br> Nº Plazas 6 <br> Estacionamiento Batería <br> Observaciones <br> POINT_Y 37,182058 <br> POINT_X -3,604581"},"styleUrl":"#icon-1522-A52714","label-scale":0,"icon-opacity":1,"icon-color":"#a52714","icon-scale":1,"icon":"https://www.gstatic.com/mapspro/images/stock/503-wht-blank_maps.png"}},{"type":"Feature","geometry":{"type":"Point","coordinates":[-3.591292,37.171565,0]},"properties":{"name":"MOLINOS,CALLE,nº 55","description":{"@type":"html","value":"Reserva Aparcabicis <br><br> Distrito CENTRO <br> Longitud 4,5 <br> Nº Plazas 6 <br> Estacionamiento Batería <br> Observaciones <br> POINT_Y 37,171565 <br> POINT_X -3,591292"},"styleUrl":"#icon-1522-A52714","label-scale":0,"icon-opacity":1,"icon-color":"#a52714","icon-scale":1,"icon":"https://www.gstatic.com/mapspro/images/stock/503-wht-blank_maps.png"}},{"type":"Feature","geometry":{"type":"Point","coordinates":[-3.628132,37.187062,0]},"properties":{"name":"ACTRIZ FABIANA LAURA,CALLE,nº S/N","description":{"@type":"html","value":"Reserva Aparcabicis <br><br> Distrito RONDA <br> Longitud 4,5 <br> Nº Plazas 6 <br> Estacionamiento Batería <br> Observaciones <br> POINT_Y 37,187062 <br> POINT_X -3,628132"},"styleUrl":"#icon-1522-A52714","label-scale":0,"icon-opacity":1,"icon-color":"#a52714","icon-scale":1,"icon":"https://www.gstatic.com/mapspro/images/stock/503-wht-blank_maps.png"}},{"type":"Feature","geometry":{"type":"Point","coordinates":[-3.611715,37.175198,0]},"properties":{"name":"PROFESOR LUIS MOLINA GOMEZ,CALLE,nº 1","description":{"@type":"html","value":"Reserva Aparcabicis <br><br> Distrito RONDA <br> Longitud 4,5 <br> Nº Plazas 6 <br> Estacionamiento Batería <br> Observaciones <br> POINT_Y 37,175198 <br> POINT_X -3,611715"},"styleUrl":"#icon-1522-A52714","label-scale":0,"icon-opacity":1,"icon-color":"#a52714","icon-scale":1,"icon":"https://www.gstatic.com/mapspro/images/stock/503-wht-blank_maps.png"}},{"type":"Feature","geometry":{"type":"Point","coordinates":[-3.616309,37.210301,0]},"properties":{"name":"VILLA DE OÑA,CALLE,nº S/N","description":{"@type":"html","value":"Reserva Aparcabicis <br><br> Distrito NORTE <br> Longitud 6 <br> Nº Plazas 12 <br> Estacionamiento Batería <br> Observaciones <br> POINT_Y 37,210301 <br> POINT_X -3,616309"},"styleUrl":"#icon-1522-A52714","label-scale":0,"icon-opacity":1,"icon-color":"#a52714","icon-scale":1,"icon":"https://www.gstatic.com/mapspro/images/stock/503-wht-blank_maps.png"}},{"type":"Feature","geometry":{"type":"Point","coordinates":[-3.611744,37.181891,0]},"properties":{"name":"GONZALO GALLAS,CALLE,nº 6","description":{"@type":"html","value":"Reserva Aparcabicis <br><br> Distrito RONDA <br> Longitud 4,5 <br> Nº Plazas 6 <br> Estacionamiento Batería <br> Observaciones <br> POINT_Y 37,181891 <br> POINT_X -3,611744"},"styleUrl":"#icon-1522-A52714","label-scale":0,"icon-opacity":1,"icon-color":"#a52714","icon-scale":1,"icon":"https://www.gstatic.com/mapspro/images/stock/503-wht-blank_maps.png"}},{"type":"Feature","geometry":{"type":"Point","coordinates":[-3.595749,37.207313,0]},"properties":{"name":"RIGOBERTA MENCHU,CALLE,nº 5","description":{"@type":"html","value":"Reserva Aparcabicis <br><br> Distrito NORTE <br> Longitud 4,5 <br> Nº Plazas 6 <br> Estacionamiento Batería <br> Observaciones <br> POINT_Y 37,207313 <br> POINT_X -3,595749"},"styleUrl":"#icon-1522-A52714","label-scale":0,"icon-opacity":1,"icon-color":"#a52714","icon-scale":1,"icon":"https://www.gstatic.com/mapspro/images/stock/503-wht-blank_maps.png"}},{"type":"Feature","geometry":{"type":"Point","coordinates":[-3.621446,37.199182,0]},"properties":{"name":"PALMITA,CALLE,LA,nº 1","description":{"@type":"html","value":"Reserva Aparcabicis <br><br> Distrito BEIRO <br> Longitud 4 <br> Nº Plazas 8 <br> Estacionamiento Batería <br> Observaciones 4 horquillas <br> POINT_Y 37,199182 <br> POINT_X -3,621446"},"styleUrl":"#icon-1522-A52714","label-scale":0,"icon-opacity":1,"icon-color":"#a52714","icon-scale":1,"icon":"https://www.gstatic.com/mapspro/images/stock/503-wht-blank_maps.png"}},{"type":"Feature","geometry":{"type":"Point","coordinates":[-3.600819,37.162454,0]},"properties":{"name":"AMERICA,AVENIDA,DE,nº 1","description":{"@type":"html","value":"Reserva Aparcabicis <br><br> Distrito ZAIDIN <br> Longitud 4,5 <br> Nº Plazas 6 <br> Estacionamiento Batería <br> Observaciones <br> POINT_Y 37,162454 <br> POINT_X -3,600819"},"styleUrl":"#icon-1522-A52714","label-scale":0,"icon-opacity":1,"icon-color":"#a52714","icon-scale":1,"icon":"https://www.gstatic.com/mapspro/images/stock/503-wht-blank_maps.png"}},{"type":"Feature","geometry":{"type":"Point","coordinates":[-3.589084,37.173672,0]},"properties":{"name":"MARTIRES,PASEO,DE LOS,nº 10","description":{"@type":"html","value":"Reserva Aparcabicis <br><br> Distrito CENTRO <br> Longitud 4 <br> Nº Plazas 6 <br> Estacionamiento Batería <br> Observaciones <br> POINT_Y 37,173672 <br> POINT_X -3,589084"},"styleUrl":"#icon-1522-A52714","label-scale":0,"icon-opacity":1,"icon-color":"#a52714","icon-scale":1,"icon":"https://www.gstatic.com/mapspro/images/stock/503-wht-blank_maps.png"}},{"type":"Feature","geometry":{"type":"Point","coordinates":[-3.608636,37.17174,0]},"properties":{"name":"ARABIAL,CALLE,nº 49","description":{"@type":"html","value":"Reserva Aparcabicis <br><br> Distrito RONDA <br> Longitud 4 <br> Nº Plazas 6 <br> Estacionamiento Batería <br> Observaciones Modulo privado <br> POINT_Y 37,17174 <br> POINT_X -3,608636"},"styleUrl":"#icon-1522-A52714","label-scale":0,"icon-opacity":1,"icon-color":"#a52714","icon-scale":1,"icon":"https://www.gstatic.com/mapspro/images/stock/503-wht-blank_maps.png"}},{"type":"Feature","geometry":{"type":"Point","coordinates":[-3.592884,37.168486,0]},"properties":{"name":"BASILIOS,PASEO,DE LOS,nº 3","description":{"@type":"html","value":"Reserva Aparcabicis <br><br> Distrito GENIL <br> Longitud 4,5 <br> Nº Plazas 6 <br> Estacionamiento Batería <br> Observaciones <br> POINT_Y 37,168486 <br> POINT_X -3,592884"},"styleUrl":"#icon-1522-A52714","label-scale":0,"icon-opacity":1,"icon-color":"#a52714","icon-scale":1,"icon":"https://www.gstatic.com/mapspro/images/stock/503-wht-blank_maps.png"}},{"type":"Feature","geometry":{"type":"Point","coordinates":[-3.601647,37.201297,0]},"properties":{"name":"LUZ CASANOVA,CALLE,nº 18","description":{"@type":"html","value":"Reserva Aparcabicis <br><br> Distrito NORTE <br> Longitud 4,5 <br> Nº Plazas 9 <br> Estacionamiento Batería <br> Observaciones Modulo privado <br> POINT_Y 37,201297 <br> POINT_X -3,601647"},"styleUrl":"#icon-1522-A52714","label-scale":0,"icon-opacity":1,"icon-color":"#a52714","icon-scale":1,"icon":"https://www.gstatic.com/mapspro/images/stock/503-wht-blank_maps.png"}},{"type":"Feature","geometry":{"type":"Point","coordinates":[-3.62381,37.184773,0]},"properties":{"name":"PINTOR RAFAEL GARCIA BONILLO,CALLE,nº 1","description":{"@type":"html","value":"Reserva Aparcabicis <br><br> Distrito RONDA <br> Longitud 7 <br> Nº Plazas 12 <br> Estacionamiento Batería <br> Observaciones <br> POINT_Y 37,184773 <br> POINT_X -3,62381"},"styleUrl":"#icon-1522-A52714","label-scale":0,"icon-opacity":1,"icon-color":"#a52714","icon-scale":1,"icon":"https://www.gstatic.com/mapspro/images/stock/503-wht-blank_maps.png"}},{"type":"Feature","geometry":{"type":"Point","coordinates":[-3.59101,37.159301,0]},"properties":{"name":"POETA CESAR VALLEJO,CALLE,nº 6","description":{"@type":"html","value":"Reserva Aparcabicis <br><br> Distrito GENIL <br> Longitud 6 <br> Nº Plazas 12 <br> Estacionamiento Batería <br> Observaciones <br> POINT_Y 37,159301 <br> POINT_X -3,59101"},"styleUrl":"#icon-1522-A52714","label-scale":0,"icon-opacity":1,"icon-color":"#a52714","icon-scale":1,"icon":"https://www.gstatic.com/mapspro/images/stock/503-wht-blank_maps.png"}},{"type":"Feature","geometry":{"type":"Point","coordinates":[-3.604661,37.178106,0]},"properties":{"name":"GRAN CAPITAN,CALLE,nº 14","description":{"@type":"html","value":"Reserva Aparcabicis <br><br> Distrito CENTRO <br> Longitud 4,5 <br> Nº Plazas 6 <br> Estacionamiento Batería <br> Observaciones <br> POINT_Y 37,178106 <br> POINT_X -3,604661"},"styleUrl":"#icon-1522-A52714","label-scale":0,"icon-opacity":1,"icon-color":"#a52714","icon-scale":1,"icon":"https://www.gstatic.com/mapspro/images/stock/503-wht-blank_maps.png"}},{"type":"Feature","geometry":{"type":"Point","coordinates":[-3.58485,37.165908,0]},"properties":{"name":"TREVENQUE,CALLE,nº 2","description":{"@type":"html","value":"Reserva Aparcabicis <br><br> Distrito GENIL <br> Longitud 4,5 <br> Nº Plazas 6 <br> Estacionamiento Batería <br> Observaciones <br> POINT_Y 37,165908 <br> POINT_X -3,58485"},"styleUrl":"#icon-1522-A52714","label-scale":0,"icon-opacity":1,"icon-color":"#a52714","icon-scale":1,"icon":"https://www.gstatic.com/mapspro/images/stock/503-wht-blank_maps.png"}},{"type":"Feature","geometry":{"type":"Point","coordinates":[-3.603922,37.163282,0]},"properties":{"name":"MEDITERRANEO,AVENIDA,DEL,nº 55","description":{"@type":"html","value":"Reserva Aparcabicis <br><br> Distrito RONDA <br> Longitud 4,5 <br> Nº Plazas 6 <br> Estacionamiento Batería <br> Observaciones <br> POINT_Y 37,163282 <br> POINT_X -3,603922"},"styleUrl":"#icon-1522-A52714","label-scale":0,"icon-opacity":1,"icon-color":"#a52714","icon-scale":1,"icon":"https://www.gstatic.com/mapspro/images/stock/503-wht-blank_maps.png"}},{"type":"Feature","geometry":{"type":"Point","coordinates":[-3.605891,37.175545,0]},"properties":{"name":"SOCRATES,CALLE,nº 6","description":{"@type":"html","value":"Reserva Aparcabicis <br><br> Distrito RONDA <br> Longitud 4,5 <br> Nº Plazas 6 <br> Estacionamiento Batería <br> Observaciones <br> POINT_Y 37,175545 <br> POINT_X -3,605891"},"styleUrl":"#icon-1522-A52714","label-scale":0,"icon-opacity":1,"icon-color":"#a52714","icon-scale":1,"icon":"https://www.gstatic.com/mapspro/images/stock/503-wht-blank_maps.png"}},{"type":"Feature","geometry":{"type":"Point","coordinates":[-3.624979,37.201199,0]},"properties":{"name":"MARACENA (CERRILLO),AVENIDA,DE,nº Frente 102","description":{"@type":"html","value":"Reserva Aparcabicis <br><br> Distrito CHANA <br> Longitud 4,5 <br> Nº Plazas 6 <br> Estacionamiento Batería <br> Observaciones <br> POINT_Y 37,201199 <br> POINT_X -3,624979"},"styleUrl":"#icon-1522-A52714","label-scale":0,"icon-opacity":1,"icon-color":"#a52714","icon-scale":1,"icon":"https://www.gstatic.com/mapspro/images/stock/503-wht-blank_maps.png"}},{"type":"Feature","geometry":{"type":"Point","coordinates":[-3.61168,37.190216,0]},"properties":{"name":"FUERZAS ARMADAS,AVENIDA,DE LAS,nº 4","description":{"@type":"html","value":"Reserva Aparcabicis <br><br> Distrito BEIRO <br> Longitud 3 <br> Nº Plazas 6 <br> Estacionamiento Línea <br> Observaciones Modulo Simple Cubierto <br> POINT_Y 37,190216 <br> POINT_X -3,61168"},"styleUrl":"#icon-1522-A52714","label-scale":0,"icon-opacity":1,"icon-color":"#a52714","icon-scale":1,"icon":"https://www.gstatic.com/mapspro/images/stock/503-wht-blank_maps.png"}},{"type":"Feature","geometry":{"type":"Point","coordinates":[-3.628122,37.187101,0]},"properties":{"name":"ACTRIZ FABIANA LAURA,CALLE,nº S/N","description":{"@type":"html","value":"Reserva Aparcabicis <br><br> Distrito RONDA <br> Longitud 4,5 <br> Nº Plazas 6 <br> Estacionamiento Batería <br> Observaciones <br> POINT_Y 37,187101 <br> POINT_X -3,628122"},"styleUrl":"#icon-1522-A52714","label-scale":0,"icon-opacity":1,"icon-color":"#a52714","icon-scale":1,"icon":"https://www.gstatic.com/mapspro/images/stock/503-wht-blank_maps.png"}},{"type":"Feature","geometry":{"type":"Point","coordinates":[-3.611714,37.18184,0]},"properties":{"name":"GONZALO GALLAS,CALLE,nº 6","description":{"@type":"html","value":"Reserva Aparcabicis <br><br> Distrito BEIRO <br> Longitud 4,5 <br> Nº Plazas 6 <br> Estacionamiento Batería <br> Observaciones <br> POINT_Y 37,18184 <br> POINT_X -3,611714"},"styleUrl":"#icon-1522-A52714","label-scale":0,"icon-opacity":1,"icon-color":"#a52714","icon-scale":1,"icon":"https://www.gstatic.com/mapspro/images/stock/503-wht-blank_maps.png"}},{"type":"Feature","geometry":{"type":"Point","coordinates":[-3.59762,37.162555,0]},"properties":{"name":"DUQUE DE SAN PEDRO GALATINO,AVENIDA,DEL,nº 10","description":{"@type":"html","value":"Reserva Aparcabicis <br><br> Distrito ZAIDIN <br> Longitud 4,5 <br> Nº Plazas 6 <br> Estacionamiento Batería <br> Observaciones <br> POINT_Y 37,162555 <br> POINT_X -3,59762"},"styleUrl":"#icon-1522-A52714","label-scale":0,"icon-opacity":1,"icon-color":"#a52714","icon-scale":1,"icon":"https://www.gstatic.com/mapspro/images/stock/503-wht-blank_maps.png"}},{"type":"Feature","geometry":{"type":"Point","coordinates":[-3.591019,37.157162,0]},"properties":{"name":"TORRE PEDRO DE MORALES,CALLE,nº 56","description":{"@type":"html","value":"Reserva Aparcabicis <br><br> Distrito GENIL <br> Longitud 4,5 <br> Nº Plazas 6 <br> Estacionamiento Batería <br> Observaciones <br> POINT_Y 37,157162 <br> POINT_X -3,591019"},"styleUrl":"#icon-1522-A52714","label-scale":0,"icon-opacity":1,"icon-color":"#a52714","icon-scale":1,"icon":"https://www.gstatic.com/mapspro/images/stock/503-wht-blank_maps.png"}},{"type":"Feature","geometry":{"type":"Point","coordinates":[-3.600073,37.18244,0]},"properties":{"name":"LIBERTAD,PLAZA,DE LA,nº 1","description":{"@type":"html","value":"Reserva Aparcabicis <br><br> Distrito BEIRO <br> Longitud 4,5 <br> Nº Plazas 6 <br> Estacionamiento Batería <br> Observaciones <br> POINT_Y 37,18244 <br> POINT_X -3,600073"},"styleUrl":"#icon-1522-A52714","label-scale":0,"icon-opacity":1,"icon-color":"#a52714","icon-scale":1,"icon":"https://www.gstatic.com/mapspro/images/stock/503-wht-blank_maps.png"}},{"type":"Feature","geometry":{"type":"Point","coordinates":[-3.606137,37.153365,0]},"properties":{"name":"FELIX RODRIGUEZ DE LA FUENTE,CALLE,nº 29","description":{"@type":"html","value":"Reserva Aparcabicis <br><br> Distrito ZAIDIN <br> Longitud 4,5 <br> Nº Plazas 6 <br> Estacionamiento Batería <br> Observaciones <br> POINT_Y 37,153365 <br> POINT_X -3,606137"},"styleUrl":"#icon-1522-A52714","label-scale":0,"icon-opacity":1,"icon-color":"#a52714","icon-scale":1,"icon":"https://www.gstatic.com/mapspro/images/stock/503-wht-blank_maps.png"}},{"type":"Feature","geometry":{"type":"Point","coordinates":[-3.612166,37.19052,0]},"properties":{"name":"FUERZAS ARMADAS,AVENIDA,DE LAS,nº 4","description":{"@type":"html","value":"Reserva Aparcabicis <br><br> Distrito BEIRO <br> Longitud 6 <br> Nº Plazas 12 <br> Estacionamiento Batería <br> Observaciones 6 Horquillas cubierto <br> POINT_Y 37,19052 <br> POINT_X -3,612166"},"styleUrl":"#icon-1522-A52714","label-scale":0,"icon-opacity":1,"icon-color":"#a52714","icon-scale":1,"icon":"https://www.gstatic.com/mapspro/images/stock/503-wht-blank_maps.png"}},{"type":"Feature","geometry":{"type":"Point","coordinates":[-3.608218,37.17113,0]},"properties":{"name":"ARABIAL,CALLE,nº 49","description":{"@type":"html","value":"Reserva Aparcabicis <br><br> Distrito RONDA <br> Longitud 4 <br> Nº Plazas 6 <br> Estacionamiento Batería <br> Observaciones Modulo privado <br> POINT_Y 37,17113 <br> POINT_X -3,608218"},"styleUrl":"#icon-1522-A52714","label-scale":0,"icon-opacity":1,"icon-color":"#a52714","icon-scale":1,"icon":"https://www.gstatic.com/mapspro/images/stock/503-wht-blank_maps.png"}},{"type":"Feature","geometry":{"type":"Point","coordinates":[-3.592915,37.168479,0]},"properties":{"name":"BASILIOS,PASEO,DE LOS,nº 3","description":{"@type":"html","value":"Reserva Aparcabicis <br><br> Distrito GENIL <br> Longitud 4,5 <br> Nº Plazas 6 <br> Estacionamiento Batería <br> Observaciones <br> POINT_Y 37,168479 <br> POINT_X -3,592915"},"styleUrl":"#icon-1522-A52714","label-scale":0,"icon-opacity":1,"icon-color":"#a52714","icon-scale":1,"icon":"https://www.gstatic.com/mapspro/images/stock/503-wht-blank_maps.png"}},{"type":"Feature","geometry":{"type":"Point","coordinates":[-3.603666,37.181519,0]},"properties":{"name":"VENTANILLA,CALLE,nº 9","description":{"@type":"html","value":"Reserva Aparcabicis <br><br> Distrito CENTRO <br> Longitud 4,5 <br> Nº Plazas 6 <br> Estacionamiento Batería <br> Observaciones <br> POINT_Y 37,181519 <br> POINT_X -3,603666"},"styleUrl":"#icon-1522-A52714","label-scale":0,"icon-opacity":1,"icon-color":"#a52714","icon-scale":1,"icon":"https://www.gstatic.com/mapspro/images/stock/503-wht-blank_maps.png"}},{"type":"Feature","geometry":{"type":"Point","coordinates":[-3.604779,37.191669,0]},"properties":{"name":"CONCEPCION ARENAL,CALLE,nº 20","description":{"@type":"html","value":"Reserva Aparcabicis <br><br> Distrito BEIRO <br> Longitud 4,5 <br> Nº Plazas 12 <br> Estacionamiento Batería <br> Observaciones <br> POINT_Y 37,191669 <br> POINT_X -3,604779"},"styleUrl":"#icon-1522-A52714","label-scale":0,"icon-opacity":1,"icon-color":"#a52714","icon-scale":1,"icon":"https://www.gstatic.com/mapspro/images/stock/503-wht-blank_maps.png"}},{"type":"Feature","geometry":{"type":"Point","coordinates":[-3.612196,37.189813,0]},"properties":{"name":"FUERZAS ARMADAS,AVENIDA,DE LAS,nº 4","description":{"@type":"html","value":"Reserva Aparcabicis <br><br> Distrito BEIRO <br> Longitud 4,5 <br> Nº Plazas 6 <br> Estacionamiento Batería <br> Observaciones <br> POINT_Y 37,189813 <br> POINT_X -3,612196"},"styleUrl":"#icon-1522-A52714","label-scale":0,"icon-opacity":1,"icon-color":"#a52714","icon-scale":1,"icon":"https://www.gstatic.com/mapspro/images/stock/503-wht-blank_maps.png"}},{"type":"Feature","geometry":{"type":"Point","coordinates":[-3.627251,37.200699,0]},"properties":{"name":"ESOPO,CALLE,nº 44","description":{"@type":"html","value":"Reserva Aparcabicis <br><br> Distrito CHANA <br> Longitud 4,5 <br> Nº Plazas 6 <br> Estacionamiento Batería <br> Observaciones <br> POINT_Y 37,200699 <br> POINT_X -3,627251"},"styleUrl":"#icon-1522-A52714","label-scale":0,"icon-opacity":1,"icon-color":"#a52714","icon-scale":1,"icon":"https://www.gstatic.com/mapspro/images/stock/503-wht-blank_maps.png"}},{"type":"Feature","geometry":{"type":"Point","coordinates":[-3.597945,37.167911,0]},"properties":{"name":"GENERAL EMILIO HERRERA,PLAZA,nº 4","description":{"@type":"html","value":"Reserva Aparcabicis <br><br> Distrito CENTRO <br> Longitud 5,3 <br> Nº Plazas 12 <br> Estacionamiento Batería <br> Observaciones 6 Horquillas <br> POINT_Y 37,167911 <br> POINT_X -3,597945"},"styleUrl":"#icon-1522-A52714","label-scale":0,"icon-opacity":1,"icon-color":"#a52714","icon-scale":1,"icon":"https://www.gstatic.com/mapspro/images/stock/503-wht-blank_maps.png"}},{"type":"Feature","geometry":{"type":"Point","coordinates":[-3.598466,37.174226,0]},"properties":{"name":"CARMEN,PLAZA,DEL,nº 5","description":{"@type":"html","value":"Reserva Aparcabicis <br><br> Distrito CENTRO <br> Longitud 7 <br> Nº Plazas 12 <br> Estacionamiento Batería <br> Observaciones <br> POINT_Y 37,174226 <br> POINT_X -3,598466"},"styleUrl":"#icon-1522-A52714","label-scale":0,"icon-opacity":1,"icon-color":"#a52714","icon-scale":1,"icon":"https://www.gstatic.com/mapspro/images/stock/503-wht-blank_maps.png"}},{"type":"Feature","geometry":{"type":"Point","coordinates":[-3.589046,37.173695,0]},"properties":{"name":"MARTIRES,PASEO,DE LOS,nº 10","description":{"@type":"html","value":"Reserva Aparcabicis <br><br> Distrito CENTRO <br> Longitud 4 <br> Nº Plazas 6 <br> Estacionamiento Batería <br> Observaciones <br> POINT_Y 37,173695 <br> POINT_X -3,589046"},"styleUrl":"#icon-1522-A52714","label-scale":0,"icon-opacity":1,"icon-color":"#a52714","icon-scale":1,"icon":"https://www.gstatic.com/mapspro/images/stock/503-wht-blank_maps.png"}},{"type":"Feature","geometry":{"type":"Point","coordinates":[-3.608934,37.172233,0]},"properties":{"name":"ARABIAL,CALLE,nº 49","description":{"@type":"html","value":"Reserva Aparcabicis <br><br> Distrito RONDA <br> Longitud 4 <br> Nº Plazas 6 <br> Estacionamiento Batería <br> Observaciones Modulo privado <br> POINT_Y 37,172233 <br> POINT_X -3,608934"},"styleUrl":"#icon-1522-A52714","label-scale":0,"icon-opacity":1,"icon-color":"#a52714","icon-scale":1,"icon":"https://www.gstatic.com/mapspro/images/stock/503-wht-blank_maps.png"}}]}