<?xml version="1.0" encoding="UTF-8"?><kml xmlns="http://www.opengis.net/kml/2.2"><Document><name>Aparcabicis de Granada</name><description><![CDATA[Actualización:marzo de 2023.<br>En verde aparecen los módulos de aparcabicis situados en exterior (acera o calzada). En rojo aparecen los situados en interior de edificios administrativos,colegios o parques.]]></description><Style id="icon-1522-097138-normal"><IconStyle><color>ff387109</color><scale>1</scale><Icon><href>https://www.gstatic.com/mapspro/images/stock/503-wht-blank_maps.png</href></Icon></IconStyle><LabelStyle><scale>0</scale></LabelStyle></Style><Style id="icon-1522-097138-highlight"><IconStyle><color>ff387109</color><scale>1</scale><Icon><href>https://www.gstatic.com/mapspro/images/stock/503-wht-blank_maps.png</href></Icon></IconStyle><LabelStyle><scale>1</scale></LabelStyle></Style><StyleMap id="icon-1522-097138"><Pair><key>normal</key><styleUrl>#icon-1522-097138-normal</styleUrl></Pair><Pair><key>highlight</key><styleUrl>#icon-1522-097138-highlight</styleUrl></Pair></StyleMap><Style id="icon-1522-A52714-normal"><IconStyle><color>ff1427a5</color><scale>1</scale><Icon><href>https://www.gstatic.com/mapspro/images/stock/503-wht-blank_maps.png</href></Icon></IconStyle><LabelStyle><scale>0</scale></LabelStyle></Style><Style id="icon-1522-A52714-highlight"><IconStyle><color>ff1427a5</color><scale>1</scale><Icon><href>https://www.gstatic.com/mapspro/images/stock/503-wht-blank_maps.png</href></Icon></IconStyle><LabelStyle><scale>1</scale></LabelStyle></Style><StyleMap id="icon-1522-A52714"><Pair><key>normal</key><styleUrl>#icon-1522-A52714-normal</styleUrl></Pair><Pair><key>highlight</key><styleUrl>#icon-1522-A52714-highlight</styleUrl></Pair></StyleMap><Folder><name>Módulos aparcabicis exterior</name><Placemark><name>REY CHICO,PLACETA,DEL,nº S/N</name><description><![CDATA[Reserva Aparcabicis <br><br> Distrito CENTRO <br> Longitud 4,5 <br> Nº Plazas 6 <br> Estacionamiento Batería <br> Observaciones <br> POINT_Y 37,178887 <br> POINT_X -3,588237]]></description><styleUrl>#icon-1522-097138</styleUrl><Point><coordinates> -3.588237,37.178887,0 </coordinates></Point></Placemark><Placemark><name>PINTOR FERNANDO BELDA,CALLE,nº 62</name><description><![CDATA[Reserva Aparcabicis <br><br> Distrito CHANA <br> Longitud 4 <br> Nº Plazas 6 <br> Estacionamiento Batería <br> Observaciones Modulo privado <br> POINT_Y 37,188423 <br> POINT_X -3,630655]]></description><styleUrl>#icon-1522-097138</styleUrl><Point><coordinates> -3.630655,37.188423,0 </coordinates></Point></Placemark><Placemark><name>PINTOR FERNANDO BELDA,CALLE,nº 62</name><description><![CDATA[Reserva Aparcabicis <br><br> Distrito CHANA <br> Longitud 4 <br> Nº Plazas 6 <br> Estacionamiento Batería <br> Observaciones Modulo privado <br> POINT_Y 37,187594 <br> POINT_X -3,630476]]></description><styleUrl>#icon-1522-097138</styleUrl><Point><coordinates> -3.630476,37.187594,0 </coordinates></Point></Placemark><Placemark><name>PINTOR FERNANDO BELDA,CALLE,nº 62</name><description><![CDATA[Reserva Aparcabicis <br><br> Distrito CHANA <br> Longitud 4 <br> Nº Plazas 6 <br> Estacionamiento Batería <br> Observaciones Modulo privado <br> POINT_Y 37,187466 <br> POINT_X -3,630412]]></description><styleUrl>#icon-1522-097138</styleUrl><Point><coordinates> -3.630412,37.187466,0 </coordinates></Point></Placemark><Placemark><name>NEPTUNO,CALLE,nº 10</name><description><![CDATA[Reserva Aparcabicis <br><br> Distrito RONDA <br> Longitud 4,5 <br> Nº Plazas 12 <br> Estacionamiento Batería <br> Observaciones <br> POINT_Y 37,168385 <br> POINT_X -3,608659]]></description><styleUrl>#icon-1522-097138</styleUrl><Point><coordinates> -3.608659,37.168385,0 </coordinates></Point></Placemark><Placemark><name>RONDA,CAMINO,DE,nº 97</name><description><![CDATA[Reserva Aparcabicis <br><br> Distrito RONDA <br> Longitud 3 <br> Nº Plazas 5 <br> Estacionamiento Batería <br> Observaciones Modulo privado <br> POINT_Y 37,17422 <br> POINT_X -3,608598]]></description><styleUrl>#icon-1522-097138</styleUrl><Point><coordinates> -3.608598,37.17422,0 </coordinates></Point></Placemark><Placemark><name>CAÑAVERAL,CALLE,nº 13</name><description><![CDATA[Reserva Aparcabicis <br><br> Distrito RONDA <br> Longitud 4,5 <br> Nº Plazas 6 <br> Estacionamiento Batería <br> Observaciones <br> POINT_Y 37,178867 <br> POINT_X -3,613923]]></description><styleUrl>#icon-1522-097138</styleUrl><Point><coordinates> -3.613923,37.178867,0 </coordinates></Point></Placemark><Placemark><name>RADIO GRANADA,PLACETA,nº 2</name><description><![CDATA[Reserva Aparcabicis <br><br> Distrito CENTRO <br> Longitud 4,5 <br> Nº Plazas 6 <br> Estacionamiento Batería <br> Observaciones <br> POINT_Y 37,177861 <br> POINT_X -3,599932]]></description><styleUrl>#icon-1522-097138</styleUrl><Point><coordinates> -3.599932,37.177861,0 </coordinates></Point></Placemark><Placemark><name>JUAN PABLO II,AVENIDA,nº 33</name><description><![CDATA[Reserva Aparcabicis <br><br> Distrito NORTE <br> Longitud 9 <br> Nº Plazas 12 <br> Estacionamiento Batería <br> Observaciones <br> POINT_Y 37,199453 <br> POINT_X -3,613131]]></description><styleUrl>#icon-1522-097138</styleUrl><Point><coordinates> -3.613131,37.199453,0 </coordinates></Point></Placemark><Placemark><name>RONDA,CAMINO,DE,nº 97</name><description><![CDATA[Reserva Aparcabicis <br><br> Distrito RONDA <br> Longitud 4,5 <br> Nº Plazas 6 <br> Estacionamiento Batería <br> Observaciones <br> POINT_Y 37,174263 <br> POINT_X -3,608439]]></description><styleUrl>#icon-1522-097138</styleUrl><Point><coordinates> -3.608439,37.174263,0 </coordinates></Point></Placemark><Placemark><name>RECOGIDAS,CALLE,nº 55</name><description><![CDATA[Reserva Aparcabicis <br><br> Distrito RONDA <br> Longitud 4,5 <br> Nº Plazas 6 <br> Estacionamiento Batería <br> Observaciones <br> POINT_Y 37,170551 <br> POINT_X -3,605051]]></description><styleUrl>#icon-1522-097138</styleUrl><Point><coordinates> -3.605051,37.170551,0 </coordinates></Point></Placemark><Placemark><name>TORRE DE COMARES,CALLE,nº 4</name><description><![CDATA[Reserva Aparcabicis <br><br> Distrito GENIL <br> Longitud 4,5 <br> Nº Plazas 6 <br> Estacionamiento Batería <br> Observaciones <br> POINT_Y 37,152384 <br> POINT_X -3,594523]]></description><styleUrl>#icon-1522-097138</styleUrl><Point><coordinates> -3.594523,37.152384,0 </coordinates></Point></Placemark><Placemark><name>ANDRES SEGOVIA,CALLE,nº 60</name><description><![CDATA[Reserva Aparcabicis <br><br> Distrito ZAIDIN <br> Longitud 4,5 <br> Nº Plazas 6 <br> Estacionamiento Batería <br> Observaciones <br> POINT_Y 37,15852 <br> POINT_X -3,595636]]></description><styleUrl>#icon-1522-097138</styleUrl><Point><coordinates> -3.595636,37.15852,0 </coordinates></Point></Placemark><Placemark><name>EMPERADOR CARLOS V,PASEO,DEL,nº S/N</name><description><![CDATA[Reserva Aparcabicis <br><br> Distrito GENIL <br> Longitud 8 <br> Nº Plazas 12 <br> Estacionamiento Batería <br> Observaciones <br> POINT_Y 37,155738 <br> POINT_X -3,595003]]></description><styleUrl>#icon-1522-097138</styleUrl><Point><coordinates> -3.595003,37.155738,0 </coordinates></Point></Placemark><Placemark><name>PINTOR FERNANDO BELDA,CALLE,nº 62</name><description><![CDATA[Reserva Aparcabicis <br><br> Distrito CHANA <br> Longitud 4 <br> Nº Plazas 6 <br> Estacionamiento Batería <br> Observaciones Modulo privado <br> POINT_Y 37,187508 <br> POINT_X -3,630434]]></description><styleUrl>#icon-1522-097138</styleUrl><Point><coordinates> -3.630434,37.187508,0 </coordinates></Point></Placemark><Placemark><name>RONDA,CAMINO,DE,nº 97</name><description><![CDATA[Reserva Aparcabicis <br><br> Distrito RONDA <br> Longitud 3 <br> Nº Plazas 5 <br> Estacionamiento Batería <br> Observaciones Modulo privado <br> POINT_Y 37,174227 <br> POINT_X -3,608628]]></description><styleUrl>#icon-1522-097138</styleUrl><Point><coordinates> -3.608628,37.174227,0 </coordinates></Point></Placemark><Placemark><name>BUENSUCESO,CALLE,nº 12</name><description><![CDATA[Reserva Aparcabicis <br><br> Distrito CENTRO <br> Longitud 4,5 <br> Nº Plazas 6 <br> Estacionamiento Batería <br> Observaciones <br> POINT_Y 37,175367 <br> POINT_X -3,602669]]></description><styleUrl>#icon-1522-097138</styleUrl><Point><coordinates> -3.602669,37.175367,0 </coordinates></Point></Placemark><Placemark><name>SABICA,PASEO,DE LA,nº 20</name><description><![CDATA[Reserva Aparcabicis <br><br> Distrito CENTRO <br> Longitud 5 <br> Nº Plazas 10 <br> Estacionamiento Batería <br> Observaciones Privado <br> POINT_Y 37,174089 <br> POINT_X -3,58467]]></description><styleUrl>#icon-1522-097138</styleUrl><Point><coordinates> -3.58467,37.174089,0 </coordinates></Point></Placemark><Placemark><name>GRAN CAPITAN,PLAZA,DE,nº 2</name><description><![CDATA[Reserva Aparcabicis <br><br> Distrito CENTRO <br> Longitud 4,5 <br> Nº Plazas 12 <br> Estacionamiento Batería <br> Observaciones <br> POINT_Y 37,176992 <br> POINT_X -3,606022]]></description><styleUrl>#icon-1522-097138</styleUrl><Point><coordinates> -3.606022,37.176992,0 </coordinates></Point></Placemark><Placemark><name>GENERAL EMILIO HERRERA,PLAZA,nº 4</name><description><![CDATA[Reserva Aparcabicis <br><br> Distrito CENTRO <br> Longitud 6 <br> Nº Plazas 12 <br> Estacionamiento Batería <br> Observaciones <br> POINT_Y 37,168224 <br> POINT_X -3,598077]]></description><styleUrl>#icon-1522-097138</styleUrl><Point><coordinates> -3.598077,37.168224,0 </coordinates></Point></Placemark><Placemark><name>RONDA,CAMINO,DE,nº 136</name><description><![CDATA[Reserva Aparcabicis <br><br> Distrito RONDA <br> Longitud 9 <br> Nº Plazas 12 <br> Estacionamiento Batería <br> Observaciones <br> POINT_Y 37,176603 <br> POINT_X -3,609663]]></description><styleUrl>#icon-1522-097138</styleUrl><Point><coordinates> -3.609663,37.176603,0 </coordinates></Point></Placemark><Placemark><name>BARON PIERRE DE COUBERTIN,PLAZA,nº 1</name><description><![CDATA[Reserva Aparcabicis <br><br> Distrito GENIL <br> Longitud 4,5 <br> Nº Plazas 7 <br> Estacionamiento Batería <br> Observaciones <br> POINT_Y 37,156951 <br> POINT_X -3,592915]]></description><styleUrl>#icon-1522-097138</styleUrl><Point><coordinates> -3.592915,37.156951,0 </coordinates></Point></Placemark><Placemark><name>PUENTE DE LA VIRGEN,CALLE,nº 4</name><description><![CDATA[Reserva Aparcabicis <br><br> Distrito CENTRO <br> Longitud 4,5 <br> Nº Plazas 6 <br> Estacionamiento Batería <br> Observaciones <br> POINT_Y 37,169682 <br> POINT_X -3,597174]]></description><styleUrl>#icon-1522-097138</styleUrl><Point><coordinates> -3.597174,37.169682,0 </coordinates></Point></Placemark><Placemark><name>BAJO DE HUETOR,CAMINO,nº 78</name><description><![CDATA[Reserva Aparcabicis <br><br> Distrito GENIL <br> Longitud 4,5 <br> Nº Plazas 6 <br> Estacionamiento Batería <br> Observaciones <br> POINT_Y 37,159005 <br> POINT_X -3,588719]]></description><styleUrl>#icon-1522-097138</styleUrl><Point><coordinates> -3.588719,37.159005,0 </coordinates></Point></Placemark><Placemark><name>ALHAMAR,CALLE,nº 26</name><description><![CDATA[Reserva Aparcabicis <br><br> Distrito RONDA <br> Longitud 4,5 <br> Nº Plazas 6 <br> Estacionamiento Batería <br> Observaciones <br> POINT_Y 37,169049 <br> POINT_X -3,60256]]></description><styleUrl>#icon-1522-097138</styleUrl><Point><coordinates> -3.60256,37.169049,0 </coordinates></Point></Placemark><Placemark><name>SAN JERONIMO,CALLE,nº 46</name><description><![CDATA[Reserva Aparcabicis <br><br> Distrito CENTRO <br> Longitud 6 <br> Nº Plazas 12 <br> Estacionamiento Batería <br> Observaciones <br> POINT_Y 37,179501 <br> POINT_X -3,602212]]></description><styleUrl>#icon-1522-097138</styleUrl><Point><coordinates> -3.602212,37.179501,0 </coordinates></Point></Placemark><Placemark><name>ARGENTINITA,AVENIDA,DE LA,nº 1</name><description><![CDATA[Reserva Aparcabicis <br><br> Distrito BEIRO <br> Longitud 4,5 <br> Nº Plazas 12 <br> Estacionamiento Batería <br> Observaciones <br> POINT_Y 37,195643 <br> POINT_X -3,615248]]></description><styleUrl>#icon-1522-097138</styleUrl><Point><coordinates> -3.615248,37.195643,0 </coordinates></Point></Placemark><Placemark><name>GUITARRISTA MANUEL CANO,PLAZA,nº 3</name><description><![CDATA[Reserva Aparcabicis <br><br> Distrito RONDA <br> Longitud 4,5 <br> Nº Plazas 6 <br> Estacionamiento Batería <br> Observaciones Privado <br> POINT_Y 37,177413 <br> POINT_X -3,612737]]></description><styleUrl>#icon-1522-097138</styleUrl><Point><coordinates> -3.612737,37.177413,0 </coordinates></Point></Placemark><Placemark><name>MARQUES DE LA ENSENADA,CALLE,nº 1</name><description><![CDATA[Reserva Aparcabicis <br><br> Distrito RONDA <br> Longitud 4,5 <br> Nº Plazas 6 <br> Estacionamiento Batería <br> Observaciones <br> POINT_Y 37,168993 <br> POINT_X -3,605331]]></description><styleUrl>#icon-1522-097138</styleUrl><Point><coordinates> -3.605331,37.168993,0 </coordinates></Point></Placemark><Placemark><name>RONDA,CAMINO,DE,nº 69</name><description><![CDATA[Reserva Aparcabicis <br><br> Distrito RONDA <br> Longitud 4,5 <br> Nº Plazas 6 <br> Estacionamiento Batería <br> Observaciones <br> POINT_Y 37,170136 <br> POINT_X -3,605691]]></description><styleUrl>#icon-1522-097138</styleUrl><Point><coordinates> -3.605691,37.170136,0 </coordinates></Point></Placemark><Placemark><name>PUERTA LOS GUZMANES,CALLE,nº Polideportivo</name><description><![CDATA[Reserva Aparcabicis <br><br> Distrito NORTE <br> Longitud 7,1 <br> Nº Plazas 12 <br> Estacionamiento Batería <br> Observaciones 6 Horquillas <br> POINT_Y 37,19719 <br> POINT_X -3,599151]]></description><styleUrl>#icon-1522-097138</styleUrl><Point><coordinates> -3.599151,37.19719,0 </coordinates></Point></Placemark><Placemark><name>SAGRADA FAMILIA,CALLE,nº 18</name><description><![CDATA[Reserva Aparcabicis <br><br> Distrito CHANA <br> Longitud 2 <br> Nº Plazas 6 <br> Estacionamiento Batería <br> Observaciones <br> POINT_Y 37,191414 <br> POINT_X -3,624784]]></description><styleUrl>#icon-1522-097138</styleUrl><Point><coordinates> -3.624784,37.191414,0 </coordinates></Point></Placemark><Placemark><name>LAGUNA DE LA CALDERA,CALLE,nº 42</name><description><![CDATA[Reserva Aparcabicis <br><br> Distrito GENIL <br> Longitud 4 <br> Nº Plazas 8 <br> Estacionamiento Batería <br> Observaciones <br> POINT_Y 37,16577 <br> POINT_X -3,583511]]></description><styleUrl>#icon-1522-097138</styleUrl><Point><coordinates> -3.583511,37.16577,0 </coordinates></Point></Placemark><Placemark><name>INVESTIGACION,AVENIDA,DE LA,nº S/N</name><description><![CDATA[Reserva Aparcabicis <br><br> Distrito ZAIDIN <br> Longitud 2 <br> Nº Plazas 6 <br> Estacionamiento Batería <br> Observaciones <br> POINT_Y 37,147592 <br> POINT_X -3,604357]]></description><styleUrl>#icon-1522-097138</styleUrl><Point><coordinates> -3.604357,37.147592,0 </coordinates></Point></Placemark><Placemark><name>ANDALUCIA,AVENIDA,DE,nº Puerta P. Almun</name><description><![CDATA[Reserva Aparcabicis <br><br> Distrito CHANA <br> Longitud 0,9 <br> Nº Plazas 4 <br> Estacionamiento Batería <br> Observaciones 2 Horquillas <br> POINT_Y 37,194638 <br> POINT_X -3,626864]]></description><styleUrl>#icon-1522-097138</styleUrl><Point><coordinates> -3.626864,37.194638,0 </coordinates></Point></Placemark><Placemark><name>PULIANAS,AVENIDA,DE,nº 66</name><description><![CDATA[Reserva Aparcabicis <br><br> Distrito NORTE <br> Longitud 3 <br> Nº Plazas 8 <br> Estacionamiento Batería <br> Observaciones 4 Horquillas <br> POINT_Y 37,198357 <br> POINT_X -3,603918]]></description><styleUrl>#icon-1522-097138</styleUrl><Point><coordinates> -3.603918,37.198357,0 </coordinates></Point></Placemark><Placemark><name>SUR,AVENIDA,DEL,nº 13</name><description><![CDATA[Reserva Aparcabicis <br><br> Distrito BEIRO <br> Longitud 1,7 <br> Nº Plazas 6 <br> Estacionamiento Batería <br> Observaciones 3 Horquillas <br> POINT_Y 37,187587 <br> POINT_X -3,612927]]></description><styleUrl>#icon-1522-097138</styleUrl><Point><coordinates> -3.612927,37.187587,0 </coordinates></Point></Placemark><Placemark><name>POLIBIO,CALLE,nº 2</name><description><![CDATA[Reserva Aparcabicis <br><br> Distrito NORTE <br> Longitud 4,5 <br> Nº Plazas 6 <br> Estacionamiento Batería <br> Observaciones Modulo privado <br> POINT_Y 37,199179 <br> POINT_X -3,616029]]></description><styleUrl>#icon-1522-097138</styleUrl><Point><coordinates> -3.616029,37.199179,0 </coordinates></Point></Placemark><Placemark><name>PRIMAVERA,CALLE,nº 26</name><description><![CDATA[Reserva Aparcabicis <br><br> Distrito GENIL <br> Longitud 4,5 <br> Nº Plazas 6 <br> Estacionamiento Batería <br> Observaciones <br> POINT_Y 37,161751 <br> POINT_X -3,591351]]></description><styleUrl>#icon-1522-097138</styleUrl><Point><coordinates> -3.591351,37.161751,0 </coordinates></Point></Placemark><Placemark><name>SABICA,PASEO,DE LA,nº S/N</name><description><![CDATA[Reserva Aparcabicis <br><br> Distrito CENTRO <br> Longitud 4 <br> Nº Plazas 6 <br> Estacionamiento Batería <br> Observaciones Modulo privado <br> POINT_Y 37,171136 <br> POINT_X -3,577836]]></description><styleUrl>#icon-1522-097138</styleUrl><Point><coordinates> -3.577836,37.171136,0 </coordinates></Point></Placemark><Placemark><name>GUITARRISTA MANUEL CANO,PLAZA,nº 3</name><description><![CDATA[Reserva Aparcabicis <br><br> Distrito RONDA <br> Longitud 4,5 <br> Nº Plazas 6 <br> Estacionamiento Batería <br> Observaciones privado <br> POINT_Y 37,17737 <br> POINT_X -3,612846]]></description><styleUrl>#icon-1522-097138</styleUrl><Point><coordinates> -3.612846,37.17737,0 </coordinates></Point></Placemark><Placemark><name>HOSPICIO VIEJO,PLACETA,DEL,nº 13</name><description><![CDATA[Reserva Aparcabicis <br><br> Distrito CENTRO <br> Longitud 4,5 <br> Nº Plazas 6 <br> Estacionamiento Batería <br> Observaciones <br> POINT_Y 37,174357 <br> POINT_X -3,594683]]></description><styleUrl>#icon-1522-097138</styleUrl><Point><coordinates> -3.594683,37.174357,0 </coordinates></Point></Placemark><Placemark><name>JESUS ESCUDERO GARCIA,PLAZA,nº 2</name><description><![CDATA[Reserva Aparcabicis <br><br> Distrito NORTE <br> Longitud 4,5 <br> Nº Plazas 6 <br> Estacionamiento Batería <br> Observaciones <br> POINT_Y 37,203443 <br> POINT_X -3,600465]]></description><styleUrl>#icon-1522-097138</styleUrl><Point><coordinates> -3.600465,37.203443,0 </coordinates></Point></Placemark><Placemark><name>CAÑAVERAL,CALLE,nº 13</name><description><![CDATA[Reserva Aparcabicis <br><br> Distrito RONDA <br> Longitud 4,5 <br> Nº Plazas 6 <br> Estacionamiento Batería <br> Observaciones <br> POINT_Y 37,178882 <br> POINT_X -3,613885]]></description><styleUrl>#icon-1522-097138</styleUrl><Point><coordinates> -3.613885,37.178882,0 </coordinates></Point></Placemark><Placemark><name>BARON PIERRE DE COUBERTIN,PLAZA,nº 1</name><description><![CDATA[Reserva Aparcabicis <br><br> Distrito GENIL <br> Longitud 4,5 <br> Nº Plazas 6 <br> Estacionamiento Batería <br> Observaciones <br> POINT_Y 37,156909 <br> POINT_X -3,592923]]></description><styleUrl>#icon-1522-097138</styleUrl><Point><coordinates> -3.592923,37.156909,0 </coordinates></Point></Placemark><Placemark><name>LAGUNA DE CAMEROS,PASEO,nº 1</name><description><![CDATA[Reserva Aparcabicis <br><br> Distrito GENIL <br> Longitud 20 <br> Nº Plazas 120 <br> Estacionamiento Batería <br> Observaciones Modulo privado <br> POINT_Y 37,157476 <br> POINT_X -3,58422]]></description><styleUrl>#icon-1522-097138</styleUrl><Point><coordinates> -3.58422,37.157476,0 </coordinates></Point></Placemark><Placemark><name>BAJO DE HUETOR,CAMINO,nº 59</name><description><![CDATA[Reserva Aparcabicis <br><br> Distrito GENIL <br> Longitud 4,5 <br> Nº Plazas 6 <br> Estacionamiento Batería <br> Observaciones <br> POINT_Y 37,157501 <br> POINT_X -3,587101]]></description><styleUrl>#icon-1522-097138</styleUrl><Point><coordinates> -3.587101,37.157501,0 </coordinates></Point></Placemark><Placemark><name>ELENA MARTIN VIVALDI,CALLE,nº 1</name><description><![CDATA[Reserva Aparcabicis <br><br> Distrito RONDA <br> Longitud 4,5 <br> Nº Plazas 12 <br> Estacionamiento Batería <br> Observaciones <br> POINT_Y 37,168133 <br> POINT_X -3,606549]]></description><styleUrl>#icon-1522-097138</styleUrl><Point><coordinates> -3.606549,37.168133,0 </coordinates></Point></Placemark><Placemark><name>RECTOR MARIN OCETE,CALLE,nº 14</name><description><![CDATA[Reserva Aparcabicis <br><br> Distrito BEIRO <br> Longitud 10 <br> Nº Plazas 20 <br> Estacionamiento Batería <br> Observaciones Privado <br> POINT_Y 37,18281 <br> POINT_X -3,605625]]></description><styleUrl>#icon-1522-097138</styleUrl><Point><coordinates> -3.605625,37.18281,0 </coordinates></Point></Placemark><Placemark><name>EMPERADOR CARLOS V,PASEO,DEL,nº S/N</name><description><![CDATA[Reserva Aparcabicis <br><br> Distrito GENIL <br> Longitud 8 <br> Nº Plazas 12 <br> Estacionamiento Batería <br> Observaciones <br> POINT_Y 37,155901 <br> POINT_X -3,595105]]></description><styleUrl>#icon-1522-097138</styleUrl><Point><coordinates> -3.595105,37.155901,0 </coordinates></Point></Placemark><Placemark><name>HIPICA,PLAZA,DE LA,nº S/N</name><description><![CDATA[Reserva Aparcabicis <br><br> Distrito ZAIDIN <br> Longitud 4,5 <br> Nº Plazas 6 <br> Estacionamiento Batería <br> Observaciones <br> POINT_Y 37,160959 <br> POINT_X -3,595509]]></description><styleUrl>#icon-1522-097138</styleUrl><Point><coordinates> -3.595509,37.160959,0 </coordinates></Point></Placemark><Placemark><name>MADRE TERESA,CALLE,nº 1</name><description><![CDATA[Reserva Aparcabicis <br><br> Distrito CENTRO <br> Longitud 3 <br> Nº Plazas 8 <br> Estacionamiento Batería <br> Observaciones <br> POINT_Y 37,178429 <br> POINT_X -3,606101]]></description><styleUrl>#icon-1522-097138</styleUrl><Point><coordinates> -3.606101,37.178429,0 </coordinates></Point></Placemark><Placemark><name>BEETHOVEN,CALLE,nº 8</name><description><![CDATA[Reserva Aparcabicis <br><br> Distrito ZAIDIN <br> Longitud 4,5 <br> Nº Plazas 6 <br> Estacionamiento Batería <br> Observaciones <br> POINT_Y 37,158136 <br> POINT_X -3,605922]]></description><styleUrl>#icon-1522-097138</styleUrl><Point><coordinates> -3.605922,37.158136,0 </coordinates></Point></Placemark><Placemark><name>WASHINGTON IRVING,CALLE,nº S/N</name><description><![CDATA[Reserva Aparcabicis <br><br> Distrito CHANA <br> Longitud 2,6 <br> Nº Plazas 8 <br> Estacionamiento Batería <br> Observaciones 4 Horquillas <br> POINT_Y 37,188001 <br> POINT_X -3,626791]]></description><styleUrl>#icon-1522-097138</styleUrl><Point><coordinates> -3.626791,37.188001,0 </coordinates></Point></Placemark><Placemark><name>FEDERICO GARCIA LORCA,AVENIDA,nº 36</name><description><![CDATA[Reserva Aparcabicis <br><br> Distrito NORTE <br> Longitud 0,9 <br> Nº Plazas 4 <br> Estacionamiento Batería <br> Observaciones 2 Horquillas <br> POINT_Y 37,203361 <br> POINT_X -3,620545]]></description><styleUrl>#icon-1522-097138</styleUrl><Point><coordinates> -3.620545,37.203361,0 </coordinates></Point></Placemark><Placemark><name>JOAQUINA EGUARAS,CALLE,nº Frente Correos</name><description><![CDATA[Reserva Aparcabicis <br><br> Distrito NORTE <br> Longitud 2,6 <br> Nº Plazas 8 <br> Estacionamiento Batería <br> Observaciones <br> POINT_Y 37,203728 <br> POINT_X -3,610443]]></description><styleUrl>#icon-1522-097138</styleUrl><Point><coordinates> -3.610443,37.203728,0 </coordinates></Point></Placemark><Placemark><name>CERRO DE LOS MACHOS,CALLE,nº 5</name><description><![CDATA[Reserva Aparcabicis <br><br> Distrito GENIL <br> Longitud 2 <br> Nº Plazas 6 <br> Estacionamiento Batería <br> Observaciones <br> POINT_Y 37,160561 <br> POINT_X -3,585834]]></description><styleUrl>#icon-1522-097138</styleUrl><Point><coordinates> -3.585834,37.160561,0 </coordinates></Point></Placemark><Placemark><name>ROTARY,PLAZA,nº S/N</name><description><![CDATA[Reserva Aparcabicis <br><br> Distrito RONDA <br> Longitud 2,72 <br> Nº Plazas 8 <br> Estacionamiento Batería <br> Observaciones <br> POINT_Y 37,166726 <br> POINT_X -3,598638]]></description><styleUrl>#icon-1522-097138</styleUrl><Point><coordinates> -3.598638,37.166726,0 </coordinates></Point></Placemark><Placemark><name>MARIANA PINEDA,PLAZA,DE,nº 10</name><description><![CDATA[Reserva Aparcabicis <br><br> Distrito CENTRO <br> Longitud 4 <br> Nº Plazas 6 <br> Estacionamiento Batería <br> Observaciones <br> POINT_Y 37,17215 <br> POINT_X -3,597374]]></description><styleUrl>#icon-1522-097138</styleUrl><Point><coordinates> -3.597374,37.17215,0 </coordinates></Point></Placemark><Placemark><name>INVESTIGACION,AVENIDA,DE LA,nº S/N</name><description><![CDATA[Reserva Aparcabicis <br><br> Distrito ZAIDIN <br> Longitud 6 <br> Nº Plazas 10 <br> Estacionamiento Batería <br> Observaciones <br> POINT_Y 37,14806 <br> POINT_X -3,60659]]></description><styleUrl>#icon-1522-097138</styleUrl><Point><coordinates> -3.60659,37.14806,0 </coordinates></Point></Placemark><Placemark><name>CAMPOS,PLAZA,DE LOS,nº 6</name><description><![CDATA[Reserva Aparcabicis <br><br> Distrito CENTRO <br> Longitud 4 <br> Nº Plazas 6 <br> Estacionamiento Batería <br> Observaciones 3 Horquillas <br> POINT_Y 37,172016 <br> POINT_X -3,595779]]></description><styleUrl>#icon-1522-097138</styleUrl><Point><coordinates> -3.595779,37.172016,0 </coordinates></Point></Placemark><Placemark><name>FAISAN,CALLE,nº 2</name><description><![CDATA[Reserva Aparcabicis <br><br> Distrito BEIRO <br> Longitud 5,5 <br> Nº Plazas 12 <br> Estacionamiento Batería <br> Observaciones 6 Horquillas <br> POINT_Y 37,186715 <br> POINT_X -3,610595]]></description><styleUrl>#icon-1522-097138</styleUrl><Point><coordinates> -3.610595,37.186715,0 </coordinates></Point></Placemark><Placemark><name>CERVANTES,AVENIDA,DE,nº 29</name><description><![CDATA[Reserva Aparcabicis <br><br> Distrito GENIL <br> Longitud 4,7 <br> Nº Plazas 6 <br> Estacionamiento Batería <br> Observaciones 3 Horquillas <br> POINT_Y 37,163597 <br> POINT_X -3,587542]]></description><styleUrl>#icon-1522-097138</styleUrl><Point><coordinates> -3.587542,37.163597,0 </coordinates></Point></Placemark><Placemark><name>REALEJO,CUESTA,DEL,nº 2</name><description><![CDATA[Reserva Aparcabicis <br><br> Distrito CENTRO <br> Longitud 1,3 <br> Nº Plazas 6 <br> Estacionamiento Batería <br> Observaciones <br> POINT_Y 37,173685 <br> POINT_X -3,593398]]></description><styleUrl>#icon-1522-097138</styleUrl><Point><coordinates> -3.593398,37.173685,0 </coordinates></Point></Placemark><Placemark><name>BIB-RAMBLA,PLAZA,DE,nº 19</name><description><![CDATA[Reserva Aparcabicis <br><br> Distrito CENTRO <br> Longitud 4,5 <br> Nº Plazas 6 <br> Estacionamiento Batería <br> Observaciones Módulo Simple <br> POINT_Y 37,175239 <br> POINT_X -3,599485]]></description><styleUrl>#icon-1522-097138</styleUrl><Point><coordinates> -3.599485,37.175239,0 </coordinates></Point></Placemark><Placemark><name>SALON,PASEO,DEL,nº 1</name><description><![CDATA[Reserva Aparcabicis <br><br> Distrito CENTRO <br> Longitud 7 <br> Nº Plazas 12 <br> Estacionamiento Batería <br> Observaciones 6 Horquillas <br> POINT_Y 37,169523 <br> POINT_X -3,595668]]></description><styleUrl>#icon-1522-097138</styleUrl><Point><coordinates> -3.595668,37.169523,0 </coordinates></Point></Placemark><Placemark><name>ESCUDO DEL CARMEN,CALLE,nº 20</name><description><![CDATA[Reserva Aparcabicis <br><br> Distrito CENTRO <br> Longitud 4,5 <br> Nº Plazas 6 <br> Estacionamiento Batería <br> Observaciones <br> POINT_Y 37,174115 <br> POINT_X -3,59837]]></description><styleUrl>#icon-1522-097138</styleUrl><Point><coordinates> -3.59837,37.174115,0 </coordinates></Point></Placemark><Placemark><name>GUITARRISTA MANUEL CANO,PLAZA,nº 3</name><description><![CDATA[Reserva Aparcabicis <br><br> Distrito RONDA <br> Longitud 4,5 <br> Nº Plazas 6 <br> Estacionamiento Batería <br> Observaciones Privado <br> POINT_Y 37,177397 <br> POINT_X -3,612778]]></description><styleUrl>#icon-1522-097138</styleUrl><Point><coordinates> -3.612778,37.177397,0 </coordinates></Point></Placemark><Placemark><name>SAN AGAPITO,CALLE,nº 1</name><description><![CDATA[Reserva Aparcabicis <br><br> Distrito BEIRO <br> Longitud 5 <br> Nº Plazas 6 <br> Estacionamiento Batería <br> Observaciones <br> POINT_Y 37,1925 <br> POINT_X -3,605373]]></description><styleUrl>#icon-1522-097138</styleUrl><Point><coordinates> -3.605373,37.1925,0 </coordinates></Point></Placemark><Placemark><name>VIRGEN DE LA CONSOLACION,CALLE,nº S/N</name><description><![CDATA[Reserva Aparcabicis <br><br> Distrito CHANA <br> Longitud 4,5 <br> Nº Plazas 6 <br> Estacionamiento Batería <br> Observaciones <br> POINT_Y 37,191909 <br> POINT_X -3,627759]]></description><styleUrl>#icon-1522-097138</styleUrl><Point><coordinates> -3.627759,37.191909,0 </coordinates></Point></Placemark><Placemark><name>GRACIA,PLAZA,DE,nº 2</name><description><![CDATA[Reserva Aparcabicis <br><br> Distrito RONDA <br> Longitud 4,5 <br> Nº Plazas 6 <br> Estacionamiento Batería <br> Observaciones <br> POINT_Y 37,172609 <br> POINT_X -3,604597]]></description><styleUrl>#icon-1522-097138</styleUrl><Point><coordinates> -3.604597,37.172609,0 </coordinates></Point></Placemark><Placemark><name>PALOMAS,PLAZA,DE LAS,nº 1</name><description><![CDATA[Reserva Aparcabicis <br><br> Distrito ZAIDIN <br> Longitud 4,5 <br> Nº Plazas 6 <br> Estacionamiento Batería <br> Observaciones <br> POINT_Y 37,154603 <br> POINT_X -3,601976]]></description><styleUrl>#icon-1522-097138</styleUrl><Point><coordinates> -3.601976,37.154603,0 </coordinates></Point></Placemark><Placemark><name>ANDRES SEGOVIA,CALLE,nº 53</name><description><![CDATA[Reserva Aparcabicis <br><br> Distrito GENIL <br> Longitud 4,5 <br> Nº Plazas 6 <br> Estacionamiento Batería <br> Observaciones <br> POINT_Y 37,158488 <br> POINT_X -3,595001]]></description><styleUrl>#icon-1522-097138</styleUrl><Point><coordinates> -3.595001,37.158488,0 </coordinates></Point></Placemark><Placemark><name>PERIODISTA EDUARDO MOLINA FAJARDO,CALLE,nº 38</name><description><![CDATA[Reserva Aparcabicis <br><br> Distrito CHANA <br> Longitud 6 <br> Nº Plazas 6 <br> Estacionamiento Batería <br> Observaciones Modulo privado <br> POINT_Y 37,19741 <br> POINT_X -3,630673]]></description><styleUrl>#icon-1522-097138</styleUrl><Point><coordinates> -3.630673,37.19741,0 </coordinates></Point></Placemark><Placemark><name>TRINIDAD,PLAZA,DE LA,nº 4</name><description><![CDATA[Reserva Aparcabicis <br><br> Distrito CENTRO <br> Longitud 3 <br> Nº Plazas 8 <br> Estacionamiento Batería <br> Observaciones <br> POINT_Y 37,175773 <br> POINT_X -3,601845]]></description><styleUrl>#icon-1522-097138</styleUrl><Point><coordinates> -3.601845,37.175773,0 </coordinates></Point></Placemark><Placemark><name>BASILIOS,PASEO,DE LOS,nº 2</name><description><![CDATA[Reserva Aparcabicis <br><br> Distrito GENIL <br> Longitud 6 <br> Nº Plazas 12 <br> Estacionamiento Batería <br> Observaciones <br> POINT_Y 37,168184 <br> POINT_X -3,595149]]></description><styleUrl>#icon-1522-097138</styleUrl><Point><coordinates> -3.595149,37.168184,0 </coordinates></Point></Placemark><Placemark><name>NATALIO RIVAS,CALLE,nº 13</name><description><![CDATA[Reserva Aparcabicis <br><br> Distrito CENTRO <br> Longitud 5,98 <br> Nº Plazas 12 <br> Estacionamiento Batería <br> Observaciones <br> POINT_Y 37,182348 <br> POINT_X -3,602296]]></description><styleUrl>#icon-1522-097138</styleUrl><Point><coordinates> -3.602296,37.182348,0 </coordinates></Point></Placemark><Placemark><name>CALETA,PLAZA,DE LA,nº 1</name><description><![CDATA[Reserva Aparcabicis <br><br> Distrito BEIRO <br> Longitud 5 <br> Nº Plazas 12 <br> Estacionamiento Batería <br> Observaciones <br> POINT_Y 37,187454 <br> POINT_X -3,610778]]></description><styleUrl>#icon-1522-097138</styleUrl><Point><coordinates> -3.610778,37.187454,0 </coordinates></Point></Placemark><Placemark><name>CAÑAVERAL,CAMINO,nº 3</name><description><![CDATA[Reserva Aparcabicis <br><br> Distrito RONDA <br> Longitud 4,5 <br> Nº Plazas 6 <br> Estacionamiento Batería <br> Observaciones <br> POINT_Y 37,179089 <br> POINT_X -3,615827]]></description><styleUrl>#icon-1522-097138</styleUrl><Point><coordinates> -3.615827,37.179089,0 </coordinates></Point></Placemark><Placemark><name>SALVADOR ALLENDE,AVENIDA,nº 2</name><description><![CDATA[Reserva Aparcabicis <br><br> Distrito ZAIDIN <br> Longitud 2,6 <br> Nº Plazas 8 <br> Estacionamiento Batería <br> Observaciones 4 Horquillas <br> POINT_Y 37,153967 <br> POINT_X -3,596786]]></description><styleUrl>#icon-1522-097138</styleUrl><Point><coordinates> -3.596786,37.153967,0 </coordinates></Point></Placemark><Placemark><name>CONSTITUCION,AVENIDA,DE LA,nº S/N</name><description><![CDATA[Reserva Aparcabicis <br><br> Distrito BEIRO <br> Longitud 2,6 <br> Nº Plazas 8 <br> Estacionamiento Batería <br> Observaciones 4 Horquillas <br> POINT_Y 37,183217 <br> POINT_X -3,602152]]></description><styleUrl>#icon-1522-097138</styleUrl><Point><coordinates> -3.602152,37.183217,0 </coordinates></Point></Placemark><Placemark><name>PROFESOR ALBAREDA,CALLE,nº 1</name><description><![CDATA[Reserva Aparcabicis <br><br> Distrito GENIL <br> Longitud 5,9 <br> Nº Plazas 6 <br> Estacionamiento Batería <br> Observaciones 3 Horquillas <br> POINT_Y 37,166364 <br> POINT_X -3,590483]]></description><styleUrl>#icon-1522-097138</styleUrl><Point><coordinates> -3.590483,37.166364,0 </coordinates></Point></Placemark><Placemark><name>SALON,PASEO,DEL,nº 1</name><description><![CDATA[Reserva Aparcabicis <br><br> Distrito CENTRO <br> Longitud 4,5 <br> Nº Plazas 6 <br> Estacionamiento Batería <br> Observaciones Módulo Simple <br> POINT_Y 37,168946 <br> POINT_X -3,595627]]></description><styleUrl>#icon-1522-097138</styleUrl><Point><coordinates> -3.595627,37.168946,0 </coordinates></Point></Placemark><Placemark><name>POLIBIO,CALLE,nº S/N</name><description><![CDATA[Reserva Bicicletas <br><br> Distrito NORTE <br> Longitud 8 <br> Nº Plazas 10 <br> Estacionamiento Batería <br> Observaciones <br> POINT_Y 37,199177 <br> POINT_X -3,616021]]></description><styleUrl>#icon-1522-097138</styleUrl><Point><coordinates> -3.616021,37.199177,0 </coordinates></Point></Placemark><Placemark><name>ACERA DEL CASINO,CALLE,nº 7</name><description><![CDATA[Reserva Aparcabicis <br><br> Distrito CENTRO <br> Longitud 3 <br> Nº Plazas 8 <br> Estacionamiento Batería <br> Observaciones <br> POINT_Y 37,172383 <br> POINT_X -3,598971]]></description><styleUrl>#icon-1522-097138</styleUrl><Point><coordinates> -3.598971,37.172383,0 </coordinates></Point></Placemark><Placemark><name>PINTOR FERNANDO BELDA,CALLE,nº 62</name><description><![CDATA[Reserva Aparcabicis <br><br> Distrito CHANA <br> Longitud 4 <br> Nº Plazas 6 <br> Estacionamiento Batería <br> Observaciones Modulo privado <br> POINT_Y 37,187552 <br> POINT_X -3,630455]]></description><styleUrl>#icon-1522-097138</styleUrl><Point><coordinates> -3.630455,37.187552,0 </coordinates></Point></Placemark><Placemark><name>NEPTUNO,CALLE,nº 10</name><description><![CDATA[Reserva Aparcabicis <br><br> Distrito RONDA <br> Longitud 4,5 <br> Nº Plazas 6 <br> Estacionamiento Batería <br> Observaciones <br> POINT_Y 37,168537 <br> POINT_X -3,608357]]></description><styleUrl>#icon-1522-097138</styleUrl><Point><coordinates> -3.608357,37.168537,0 </coordinates></Point></Placemark><Placemark><name>CERVANTES,AVENIDA,DE,nº 24</name><description><![CDATA[Reserva Aparcabicis <br><br> Distrito GENIL <br> Longitud 4,5 <br> Nº Plazas 6 <br> Estacionamiento Batería <br> Observaciones <br> POINT_Y 37,163299 <br> POINT_X -3,587585]]></description><styleUrl>#icon-1522-097138</styleUrl><Point><coordinates> -3.587585,37.163299,0 </coordinates></Point></Placemark><Placemark><name>ALPUJARRAS,AVENIDA,DE LAS,nº 31</name><description><![CDATA[Reserva Aparcabicis <br><br> Distrito CHANA <br> Longitud 4,5 <br> Nº Plazas 12 <br> Estacionamiento Batería <br> Observaciones <br> POINT_Y 37,184795 <br> POINT_X -3,62353]]></description><styleUrl>#icon-1522-097138</styleUrl><Point><coordinates> -3.62353,37.184795,0 </coordinates></Point></Placemark><Placemark><name>NUESTRO PADRE JESUS DESPOJADO,PLAZA,DE,nº 1</name><description><![CDATA[Reserva Aparcabicis <br><br> Distrito RONDA <br> Longitud 4,5 <br> Nº Plazas 6 <br> Estacionamiento Batería <br> Observaciones <br> POINT_Y 37,168169 <br> POINT_X -3,599787]]></description><styleUrl>#icon-1522-097138</styleUrl><Point><coordinates> -3.599787,37.168169,0 </coordinates></Point></Placemark><Placemark><name>BUENSUCESO,CALLE,nº 12</name><description><![CDATA[Reserva Aparcabicis <br><br> Distrito CENTRO <br> Longitud 4,5 <br> Nº Plazas 6 <br> Estacionamiento Batería <br> Observaciones <br> POINT_Y 37,175389 <br> POINT_X -3,60262]]></description><styleUrl>#icon-1522-097138</styleUrl><Point><coordinates> -3.60262,37.175389,0 </coordinates></Point></Placemark><Placemark><name>PERIODISTA DANIEL SAUCEDO ARANDA,CALLE,nº S/N</name><description><![CDATA[Reserva Aparcabicis <br><br> Distrito CHANA <br> Longitud 28 <br> Nº Plazas 56 <br> Estacionamiento Batería <br> Observaciones Privado <br> POINT_Y 37,196828 <br> POINT_X -3,624584]]></description><styleUrl>#icon-1522-097138</styleUrl><Point><coordinates> -3.624584,37.196828,0 </coordinates></Point></Placemark><Placemark><name>IMPRENTA,CALLE,nº 3</name><description><![CDATA[Reserva Aparcabicis <br><br> Distrito ALBAICIN <br> Longitud 6 <br> Nº Plazas 12 <br> Estacionamiento Batería <br> Observaciones <br> POINT_Y 37,177154 <br> POINT_X -3,596365]]></description><styleUrl>#icon-1522-097138</styleUrl><Point><coordinates> -3.596365,37.177154,0 </coordinates></Point></Placemark><Placemark><name>CAMPO DEL PRINCIPE,PLAZA,nº 11</name><description><![CDATA[Reserva Aparcabicis <br><br> Distrito CENTRO <br> Longitud 6 <br> Nº Plazas 12 <br> Estacionamiento Batería <br> Observaciones <br> POINT_Y 37,172898 <br> POINT_X -3,59144]]></description><styleUrl>#icon-1522-097138</styleUrl><Point><coordinates> -3.59144,37.172898,0 </coordinates></Point></Placemark><Placemark><name>PINTOR FERNANDO BELDA,CALLE,nº 62</name><description><![CDATA[Reserva Aparcabicis <br><br> Distrito CHANA <br> Longitud 4 <br> Nº Plazas 6 <br> Estacionamiento Batería <br> Observaciones Modulo privado <br> POINT_Y 37,188389 <br> POINT_X -3,630641]]></description><styleUrl>#icon-1522-097138</styleUrl><Point><coordinates> -3.630641,37.188389,0 </coordinates></Point></Placemark><Placemark><name>RECTOR JOSÉ VIDA SORIA,CALLE,nº S/N</name><description><![CDATA[Reserva Aparcabicis <br><br> Distrito BEIRO <br> Longitud 18 <br> Nº Plazas 36 <br> Estacionamiento Batería <br> Observaciones <br> POINT_Y 37,190716 <br> POINT_X -3,610852]]></description><styleUrl>#icon-1522-097138</styleUrl><Point><coordinates> -3.610852,37.190716,0 </coordinates></Point></Placemark><Placemark><name>MALAGA,CARRETERA,DE,nº 100</name><description><![CDATA[Reserva Aparcabicis <br><br> Distrito CHANA <br> Longitud 0,9 <br> Nº Plazas 4 <br> Estacionamiento Batería <br> Observaciones 2 Horquillas <br> POINT_Y 37,189544 <br> POINT_X -3,627167]]></description><styleUrl>#icon-1522-097138</styleUrl><Point><coordinates> -3.627167,37.189544,0 </coordinates></Point></Placemark><Placemark><name>BAJO DE HUETOR,CAMINO,nº 50</name><description><![CDATA[Reserva Aparcabicis <br><br> Distrito GENIL <br> Longitud 4,7 <br> Nº Plazas 8 <br> Estacionamiento Batería <br> Observaciones <br> POINT_Y 37,162302 <br> POINT_X -3,590203]]></description><styleUrl>#icon-1522-097138</styleUrl><Point><coordinates> -3.590203,37.162302,0 </coordinates></Point></Placemark><Placemark><name>EMPERADOR CARLOS V,PASEO,DEL,nº 19</name><description><![CDATA[Reserva Aparcabicis <br><br> Distrito GENIL <br> Longitud 3 <br> Nº Plazas 8 <br> Estacionamiento Batería <br> Observaciones 4 Horquillas <br> POINT_Y 37,153626 <br> POINT_X -3,592161]]></description><styleUrl>#icon-1522-097138</styleUrl><Point><coordinates> -3.592161,37.153626,0 </coordinates></Point></Placemark><Placemark><name>MOLINOS,CALLE,nº 2</name><description><![CDATA[Reserva Aparcabicis <br><br> Distrito CENTRO <br> Longitud 1,1 <br> Nº Plazas 4 <br> Estacionamiento Batería <br> Observaciones 2 Horquillas <br> POINT_Y 37,173525 <br> POINT_X -3,593493]]></description><styleUrl>#icon-1522-097138</styleUrl><Point><coordinates> -3.593493,37.173525,0 </coordinates></Point></Placemark><Placemark><name>ILUSTRACION,AVENIDA,DE LA,nº S/N</name><description><![CDATA[Reserva Aparcabicis <br><br> Distrito ZAIDIN <br> Longitud 2 <br> Nº Plazas 6 <br> Estacionamiento Batería <br> Observaciones <br> POINT_Y 37,149338 <br> POINT_X -3,606055]]></description><styleUrl>#icon-1522-097138</styleUrl><Point><coordinates> -3.606055,37.149338,0 </coordinates></Point></Placemark><Placemark><name>PUERTA REAL DE ESPAÑA,CALLE,nº 2</name><description><![CDATA[Reserva Aparcabicis <br><br> Distrito CENTRO <br> Longitud 4,5 <br> Nº Plazas 6 <br> Estacionamiento Batería <br> Observaciones <br> POINT_Y 37,173379 <br> POINT_X -3,59956]]></description><styleUrl>#icon-1522-097138</styleUrl><Point><coordinates> -3.59956,37.173379,0 </coordinates></Point></Placemark><Placemark><name>FEDERICO GARCIA LORCA,AVENIDA,nº 21</name><description><![CDATA[Reserva Aparcabicis <br><br> Distrito NORTE <br> Longitud 4,5 <br> Nº Plazas 6 <br> Estacionamiento Batería <br> Observaciones <br> POINT_Y 37,200974 <br> POINT_X -3,619427]]></description><styleUrl>#icon-1522-097138</styleUrl><Point><coordinates> -3.619427,37.200974,0 </coordinates></Point></Placemark><Placemark><name>PINTOR FERNANDO BELDA,CALLE,nº 62</name><description><![CDATA[Reserva Aparcabicis <br><br> Distrito CHANA <br> Longitud 4 <br> Nº Plazas 6 <br> Estacionamiento Batería <br> Observaciones Modulo privado <br> POINT_Y 37,188409 <br> POINT_X -3,630603]]></description><styleUrl>#icon-1522-097138</styleUrl><Point><coordinates> -3.630603,37.188409,0 </coordinates></Point></Placemark><Placemark><name>ALHONDIGA,PLAZA,DE LA,nº 1</name><description><![CDATA[Reserva Aparcabicis <br><br> Distrito CENTRO <br> Longitud 4,5 <br> Nº Plazas 6 <br> Estacionamiento Batería <br> Observaciones <br> POINT_Y 37,175408 <br> POINT_X -3,601513]]></description><styleUrl>#icon-1522-097138</styleUrl><Point><coordinates> -3.601513,37.175408,0 </coordinates></Point></Placemark><Placemark><name>RONDA,CAMINO,DE,nº 105</name><description><![CDATA[Reserva Aparcabicis <br><br> Distrito RONDA <br> Longitud 4,5 <br> Nº Plazas 6 <br> Estacionamiento Batería <br> Observaciones <br> POINT_Y 37,175996 <br> POINT_X -3,609504]]></description><styleUrl>#icon-1522-097138</styleUrl><Point><coordinates> -3.609504,37.175996,0 </coordinates></Point></Placemark><Placemark><name>CAMPILLO,PLAZA,DEL,nº 2</name><description><![CDATA[Reserva Aparcabicis <br><br> Distrito CENTRO <br> Longitud 4,5 <br> Nº Plazas 6 <br> Estacionamiento Batería <br> Observaciones <br> POINT_Y 37,172431 <br> POINT_X -3,598313]]></description><styleUrl>#icon-1522-097138</styleUrl><Point><coordinates> -3.598313,37.172431,0 </coordinates></Point></Placemark><Placemark><name>ARABIAL,CALLE,nº 127</name><description><![CDATA[Reserva Aparcabicis <br><br> Distrito RONDA <br> Longitud 4,5 <br> Nº Plazas 6 <br> Estacionamiento Batería <br> Observaciones <br> POINT_Y 37,18272 <br> POINT_X -3,614978]]></description><styleUrl>#icon-1522-097138</styleUrl><Point><coordinates> -3.614978,37.18272,0 </coordinates></Point></Placemark><Placemark><name>ZUBIA,CAMINO,DE LA,nº 27</name><description><![CDATA[Reserva Aparcabicis <br><br> Distrito ZAIDIN <br> Longitud 4,5 <br> Nº Plazas 6 <br> Estacionamiento Batería <br> Observaciones Modulo privado <br> POINT_Y 37,161154 <br> POINT_X -3,596755]]></description><styleUrl>#icon-1522-097138</styleUrl><Point><coordinates> -3.596755,37.161154,0 </coordinates></Point></Placemark><Placemark><name>RONDA,CAMINO,DE,nº 51</name><description><![CDATA[Reserva Aparcabicis <br><br> Distrito RONDA <br> Longitud 4,5 <br> Nº Plazas 6 <br> Estacionamiento Batería <br> Observaciones <br> POINT_Y 37,167773 <br> POINT_X -3,604498]]></description><styleUrl>#icon-1522-097138</styleUrl><Point><coordinates> -3.604498,37.167773,0 </coordinates></Point></Placemark><Placemark><name>OBISPO HURTADO,CALLE,nº 1</name><description><![CDATA[Reserva Aparcabicis <br><br> Distrito CENTRO <br> Longitud 4,5 <br> Nº Plazas 6 <br> Estacionamiento Batería <br> Observaciones <br> POINT_Y 37,175673 <br> POINT_X -3,603952]]></description><styleUrl>#icon-1522-097138</styleUrl><Point><coordinates> -3.603952,37.175673,0 </coordinates></Point></Placemark><Placemark><name>PERETE,CALLE,nº 34</name><description><![CDATA[Reserva Aparcabicis <br><br> Distrito BEIRO <br> Longitud 3 <br> Nº Plazas 8 <br> Estacionamiento Batería <br> Observaciones <br> POINT_Y 37,193847 <br> POINT_X -3,615515]]></description><styleUrl>#icon-1522-097138</styleUrl><Point><coordinates> -3.615515,37.193847,0 </coordinates></Point></Placemark><Placemark><name>CARRERA DE LA VIRGEN,CALLE,nº 33</name><description><![CDATA[Reserva Aparcabicis <br><br> Distrito CENTRO <br> Longitud 4 <br> Nº Plazas 6 <br> Estacionamiento Batería <br> Observaciones Protección Paso de Peatones - Dársena <br> POINT_Y 37,169797 <br> POINT_X -3,596076]]></description><styleUrl>#icon-1522-097138</styleUrl><Point><coordinates> -3.596076,37.169797,0 </coordinates></Point></Placemark></Folder><Folder><name>Módulos aparcabicis interior</name><Placemark><name>ARABIAL,CALLE,nº 49</name><description><![CDATA[Reserva Aparcabicis <br><br> Distrito RONDA <br> Longitud 4 <br> Nº Plazas 6 <br> Estacionamiento Batería <br> Observaciones Modulo privado <br> POINT_Y 37,171459 <br> POINT_X -3,608435]]></description><styleUrl>#icon-1522-A52714</styleUrl><Point><coordinates> -3.608435,37.171459,0 </coordinates></Point></Placemark><Placemark><name>BASILIOS,PASEO,DE LOS,nº 3</name><description><![CDATA[Reserva Aparcabicis <br><br> Distrito GENIL <br> Longitud 4,5 <br> Nº Plazas 6 <br> Estacionamiento Batería <br> Observaciones <br> POINT_Y 37,168469 <br> POINT_X -3,592959]]></description><styleUrl>#icon-1522-A52714</styleUrl><Point><coordinates> -3.592959,37.168469,0 </coordinates></Point></Placemark><Placemark><name>REAL DE LOS NEVEROS,CAMINO,nº 1</name><description><![CDATA[Reserva Aparcabicis <br><br> Distrito GENIL <br> Longitud 4,5 <br> Nº Plazas 6 <br> Estacionamiento Batería <br> Observaciones <br> POINT_Y 37,162517 <br> POINT_X -3,586138]]></description><styleUrl>#icon-1522-A52714</styleUrl><Point><coordinates> -3.586138,37.162517,0 </coordinates></Point></Placemark><Placemark><name>MALAGA,CARRETERA,DE,nº 37</name><description><![CDATA[Reserva Aparcabicis <br><br> Distrito CHANA <br> Longitud 4,5 <br> Nº Plazas 17 <br> Estacionamiento Batería <br> Observaciones Modulo privado <br> POINT_Y 37,188437 <br> POINT_X -3,616705]]></description><styleUrl>#icon-1522-A52714</styleUrl><Point><coordinates> -3.616705,37.188437,0 </coordinates></Point></Placemark><Placemark><name>MARTINEZ DE LA ROSA,CALLE,nº 5</name><description><![CDATA[Reserva Aparcabicis <br><br> Distrito RONDA <br> Longitud 4,5 <br> Nº Plazas 6 <br> Estacionamiento Batería <br> Observaciones <br> POINT_Y 37,177096 <br> POINT_X -3,607437]]></description><styleUrl>#icon-1522-A52714</styleUrl><Point><coordinates> -3.607437,37.177096,0 </coordinates></Point></Placemark><Placemark><name>ARABIAL,CALLE,nº 49</name><description><![CDATA[Reserva Aparcabicis <br><br> Distrito RONDA <br> Longitud 4 <br> Nº Plazas 6 <br> Estacionamiento Batería <br> Observaciones Modulo privado <br> POINT_Y 37,170389 <br> POINT_X -3,607825]]></description><styleUrl>#icon-1522-A52714</styleUrl><Point><coordinates> -3.607825,37.170389,0 </coordinates></Point></Placemark><Placemark><name>HUERTA DEL RASILLO,CALLE,nº 6</name><description><![CDATA[Reserva Aparcabicis <br><br> Distrito RONDA <br> Longitud 4,5 <br> Nº Plazas 12 <br> Estacionamiento Batería <br> Observaciones <br> POINT_Y 37,174127 <br> POINT_X -3,613023]]></description><styleUrl>#icon-1522-A52714</styleUrl><Point><coordinates> -3.613023,37.174127,0 </coordinates></Point></Placemark><Placemark><name>FUENTE DE LA BICHA,PASEO,nº 30</name><description><![CDATA[Reserva Aparcabicis <br><br> Distrito GENIL <br> Longitud 4,5 <br> Nº Plazas 7 <br> Estacionamiento Batería <br> Observaciones <br> POINT_Y 37,164564 <br> POINT_X -3,583126]]></description><styleUrl>#icon-1522-A52714</styleUrl><Point><coordinates> -3.583126,37.164564,0 </coordinates></Point></Placemark><Placemark><name>SANTO TOMAS DE VILLANUEVA,CALLE,nº 17</name><description><![CDATA[Reserva Aparcabicis <br><br> Distrito RONDA <br> Longitud 4,5 <br> Nº Plazas 6 <br> Estacionamiento Batería <br> Observaciones <br> POINT_Y 37,180125 <br> POINT_X -3,615269]]></description><styleUrl>#icon-1522-A52714</styleUrl><Point><coordinates> -3.615269,37.180125,0 </coordinates></Point></Placemark><Placemark><name>VENTANILLA,CALLE,nº 9</name><description><![CDATA[Reserva Aparcabicis <br><br> Distrito CENTRO <br> Longitud 4,5 <br> Nº Plazas 6 <br> Estacionamiento Batería <br> Observaciones <br> POINT_Y 37,181492 <br> POINT_X -3,6037]]></description><styleUrl>#icon-1522-A52714</styleUrl><Point><coordinates> -3.6037,37.181492,0 </coordinates></Point></Placemark><Placemark><name>BEETHOVEN,CALLE,nº 6</name><description><![CDATA[Reserva Aparcabicis <br><br> Distrito ZAIDIN <br> Longitud 4,6 <br> Nº Plazas 6 <br> Estacionamiento Batería <br> Observaciones <br> POINT_Y 37,15798 <br> POINT_X -3,60548]]></description><styleUrl>#icon-1522-A52714</styleUrl><Point><coordinates> -3.60548,37.15798,0 </coordinates></Point></Placemark><Placemark><name>TALLACARNE,CALLEJON,DE,nº 6</name><description><![CDATA[Reserva Aparcabicis <br><br> Distrito ALBAICIN <br> Longitud 4,5 <br> Nº Plazas 6 <br> Estacionamiento Batería <br> Observaciones <br> POINT_Y 37,18806 <br> POINT_X -3,593984]]></description><styleUrl>#icon-1522-A52714</styleUrl><Point><coordinates> -3.593984,37.18806,0 </coordinates></Point></Placemark><Placemark><name>CASTAÑEDA,CALLE,nº 23</name><description><![CDATA[Reserva Aparcabicis <br><br> Distrito CENTRO <br> Longitud 4,5 <br> Nº Plazas 12 <br> Estacionamiento Batería <br> Observaciones <br> POINT_Y 37,170871 <br> POINT_X -3,595464]]></description><styleUrl>#icon-1522-A52714</styleUrl><Point><coordinates> -3.595464,37.170871,0 </coordinates></Point></Placemark><Placemark><name>FUENTE DE LA BICHA,PASEO,nº 30</name><description><![CDATA[Reserva Aparcabicis <br><br> Distrito GENIL <br> Longitud 4,5 <br> Nº Plazas 7 <br> Estacionamiento Batería <br> Observaciones <br> POINT_Y 37,164537 <br> POINT_X -3,583054]]></description><styleUrl>#icon-1522-A52714</styleUrl><Point><coordinates> -3.583054,37.164537,0 </coordinates></Point></Placemark><Placemark><name>DUQUE DE SAN PEDRO GALATINO,AVENIDA,DEL,nº 10</name><description><![CDATA[Reserva Aparcabicis <br><br> Distrito ZAIDIN <br> Longitud 4,5 <br> Nº Plazas 6 <br> Estacionamiento Batería <br> Observaciones <br> POINT_Y 37,16252 <br> POINT_X -3,597628]]></description><styleUrl>#icon-1522-A52714</styleUrl><Point><coordinates> -3.597628,37.16252,0 </coordinates></Point></Placemark><Placemark><name>CARTUJA,PASEO,DE,nº 2</name><description><![CDATA[Reserva Aparcabicis <br><br> Distrito BEIRO <br> Longitud 4,5 <br> Nº Plazas 6 <br> Estacionamiento Batería <br> Observaciones <br> POINT_Y 37,188978 <br> POINT_X -3,600039]]></description><styleUrl>#icon-1522-A52714</styleUrl><Point><coordinates> -3.600039,37.188978,0 </coordinates></Point></Placemark><Placemark><name>VIRGEN BLANCA,CALLE,nº 25</name><description><![CDATA[Reserva Aparcabicis <br><br> Distrito RONDA <br> Longitud 6 <br> Nº Plazas 12 <br> Estacionamiento Batería <br> Observaciones <br> POINT_Y 37,169877 <br> POINT_X -3,613106]]></description><styleUrl>#icon-1522-A52714</styleUrl><Point><coordinates> -3.613106,37.169877,0 </coordinates></Point></Placemark><Placemark><name>DILAR,AVENIDA,DE,nº 4 A</name><description><![CDATA[Reserva Aparcabicis <br><br> Distrito ZAIDIN <br> Longitud 4,5 <br> Nº Plazas 6 <br> Estacionamiento Batería <br> Observaciones <br> POINT_Y 37,163588 <br> POINT_X -3,598362]]></description><styleUrl>#icon-1522-A52714</styleUrl><Point><coordinates> -3.598362,37.163588,0 </coordinates></Point></Placemark><Placemark><name>ESPARTERA,CALLE,LA,nº S/N</name><description><![CDATA[Reserva Aparcabicis <br><br> Distrito NORTE <br> Longitud 4,5 <br> Nº Plazas 6 <br> Estacionamiento Batería <br> Observaciones <br> POINT_Y 37,197744 <br> POINT_X -3,619416]]></description><styleUrl>#icon-1522-A52714</styleUrl><Point><coordinates> -3.619416,37.197744,0 </coordinates></Point></Placemark><Placemark><name>SANTA BARBARA,CALLE,nº 15</name><description><![CDATA[Reserva Aparcabicis <br><br> Distrito CENTRO <br> Longitud 4,5 <br> Nº Plazas 6 <br> Estacionamiento Batería <br> Observaciones <br> POINT_Y 37,182058 <br> POINT_X -3,604581]]></description><styleUrl>#icon-1522-A52714</styleUrl><Point><coordinates> -3.604581,37.182058,0 </coordinates></Point></Placemark><Placemark><name>MOLINOS,CALLE,nº 55</name><description><![CDATA[Reserva Aparcabicis <br><br> Distrito CENTRO <br> Longitud 4,5 <br> Nº Plazas 6 <br> Estacionamiento Batería <br> Observaciones <br> POINT_Y 37,171565 <br> POINT_X -3,591292]]></description><styleUrl>#icon-1522-A52714</styleUrl><Point><coordinates> -3.591292,37.171565,0 </coordinates></Point></Placemark><Placemark><name>ACTRIZ FABIANA LAURA,CALLE,nº S/N</name><description><![CDATA[Reserva Aparcabicis <br><br> Distrito RONDA <br> Longitud 4,5 <br> Nº Plazas 6 <br> Estacionamiento Batería <br> Observaciones <br> POINT_Y 37,187062 <br> POINT_X -3,628132]]></description><styleUrl>#icon-1522-A52714</styleUrl><Point><coordinates> -3.628132,37.187062,0 </coordinates></Point></Placemark><Placemark><name>PROFESOR LUIS MOLINA GOMEZ,CALLE,nº 1</name><description><![CDATA[Reserva Aparcabicis <br><br> Distrito RONDA <br> Longitud 4,5 <br> Nº Plazas 6 <br> Estacionamiento Batería <br> Observaciones <br> POINT_Y 37,175198 <br> POINT_X -3,611715]]></description><styleUrl>#icon-1522-A52714</styleUrl><Point><coordinates> -3.611715,37.175198,0 </coordinates></Point></Placemark><Placemark><name>VILLA DE OÑA,CALLE,nº S/N</name><description><![CDATA[Reserva Aparcabicis <br><br> Distrito NORTE <br> Longitud 6 <br> Nº Plazas 12 <br> Estacionamiento Batería <br> Observaciones <br> POINT_Y 37,210301 <br> POINT_X -3,616309]]></description><styleUrl>#icon-1522-A52714</styleUrl><Point><coordinates> -3.616309,37.210301,0 </coordinates></Point></Placemark><Placemark><name>GONZALO GALLAS,CALLE,nº 6</name><description><![CDATA[Reserva Aparcabicis <br><br> Distrito RONDA <br> Longitud 4,5 <br> Nº Plazas 6 <br> Estacionamiento Batería <br> Observaciones <br> POINT_Y 37,181891 <br> POINT_X -3,611744]]></description><styleUrl>#icon-1522-A52714</styleUrl><Point><coordinates> -3.611744,37.181891,0 </coordinates></Point></Placemark><Placemark><name>RIGOBERTA MENCHU,CALLE,nº 5</name><description><![CDATA[Reserva Aparcabicis <br><br> Distrito NORTE <br> Longitud 4,5 <br> Nº Plazas 6 <br> Estacionamiento Batería <br> Observaciones <br> POINT_Y 37,207313 <br> POINT_X -3,595749]]></description><styleUrl>#icon-1522-A52714</styleUrl><Point><coordinates> -3.595749,37.207313,0 </coordinates></Point></Placemark><Placemark><name>PALMITA,CALLE,LA,nº 1</name><description><![CDATA[Reserva Aparcabicis <br><br> Distrito BEIRO <br> Longitud 4 <br> Nº Plazas 8 <br> Estacionamiento Batería <br> Observaciones 4 horquillas <br> POINT_Y 37,199182 <br> POINT_X -3,621446]]></description><styleUrl>#icon-1522-A52714</styleUrl><Point><coordinates> -3.621446,37.199182,0 </coordinates></Point></Placemark><Placemark><name>AMERICA,AVENIDA,DE,nº 1</name><description><![CDATA[Reserva Aparcabicis <br><br> Distrito ZAIDIN <br> Longitud 4,5 <br> Nº Plazas 6 <br> Estacionamiento Batería <br> Observaciones <br> POINT_Y 37,162454 <br> POINT_X -3,600819]]></description><styleUrl>#icon-1522-A52714</styleUrl><Point><coordinates> -3.600819,37.162454,0 </coordinates></Point></Placemark><Placemark><name>MARTIRES,PASEO,DE LOS,nº 10</name><description><![CDATA[Reserva Aparcabicis <br><br> Distrito CENTRO <br> Longitud 4 <br> Nº Plazas 6 <br> Estacionamiento Batería <br> Observaciones <br> POINT_Y 37,173672 <br> POINT_X -3,589084]]></description><styleUrl>#icon-1522-A52714</styleUrl><Point><coordinates> -3.589084,37.173672,0 </coordinates></Point></Placemark><Placemark><name>ARABIAL,CALLE,nº 49</name><description><![CDATA[Reserva Aparcabicis <br><br> Distrito RONDA <br> Longitud 4 <br> Nº Plazas 6 <br> Estacionamiento Batería <br> Observaciones Modulo privado <br> POINT_Y 37,17174 <br> POINT_X -3,608636]]></description><styleUrl>#icon-1522-A52714</styleUrl><Point><coordinates> -3.608636,37.17174,0 </coordinates></Point></Placemark><Placemark><name>BASILIOS,PASEO,DE LOS,nº 3</name><description><![CDATA[Reserva Aparcabicis <br><br> Distrito GENIL <br> Longitud 4,5 <br> Nº Plazas 6 <br> Estacionamiento Batería <br> Observaciones <br> POINT_Y 37,168486 <br> POINT_X -3,592884]]></description><styleUrl>#icon-1522-A52714</styleUrl><Point><coordinates> -3.592884,37.168486,0 </coordinates></Point></Placemark><Placemark><name>LUZ CASANOVA,CALLE,nº 18</name><description><![CDATA[Reserva Aparcabicis <br><br> Distrito NORTE <br> Longitud 4,5 <br> Nº Plazas 9 <br> Estacionamiento Batería <br> Observaciones Modulo privado <br> POINT_Y 37,201297 <br> POINT_X -3,601647]]></description><styleUrl>#icon-1522-A52714</styleUrl><Point><coordinates> -3.601647,37.201297,0 </coordinates></Point></Placemark><Placemark><name>PINTOR RAFAEL GARCIA BONILLO,CALLE,nº 1</name><description><![CDATA[Reserva Aparcabicis <br><br> Distrito RONDA <br> Longitud 7 <br> Nº Plazas 12 <br> Estacionamiento Batería <br> Observaciones <br> POINT_Y 37,184773 <br> POINT_X -3,62381]]></description><styleUrl>#icon-1522-A52714</styleUrl><Point><coordinates> -3.62381,37.184773,0 </coordinates></Point></Placemark><Placemark><name>POETA CESAR VALLEJO,CALLE,nº 6</name><description><![CDATA[Reserva Aparcabicis <br><br> Distrito GENIL <br> Longitud 6 <br> Nº Plazas 12 <br> Estacionamiento Batería <br> Observaciones <br> POINT_Y 37,159301 <br> POINT_X -3,59101]]></description><styleUrl>#icon-1522-A52714</styleUrl><Point><coordinates> -3.59101,37.159301,0 </coordinates></Point></Placemark><Placemark><name>GRAN CAPITAN,CALLE,nº 14</name><description><![CDATA[Reserva Aparcabicis <br><br> Distrito CENTRO <br> Longitud 4,5 <br> Nº Plazas 6 <br> Estacionamiento Batería <br> Observaciones <br> POINT_Y 37,178106 <br> POINT_X -3,604661]]></description><styleUrl>#icon-1522-A52714</styleUrl><Point><coordinates> -3.604661,37.178106,0 </coordinates></Point></Placemark><Placemark><name>TREVENQUE,CALLE,nº 2</name><description><![CDATA[Reserva Aparcabicis <br><br> Distrito GENIL <br> Longitud 4,5 <br> Nº Plazas 6 <br> Estacionamiento Batería <br> Observaciones <br> POINT_Y 37,165908 <br> POINT_X -3,58485]]></description><styleUrl>#icon-1522-A52714</styleUrl><Point><coordinates> -3.58485,37.165908,0 </coordinates></Point></Placemark><Placemark><name>MEDITERRANEO,AVENIDA,DEL,nº 55</name><description><![CDATA[Reserva Aparcabicis <br><br> Distrito RONDA <br> Longitud 4,5 <br> Nº Plazas 6 <br> Estacionamiento Batería <br> Observaciones <br> POINT_Y 37,163282 <br> POINT_X -3,603922]]></description><styleUrl>#icon-1522-A52714</styleUrl><Point><coordinates> -3.603922,37.163282,0 </coordinates></Point></Placemark><Placemark><name>SOCRATES,CALLE,nº 6</name><description><![CDATA[Reserva Aparcabicis <br><br> Distrito RONDA <br> Longitud 4,5 <br> Nº Plazas 6 <br> Estacionamiento Batería <br> Observaciones <br> POINT_Y 37,175545 <br> POINT_X -3,605891]]></description><styleUrl>#icon-1522-A52714</styleUrl><Point><coordinates> -3.605891,37.175545,0 </coordinates></Point></Placemark><Placemark><name>MARACENA (CERRILLO),AVENIDA,DE,nº Frente 102</name><description><![CDATA[Reserva Aparcabicis <br><br> Distrito CHANA <br> Longitud 4,5 <br> Nº Plazas 6 <br> Estacionamiento Batería <br> Observaciones <br> POINT_Y 37,201199 <br> POINT_X -3,624979]]></description><styleUrl>#icon-1522-A52714</styleUrl><Point><coordinates> -3.624979,37.201199,0 </coordinates></Point></Placemark><Placemark><name>FUERZAS ARMADAS,AVENIDA,DE LAS,nº 4</name><description><![CDATA[Reserva Aparcabicis <br><br> Distrito BEIRO <br> Longitud 3 <br> Nº Plazas 6 <br> Estacionamiento Línea <br> Observaciones Modulo Simple Cubierto <br> POINT_Y 37,190216 <br> POINT_X -3,61168]]></description><styleUrl>#icon-1522-A52714</styleUrl><Point><coordinates> -3.61168,37.190216,0 </coordinates></Point></Placemark><Placemark><name>ACTRIZ FABIANA LAURA,CALLE,nº S/N</name><description><![CDATA[Reserva Aparcabicis <br><br> Distrito RONDA <br> Longitud 4,5 <br> Nº Plazas 6 <br> Estacionamiento Batería <br> Observaciones <br> POINT_Y 37,187101 <br> POINT_X -3,628122]]></description><styleUrl>#icon-1522-A52714</styleUrl><Point><coordinates> -3.628122,37.187101,0 </coordinates></Point></Placemark><Placemark><name>GONZALO GALLAS,CALLE,nº 6</name><description><![CDATA[Reserva Aparcabicis <br><br> Distrito BEIRO <br> Longitud 4,5 <br> Nº Plazas 6 <br> Estacionamiento Batería <br> Observaciones <br> POINT_Y 37,18184 <br> POINT_X -3,611714]]></description><styleUrl>#icon-1522-A52714</styleUrl><Point><coordinates> -3.611714,37.18184,0 </coordinates></Point></Placemark><Placemark><name>DUQUE DE SAN PEDRO GALATINO,AVENIDA,DEL,nº 10</name><description><![CDATA[Reserva Aparcabicis <br><br> Distrito ZAIDIN <br> Longitud 4,5 <br> Nº Plazas 6 <br> Estacionamiento Batería <br> Observaciones <br> POINT_Y 37,162555 <br> POINT_X -3,59762]]></description><styleUrl>#icon-1522-A52714</styleUrl><Point><coordinates> -3.59762,37.162555,0 </coordinates></Point></Placemark><Placemark><name>TORRE PEDRO DE MORALES,CALLE,nº 56</name><description><![CDATA[Reserva Aparcabicis <br><br> Distrito GENIL <br> Longitud 4,5 <br> Nº Plazas 6 <br> Estacionamiento Batería <br> Observaciones <br> POINT_Y 37,157162 <br> POINT_X -3,591019]]></description><styleUrl>#icon-1522-A52714</styleUrl><Point><coordinates> -3.591019,37.157162,0 </coordinates></Point></Placemark><Placemark><name>LIBERTAD,PLAZA,DE LA,nº 1</name><description><![CDATA[Reserva Aparcabicis <br><br> Distrito BEIRO <br> Longitud 4,5 <br> Nº Plazas 6 <br> Estacionamiento Batería <br> Observaciones <br> POINT_Y 37,18244 <br> POINT_X -3,600073]]></description><styleUrl>#icon-1522-A52714</styleUrl><Point><coordinates> -3.600073,37.18244,0 </coordinates></Point></Placemark><Placemark><name>FELIX RODRIGUEZ DE LA FUENTE,CALLE,nº 29</name><description><![CDATA[Reserva Aparcabicis <br><br> Distrito ZAIDIN <br> Longitud 4,5 <br> Nº Plazas 6 <br> Estacionamiento Batería <br> Observaciones <br> POINT_Y 37,153365 <br> POINT_X -3,606137]]></description><styleUrl>#icon-1522-A52714</styleUrl><Point><coordinates> -3.606137,37.153365,0 </coordinates></Point></Placemark><Placemark><name>FUERZAS ARMADAS,AVENIDA,DE LAS,nº 4</name><description><![CDATA[Reserva Aparcabicis <br><br> Distrito BEIRO <br> Longitud 6 <br> Nº Plazas 12 <br> Estacionamiento Batería <br> Observaciones 6 Horquillas cubierto <br> POINT_Y 37,19052 <br> POINT_X -3,612166]]></description><styleUrl>#icon-1522-A52714</styleUrl><Point><coordinates> -3.612166,37.19052,0 </coordinates></Point></Placemark><Placemark><name>ARABIAL,CALLE,nº 49</name><description><![CDATA[Reserva Aparcabicis <br><br> Distrito RONDA <br> Longitud 4 <br> Nº Plazas 6 <br> Estacionamiento Batería <br> Observaciones Modulo privado <br> POINT_Y 37,17113 <br> POINT_X -3,608218]]></description><styleUrl>#icon-1522-A52714</styleUrl><Point><coordinates> -3.608218,37.17113,0 </coordinates></Point></Placemark><Placemark><name>BASILIOS,PASEO,DE LOS,nº 3</name><description><![CDATA[Reserva Aparcabicis <br><br> Distrito GENIL <br> Longitud 4,5 <br> Nº Plazas 6 <br> Estacionamiento Batería <br> Observaciones <br> POINT_Y 37,168479 <br> POINT_X -3,592915]]></description><styleUrl>#icon-1522-A52714</styleUrl><Point><coordinates> -3.592915,37.168479,0 </coordinates></Point></Placemark><Placemark><name>VENTANILLA,CALLE,nº 9</name><description><![CDATA[Reserva Aparcabicis <br><br> Distrito CENTRO <br> Longitud 4,5 <br> Nº Plazas 6 <br> Estacionamiento Batería <br> Observaciones <br> POINT_Y 37,181519 <br> POINT_X -3,603666]]></description><styleUrl>#icon-1522-A52714</styleUrl><Point><coordinates> -3.603666,37.181519,0 </coordinates></Point></Placemark><Placemark><name>CONCEPCION ARENAL,CALLE,nº 20</name><description><![CDATA[Reserva Aparcabicis <br><br> Distrito BEIRO <br> Longitud 4,5 <br> Nº Plazas 12 <br> Estacionamiento Batería <br> Observaciones <br> POINT_Y 37,191669 <br> POINT_X -3,604779]]></description><styleUrl>#icon-1522-A52714</styleUrl><Point><coordinates> -3.604779,37.191669,0 </coordinates></Point></Placemark><Placemark><name>FUERZAS ARMADAS,AVENIDA,DE LAS,nº 4</name><description><![CDATA[Reserva Aparcabicis <br><br> Distrito BEIRO <br> Longitud 4,5 <br> Nº Plazas 6 <br> Estacionamiento Batería <br> Observaciones <br> POINT_Y 37,189813 <br> POINT_X -3,612196]]></description><styleUrl>#icon-1522-A52714</styleUrl><Point><coordinates> -3.612196,37.189813,0 </coordinates></Point></Placemark><Placemark><name>ESOPO,CALLE,nº 44</name><description><![CDATA[Reserva Aparcabicis <br><br> Distrito CHANA <br> Longitud 4,5 <br> Nº Plazas 6 <br> Estacionamiento Batería <br> Observaciones <br> POINT_Y 37,200699 <br> POINT_X -3,627251]]></description><styleUrl>#icon-1522-A52714</styleUrl><Point><coordinates> -3.627251,37.200699,0 </coordinates></Point></Placemark><Placemark><name>GENERAL EMILIO HERRERA,PLAZA,nº 4</name><description><![CDATA[Reserva Aparcabicis <br><br> Distrito CENTRO <br> Longitud 5,3 <br> Nº Plazas 12 <br> Estacionamiento Batería <br> Observaciones 6 Horquillas <br> POINT_Y 37,167911 <br> POINT_X -3,597945]]></description><styleUrl>#icon-1522-A52714</styleUrl><Point><coordinates> -3.597945,37.167911,0 </coordinates></Point></Placemark><Placemark><name>CARMEN,PLAZA,DEL,nº 5</name><description><![CDATA[Reserva Aparcabicis <br><br> Distrito CENTRO <br> Longitud 7 <br> Nº Plazas 12 <br> Estacionamiento Batería <br> Observaciones <br> POINT_Y 37,174226 <br> POINT_X -3,598466]]></description><styleUrl>#icon-1522-A52714</styleUrl><Point><coordinates> -3.598466,37.174226,0 </coordinates></Point></Placemark><Placemark><name>MARTIRES,PASEO,DE LOS,nº 10</name><description><![CDATA[Reserva Aparcabicis <br><br> Distrito CENTRO <br> Longitud 4 <br> Nº Plazas 6 <br> Estacionamiento Batería <br> Observaciones <br> POINT_Y 37,173695 <br> POINT_X -3,589046]]></description><styleUrl>#icon-1522-A52714</styleUrl><Point><coordinates> -3.589046,37.173695,0 </coordinates></Point></Placemark><Placemark><name>ARABIAL,CALLE,nº 49</name><description><![CDATA[Reserva Aparcabicis <br><br> Distrito RONDA <br> Longitud 4 <br> Nº Plazas 6 <br> Estacionamiento Batería <br> Observaciones Modulo privado <br> POINT_Y 37,172233 <br> POINT_X -3,608934]]></description><styleUrl>#icon-1522-A52714</styleUrl><Point><coordinates> -3.608934,37.172233,0 </coordinates></Point></Placemark></Folder></Document></kml>