{"type": "FeatureCollection", "features": [{"type": "Feature", "properties": {"name": "ZBE Granada", "description": "Restricci\u00f3n por distintivo ambiental"}, "geometry": {"type": "Polygon", "coordinates": [[[-3.5809927, 37.18095], [-3.5803883, 37.180965], [-3.5797837, 37.18096], [-3.5791793, 37.180943], [-3.578576, 37.18091], [-3.5779748, 37.180855], [-3.5779386, 37.180855], [-3.5779023, 37.18085], [-3.5778656, 37.18085], [-3.5778294, 37.18085], [-3.577793, 37.18085], [-3.5777564, 37.18085], [-3.5777202, 37.180855], [-3.577684, 37.18086], [-3.577648, 37.180862], [-3.5776122, 37.18087], [-3.5775766, 37.180878], [-3.5775416, 37.180885], [-3.5775065, 37.180893], [-3.5774722, 37.1809], [-3.577438, 37.180912], [-3.5774045, 37.180923], [-3.5773714, 37.180935], [-3.577339, 37.18095], [-3.577307, 37.18096], [-3.5772755, 37.180977], [-3.5772448, 37.180992], [-3.5772147, 37.18101], [-3.5771854, 37.181026], [-3.5771568, 37.181046], [-3.5771265, 37.18104], [-3.577096, 37.18104], [-3.5770652, 37.181038], [-3.5770347, 37.181038], [-3.577004, 37.181038], [-3.5769732, 37.181038], [-3.5769427, 37.18104], [-3.5769124, 37.181046], [-3.576882, 37.18105], [-3.5768518, 37.181053], [-3.5768218, 37.181057], [-3.5767922, 37.181065], [-3.576763, 37.181072], [-3.5767336, 37.18108], [-3.576705, 37.181087], [-3.5766766, 37.181095], [-3.5766487, 37.181107], [-3.5766213, 37.181118], [-3.5765944, 37.18113], [-3.576568, 37.18114], [-3.5765421, 37.181156], [-3.5765169, 37.18117], [-3.5764923, 37.181183], [-3.5764682, 37.1812], [-3.576445, 37.181217], [-3.5764225, 37.181232], [-3.5764005, 37.181248], [-3.5763795, 37.181267], [-3.5763593, 37.181286], [-3.5763397, 37.181305], [-3.5763211, 37.181324], [-3.5763035, 37.181343], [-3.5762866, 37.181366], [-3.5762706, 37.181385], [-3.5762556, 37.181408], [-3.5762415, 37.181427], [-3.5762284, 37.18145], [-3.576216, 37.181473], [-3.576205, 37.181496], [-3.5761948, 37.18152], [-3.5761857, 37.18154], [-3.5761776, 37.18157], [-3.5761704, 37.18159], [-3.5761642, 37.181614], [-3.5761592, 37.18164], [-3.5761554, 37.181664], [-3.5761526, 37.181686], [-3.5761507, 37.181713], [-3.57615, 37.181736], [-3.5761504, 37.181763], [-3.5761518, 37.181786], [-3.5761542, 37.18181], [-3.5761578, 37.181835], [-3.5761626, 37.181858], [-3.576168, 37.181885], [-3.576175, 37.181908], [-3.5761826, 37.18193], [-3.5761914, 37.181953], [-3.5762012, 37.181976], [-3.5762122, 37.182], [-3.5762239, 37.182022], [-3.5762367, 37.182045], [-3.5762506, 37.182068], [-3.576265, 37.182087], [-3.5762808, 37.18211], [-3.5762973, 37.18213], [-3.5763147, 37.18215], [-3.5763333, 37.18217], [-3.5763524, 37.18219], [-3.5763724, 37.18221], [-3.5763931, 37.182228], [-3.5764146, 37.182243], [-3.576437, 37.18226], [-3.5764601, 37.182278], [-3.5764837, 37.182293], [-3.5765083, 37.18231], [-3.5765333, 37.18232], [-3.5765588, 37.182335], [-3.576585, 37.182346], [-3.576612, 37.182358], [-3.5766392, 37.18237], [-3.5766668, 37.18238], [-3.576695, 37.182392], [-3.576775, 37.1824], [-3.576855, 37.182407], [-3.576934, 37.18242], [-3.577013, 37.182434], [-3.577091, 37.18245], [-3.5771682, 37.18247], [-3.5772448, 37.18249], [-3.57732, 37.182514], [-3.5773947, 37.182537], [-3.577468, 37.182564], [-3.5775402, 37.182594], [-3.5776112, 37.182625], [-3.5776806, 37.182655], [-3.5777488, 37.18269], [-3.5778153, 37.182728], [-3.5778801, 37.182766], [-3.5779433, 37.182804], [-3.5780048, 37.182846], [-3.5780644, 37.18289], [-3.5781221, 37.182938], [-3.5781777, 37.182983], [-3.5782313, 37.183033], [-3.5782828, 37.183083], [-3.5783322, 37.183132], [-3.5783794, 37.183186], [-3.5784242, 37.18324], [-3.578467, 37.183292], [-3.5785067, 37.18335], [-3.5785446, 37.183407], [-3.5785797, 37.183464], [-3.5786123, 37.18352], [-3.5786424, 37.183582], [-3.5786698, 37.183643], [-3.5786946, 37.183704], [-3.5787168, 37.183765], [-3.5787363, 37.18383], [-3.578753, 37.18389], [-3.578767, 37.183956], [-3.5787783, 37.18402], [-3.5787866, 37.184086], [-3.5787923, 37.18415], [-3.5787954, 37.18421], [-3.5787954, 37.184277], [-3.5787928, 37.18434], [-3.5787873, 37.184406], [-3.5787792, 37.18447], [-3.5787683, 37.184536], [-3.5787544, 37.184597], [-3.578738, 37.18466], [-3.578719, 37.184723], [-3.578697, 37.184788], [-3.5786724, 37.18485], [-3.578645, 37.18491], [-3.5786152, 37.184967], [-3.578583, 37.185028], [-3.578548, 37.185085], [-3.5785105, 37.185143], [-3.5784707, 37.1852], [-3.5783741, 37.185555], [-3.578262, 37.18591], [-3.578135, 37.18626], [-3.5779927, 37.186607], [-3.5778353, 37.18695], [-3.5776632, 37.187286], [-3.5774765, 37.187622], [-3.5772755, 37.187946], [-3.5770605, 37.18827], [-3.5768318, 37.188587], [-3.576589, 37.188896], [-3.5763335, 37.189198], [-3.5760648, 37.18949], [-3.5757835, 37.189777], [-3.57549, 37.19006], [-3.5751843, 37.19033], [-3.5748672, 37.190594], [-3.5745392, 37.190845], [-3.5742, 37.19109], [-3.5738504, 37.191322], [-3.573491, 37.191547], [-3.573122, 37.191765], [-3.5729513, 37.191902], [-3.5727868, 37.192043], [-3.5726283, 37.19219], [-3.5724764, 37.19234], [-3.5723312, 37.192497], [-3.5721927, 37.192654], [-3.5720613, 37.192818], [-3.5719368, 37.192986], [-3.5718198, 37.193153], [-3.5717103, 37.19333], [-3.5716083, 37.193504], [-3.5715141, 37.19368], [-3.5714276, 37.193863], [-3.5713491, 37.194046], [-3.5712786, 37.194233], [-3.571216, 37.19442], [-3.571162, 37.194607], [-3.5709045, 37.19522], [-3.5706239, 37.19583], [-3.5705652, 37.19594], [-3.5705018, 37.196045], [-3.570434, 37.196148], [-3.5703616, 37.19625], [-3.570285, 37.19635], [-3.570204, 37.19645], [-3.570119, 37.196545], [-3.5700297, 37.196636], [-3.5699365, 37.196728], [-3.5698395, 37.196815], [-3.5697389, 37.1969], [-3.5696132, 37.19698], [-3.569491, 37.197063], [-3.569372, 37.19715], [-3.5692568, 37.19724], [-3.5691457, 37.197334], [-3.5690382, 37.19743], [-3.568935, 37.19753], [-3.5688357, 37.197628], [-3.5687408, 37.19773], [-3.5686502, 37.197838], [-3.5685642, 37.19795], [-3.5684826, 37.19806], [-3.5684059, 37.19817], [-3.5683906, 37.198196], [-3.5683763, 37.19822], [-3.5683632, 37.198246], [-3.5683513, 37.198273], [-3.5683403, 37.198296], [-3.5683305, 37.198322], [-3.568322, 37.19835], [-3.5683146, 37.198376], [-3.5683084, 37.198402], [-3.5683033, 37.19843], [-3.5682993, 37.198456], [-3.5682967, 37.198483], [-3.568295, 37.198513], [-3.5682948, 37.19854], [-3.5682957, 37.198566], [-3.5682976, 37.198593], [-3.568301, 37.19862], [-3.5683055, 37.198647], [-3.568311, 37.198673], [-3.568318, 37.1987], [-3.5683258, 37.198727], [-3.5683348, 37.198753], [-3.568345, 37.19878], [-3.5683565, 37.198807], [-3.568369, 37.19883], [-3.5683825, 37.198856], [-3.5683973, 37.198883], [-3.568413, 37.198906], [-3.5684297, 37.19893], [-3.5684476, 37.19895], [-3.5684664, 37.198975], [-3.5684862, 37.198997], [-3.5685072, 37.19902], [-3.568529, 37.19904], [-3.5685515, 37.199062], [-3.568575, 37.19908], [-3.5685992, 37.1991], [-3.5686245, 37.19912], [-3.5686505, 37.199135], [-3.5686772, 37.199154], [-3.5687046, 37.19917], [-3.5687327, 37.199184], [-3.5687616, 37.1992], [-3.5687912, 37.199215], [-3.5688212, 37.199226], [-3.5688517, 37.199238], [-3.5688827, 37.19925], [-3.5689144, 37.19926], [-3.5689464, 37.19927], [-3.5689788, 37.19928], [-3.5690114, 37.199287], [-3.5690446, 37.19929], [-3.5690777, 37.1993], [-3.5691113, 37.199303], [-3.5691452, 37.199306], [-3.569179, 37.19931], [-3.5692132, 37.199314], [-3.5692472, 37.199314], [-3.5692813, 37.199314], [-3.5693154, 37.199314], [-3.569568, 37.199306], [-3.5698204, 37.199306], [-3.570073, 37.199314], [-3.570325, 37.19933], [-3.5705762, 37.199352], [-3.5708263, 37.19938], [-3.5710752, 37.199413], [-3.5713227, 37.19945], [-3.5715685, 37.199497], [-3.5719452, 37.19957], [-3.5723248, 37.199635], [-3.5727065, 37.199688], [-3.57309, 37.19973], [-3.5734754, 37.199768], [-3.5738616, 37.19979], [-3.5742984, 37.199806], [-3.5747356, 37.199814], [-3.5751727, 37.199806], [-3.5756092, 37.199787], [-3.5760448, 37.199753], [-3.5764785, 37.19971], [-3.5769103, 37.199654], [-3.5773392, 37.199585], [-3.577765, 37.199505], [-3.578187, 37.199413], [-3.5793304, 37.199165], [-3.5804837, 37.198948], [-3.581645, 37.19876], [-3.5828137, 37.1986], [-3.5839882, 37.198475], [-3.5851674, 37.19838], [-3.5853467, 37.198368], [-3.5855253, 37.198345], [-3.5857031, 37.198322], [-3.5858798, 37.198296], [-3.586055, 37.19826], [-3.5862288, 37.198223], [-3.586401, 37.198177], [-3.5865712, 37.19813], [-3.5867393, 37.19808], [-3.586905, 37.198025], [-3.5870686, 37.19796], [-3.5872293, 37.197895], [-3.587387, 37.197826], [-3.5875418, 37.197754], [-3.5876937, 37.197674], [-3.587842, 37.197594], [-3.5879867, 37.197506], [-3.5881279, 37.19742], [-3.588265, 37.197323], [-3.5883982, 37.197227], [-3.5885272, 37.197124], [-3.5886521, 37.19702], [-3.5887723, 37.196915], [-3.5888882, 37.196804], [-3.588917, 37.196777], [-3.5889466, 37.19675], [-3.5889778, 37.196724], [-3.5890098, 37.196697], [-3.589043, 37.196674], [-3.589077, 37.19665], [-3.589112, 37.19663], [-3.589148, 37.19661], [-3.5891848, 37.196587], [-3.5892224, 37.196568], [-3.589261, 37.196552], [-3.5893004, 37.196533], [-3.5893402, 37.196518], [-3.589381, 37.196503], [-3.589422, 37.19649], [-3.589464, 37.196476], [-3.5895061, 37.196465], [-3.589549, 37.196453], [-3.5895922, 37.196445], [-3.5896356, 37.196438], [-3.5896797, 37.19643], [-3.5897236, 37.196426], [-3.5897682, 37.196423], [-3.5898125, 37.19642], [-3.589857, 37.196415], [-3.589902, 37.196415], [-3.5899465, 37.196415], [-3.589991, 37.19642], [-3.5900357, 37.19642], [-3.59008, 37.196426], [-3.5901241, 37.19643], [-3.5901682, 37.196438], [-3.5902119, 37.196445], [-3.590255, 37.196453], [-3.590298, 37.196465], [-3.5903404, 37.196476], [-3.590382, 37.196487], [-3.5904236, 37.1965], [-3.590464, 37.196514], [-3.5905044, 37.19653], [-3.5906916, 37.196583], [-3.5908809, 37.19663], [-3.591072, 37.19667], [-3.5912647, 37.196705], [-3.591459, 37.196735], [-3.5916545, 37.196762], [-3.591851, 37.19678], [-3.5920482, 37.196793], [-3.5922458, 37.196804], [-3.5924437, 37.196804], [-3.5926416, 37.196804], [-3.5928392, 37.196796], [-3.5930364, 37.19678], [-3.5932329, 37.196762], [-3.5934286, 37.19674], [-3.593623, 37.19671], [-3.5938158, 37.196674], [-3.5940073, 37.196632], [-3.595865, 37.19637], [-3.5960917, 37.19636], [-3.5963187, 37.196358], [-3.5965457, 37.19636], [-3.5967722, 37.19637], [-3.5969987, 37.196384], [-3.5972242, 37.196404], [-3.5974488, 37.19643], [-3.5976725, 37.19646], [-3.5976925, 37.19646], [-3.5977125, 37.196465], [-3.5977323, 37.196465], [-3.5977523, 37.19647], [-3.597772, 37.196472], [-3.5977917, 37.196476], [-3.597811, 37.19648], [-3.5978303, 37.196484], [-3.5978491, 37.196487], [-3.597868, 37.196495], [-3.5978866, 37.1965], [-3.597905, 37.196507], [-3.5979228, 37.196514], [-3.5979404, 37.19652], [-3.5979578, 37.19653], [-3.5979748, 37.196537], [-3.5979915, 37.196545], [-3.5980077, 37.196556], [-3.5980234, 37.196564], [-3.598039, 37.196575], [-3.5980537, 37.196587], [-3.598068, 37.196598], [-3.598082, 37.19661], [-3.5980954, 37.19662], [-3.5981083, 37.196632], [-3.5981207, 37.196648], [-3.5981326, 37.19666], [-3.5981438, 37.19667], [-3.5981545, 37.196686], [-3.5981646, 37.1967], [-3.598174, 37.196712], [-3.598183, 37.196728], [-3.5981913, 37.196743], [-3.598199, 37.19676], [-3.5982058, 37.196774], [-3.598212, 37.19679], [-3.5982177, 37.196804], [-3.5982227, 37.19682], [-3.598227, 37.196835], [-3.5982306, 37.19685], [-3.5982337, 37.196865], [-3.5982358, 37.19688], [-3.5982375, 37.1969], [-3.5982382, 37.196915], [-3.5982385, 37.19693], [-3.598238, 37.196945], [-3.5982368, 37.19696], [-3.598235, 37.19698], [-3.5982325, 37.196995], [-3.5982292, 37.19701], [-3.598225, 37.197025], [-3.5982206, 37.19704], [-3.5982153, 37.197056], [-3.5982094, 37.19707], [-3.5982027, 37.197086], [-3.5981956, 37.1971], [-3.5981877, 37.197117], [-3.598179, 37.197132], [-3.59817, 37.197144], [-3.5981603, 37.19716], [-3.59815, 37.197174], [-3.598139, 37.197186], [-3.5981276, 37.1972], [-3.5981154, 37.197212], [-3.5981028, 37.197224], [-3.5980897, 37.197235], [-3.598076, 37.19725], [-3.598062, 37.19726], [-3.5980475, 37.19727], [-3.5980322, 37.19728], [-3.597743, 37.19747], [-3.5974455, 37.19765], [-3.5971403, 37.197823], [-3.5968275, 37.197983], [-3.5965078, 37.19814], [-3.5960178, 37.19837], [-3.595538, 37.19862], [-3.5950682, 37.19888], [-3.594609, 37.19915], [-3.594161, 37.199432], [-3.593725, 37.19973], [-3.5935986, 37.199814], [-3.5934694, 37.199898], [-3.593337, 37.199978], [-3.593202, 37.200054], [-3.593064, 37.200127], [-3.5918157, 37.20075], [-3.591781, 37.200787], [-3.5917447, 37.200825], [-3.5917068, 37.20086], [-3.5916674, 37.200893], [-3.5916266, 37.200928], [-3.5915844, 37.200962], [-3.591541, 37.200993], [-3.5914962, 37.201023], [-3.5914502, 37.201054], [-3.591403, 37.20108], [-3.5913546, 37.201107], [-3.591305, 37.201134], [-3.5912547, 37.201157], [-3.5912032, 37.20118], [-3.5911508, 37.2012], [-3.5910976, 37.20122], [-3.5910435, 37.201237], [-3.5909886, 37.201256], [-3.5909333, 37.20127], [-3.5908773, 37.201286], [-3.5908206, 37.201298], [-3.5907583, 37.201424], [-3.5907013, 37.20155], [-3.5906498, 37.201675], [-3.5906038, 37.201805], [-3.5905633, 37.201935], [-3.5905285, 37.20207], [-3.5904992, 37.2022], [-3.5904756, 37.202335], [-3.5904577, 37.20247], [-3.5904455, 37.202602], [-3.590439, 37.202736], [-3.5904384, 37.20287], [-3.5904434, 37.203007], [-3.590454, 37.20314], [-3.5904706, 37.203274], [-3.5904925, 37.203407], [-3.5905204, 37.20354], [-3.590554, 37.20367], [-3.590593, 37.203804], [-3.5906377, 37.203934], [-3.5906878, 37.20406], [-3.5907364, 37.20423], [-3.590792, 37.2044], [-3.5908544, 37.204563], [-3.5909238, 37.20473], [-3.591, 37.20489], [-3.591083, 37.205055], [-3.5911727, 37.20521], [-3.5912688, 37.205368], [-3.5913713, 37.20552], [-3.59148, 37.205673], [-3.5915952, 37.205822], [-3.5917163, 37.205963], [-3.5919104, 37.206154], [-3.5920975, 37.206345], [-3.5922775, 37.206543], [-3.5924501, 37.206745], [-3.5926151, 37.20695], [-3.5927534, 37.20704], [-3.5928948, 37.207123], [-3.5930395, 37.207207], [-3.593187, 37.207283], [-3.5933375, 37.20736], [-3.5934906, 37.207428], [-3.5950992, 37.208374], [-3.5966918, 37.209007], [-3.5975933, 37.209763], [-3.599257, 37.210567], [-3.5993197, 37.210575], [-3.5993824, 37.210583], [-3.5994446, 37.21059], [-3.5995064, 37.210606], [-3.5995674, 37.210617], [-3.599628, 37.210632], [-3.5996878, 37.21065], [-3.599747, 37.210667], [-3.599805, 37.21069], [-3.5998626, 37.21071], [-3.5999188, 37.210735], [-3.5999742, 37.21076], [-3.6000285, 37.210785], [-3.6000814, 37.21081], [-3.6001334, 37.210842], [-3.6001837, 37.210873], [-3.6002328, 37.210907], [-3.6002808, 37.210938], [-3.600327, 37.21097], [-3.6003716, 37.21101], [-3.6004148, 37.21105], [-3.6004562, 37.211086], [-3.6004963, 37.211124], [-3.601083, 37.211544], [-3.6014137, 37.21168], [-3.6017385, 37.211826], [-3.6020565, 37.211983], [-3.6023674, 37.212147], [-3.602671, 37.21232], [-3.603258, 37.212353], [-3.6038432, 37.2124], [-3.6044261, 37.212463], [-3.6050057, 37.212543], [-3.6096826, 37.212246], [-3.6139755, 37.211426], [-3.6193812, 37.209522], [-3.6211677, 37.20944], [-3.623269, 37.208145], [-3.6255667, 37.205276], [-3.628237, 37.20522], [-3.6282432, 37.205204], [-3.6282504, 37.20519], [-3.628258, 37.205173], [-3.6282663, 37.20516], [-3.6282754, 37.205143], [-3.6282852, 37.205128], [-3.6282952, 37.205116], [-3.6283062, 37.2051], [-3.6283176, 37.205086], [-3.6283298, 37.205074], [-3.6283424, 37.205063], [-3.6283555, 37.205048], [-3.6283693, 37.205036], [-3.6283834, 37.205025], [-3.6283984, 37.205013], [-3.6284134, 37.205], [-3.6284292, 37.20499], [-3.6284454, 37.204983], [-3.6284618, 37.20497], [-3.628479, 37.204964], [-3.6284962, 37.204956], [-3.628514, 37.20495], [-3.628532, 37.20494], [-3.6285503, 37.204933], [-3.6285691, 37.204926], [-3.6285882, 37.204918], [-3.6286073, 37.204914], [-3.6286268, 37.20491], [-3.6286464, 37.204903], [-3.6286664, 37.2049], [-3.6286862, 37.204895], [-3.6287065, 37.204895], [-3.6287267, 37.20489], [-3.628747, 37.20489], [-3.6287675, 37.204887], [-3.628788, 37.204887], [-3.6288085, 37.204887], [-3.6288288, 37.204887], [-3.6288493, 37.20489], [-3.6319315, 37.20225], [-3.6321533, 37.202023], [-3.6323838, 37.2018], [-3.6326232, 37.201588], [-3.6328707, 37.201378], [-3.6331265, 37.20117], [-3.63339, 37.200977], [-3.6336613, 37.200787], [-3.6339397, 37.200603], [-3.6342254, 37.200428], [-3.6331115, 37.199986], [-3.6320138, 37.19952], [-3.6309333, 37.19903], [-3.630994, 37.19881], [-3.6310642, 37.198593], [-3.6311436, 37.198376], [-3.631232, 37.198162], [-3.6313295, 37.19795], [-3.631436, 37.197742], [-3.6315513, 37.197536], [-3.6316752, 37.197334], [-3.6318078, 37.197132], [-3.6319487, 37.196938], [-3.6319041, 37.196938], [-3.6318595, 37.196934], [-3.6318152, 37.19693], [-3.631771, 37.196926], [-3.6317275, 37.19692], [-3.6316838, 37.19691], [-3.6316407, 37.196903], [-3.631598, 37.19689], [-3.6315556, 37.19688], [-3.6315138, 37.19687], [-3.6314726, 37.196854], [-3.631432, 37.19684], [-3.631392, 37.196823], [-3.631353, 37.196808], [-3.6313145, 37.19679], [-3.6312766, 37.19677], [-3.63124, 37.19675], [-3.631204, 37.196728], [-3.631169, 37.196705], [-3.631135, 37.196682], [-3.631102, 37.19666], [-3.6310701, 37.196632], [-3.6310394, 37.19661], [-3.6310098, 37.196583], [-3.6309812, 37.196552], [-3.6309538, 37.196526], [-3.6309278, 37.196495], [-3.630903, 37.19647], [-3.6308794, 37.196438], [-3.6308575, 37.196407], [-3.6308365, 37.196373], [-3.6308172, 37.196342], [-3.630799, 37.19631], [-3.6307826, 37.196278], [-3.6307673, 37.196243], [-3.6307538, 37.19621], [-3.6307414, 37.196175], [-3.6307306, 37.19614], [-3.6307216, 37.196106], [-3.6307137, 37.196068], [-3.6307077, 37.196033], [-3.630703, 37.196], [-3.6307, 37.195965], [-3.6306984, 37.195927], [-3.6306984, 37.195892], [-3.6307, 37.195858], [-3.6307032, 37.19582], [-3.6307077, 37.195786], [-3.630714, 37.19575], [-3.6307216, 37.195713], [-3.6307309, 37.19568], [-3.6307416, 37.195644], [-3.6307538, 37.19561], [-3.6307673, 37.195576], [-3.6307826, 37.195545], [-3.6307993, 37.19551], [-3.6308172, 37.195477], [-3.6308365, 37.195446], [-3.6308575, 37.195415], [-3.6308796, 37.19538], [-3.630903, 37.195354], [-3.6309278, 37.195324], [-3.6309538, 37.195293], [-3.6309812, 37.195267], [-3.6310098, 37.19524], [-3.6310394, 37.195213], [-3.6310701, 37.195187], [-3.631102, 37.19516], [-3.631135, 37.195137], [-3.631169, 37.195114], [-3.6312218, 37.195084], [-3.6312728, 37.19505], [-3.6313224, 37.195015], [-3.6313708, 37.194977], [-3.6314173, 37.19494], [-3.6314623, 37.1949], [-3.6315055, 37.194862], [-3.6315472, 37.19482], [-3.6315868, 37.19478], [-3.631625, 37.194733], [-3.631661, 37.19469], [-3.631695, 37.194645], [-3.6317272, 37.1946], [-3.6317575, 37.19455], [-3.6317856, 37.194504], [-3.6318119, 37.194454], [-3.631836, 37.194405], [-3.6318579, 37.194355], [-3.6318777, 37.194305], [-3.6318953, 37.194256], [-3.6319108, 37.194202], [-3.6319542, 37.193924], [-3.6320095, 37.19365], [-3.6320765, 37.193375], [-3.632155, 37.193104], [-3.632245, 37.192833], [-3.6323464, 37.192566], [-3.6324592, 37.192303], [-3.6325831, 37.19204], [-3.632718, 37.191784], [-3.6328638, 37.19153], [-3.6328828, 37.19142], [-3.6328974, 37.191315], [-3.632907, 37.191204], [-3.632912, 37.191097], [-3.6329124, 37.19099], [-3.6329079, 37.19088], [-3.6328988, 37.190773], [-3.6328847, 37.190666], [-3.6328661, 37.19056], [-3.632843, 37.190453], [-3.632815, 37.190346], [-3.6328514, 37.1902], [-3.6328812, 37.190052], [-3.632905, 37.189903], [-3.6329222, 37.189754], [-3.632933, 37.189606], [-3.6329372, 37.189457], [-3.6329353, 37.18931], [-3.6329267, 37.18916], [-3.6329117, 37.18901], [-3.6328905, 37.188866], [-3.6328628, 37.188717], [-3.6328287, 37.18857], [-3.6327884, 37.188423], [-3.6327417, 37.18828], [-3.632689, 37.188137], [-3.63263, 37.187996], [-3.632565, 37.187855], [-3.632494, 37.187717], [-3.6324172, 37.187584], [-3.6323345, 37.18745], [-3.632246, 37.187317], [-3.6321518, 37.187187], [-3.6320522, 37.18706], [-3.6319475, 37.18694], [-3.6318371, 37.18682], [-3.631722, 37.186703], [-3.6316016, 37.18659], [-3.6314764, 37.186478], [-3.6313481, 37.18634], [-3.631214, 37.186207], [-3.6310744, 37.186077], [-3.6309295, 37.18595], [-3.6307793, 37.18583], [-3.630624, 37.18571], [-3.6304638, 37.185596], [-3.630299, 37.185486], [-3.6301298, 37.185383], [-3.6299562, 37.18528], [-3.6297784, 37.185184], [-3.6296825, 37.185135], [-3.6295848, 37.18509], [-3.629485, 37.185043], [-3.6293836, 37.185005], [-3.6292803, 37.184963], [-3.6291757, 37.18493], [-3.6290696, 37.184895], [-3.628962, 37.184864], [-3.6288533, 37.184837], [-3.6287436, 37.18481], [-3.628633, 37.18479], [-3.6285214, 37.184772], [-3.6284091, 37.184757], [-3.6282964, 37.184742], [-3.628183, 37.184734], [-3.6280372, 37.184685], [-3.6278934, 37.18463], [-3.6277518, 37.184578], [-3.6276126, 37.184517], [-3.6274757, 37.184456], [-3.6273415, 37.184387], [-3.62721, 37.18432], [-3.6270814, 37.184246], [-3.6269557, 37.18417], [-3.6258662, 37.183643], [-3.6258326, 37.183617], [-3.625798, 37.18359], [-3.6257622, 37.183563], [-3.6257255, 37.18354], [-3.6256876, 37.183514], [-3.6256485, 37.18349], [-3.6256087, 37.18347], [-3.625568, 37.18345], [-3.6255264, 37.18343], [-3.625484, 37.18341], [-3.6254406, 37.183395], [-3.6253967, 37.18338], [-3.6253521, 37.183365], [-3.625307, 37.183353], [-3.6252613, 37.18334], [-3.625215, 37.18333], [-3.6251683, 37.18332], [-3.625121, 37.18331], [-3.625074, 37.183304], [-3.6250262, 37.1833], [-3.6249783, 37.183296], [-3.6249304, 37.183292], [-3.6248822, 37.18329], [-3.624834, 37.18329], [-3.624786, 37.183292], [-3.6247377, 37.183292], [-3.6246898, 37.183296], [-3.6246421, 37.1833], [-3.6245944, 37.183308], [-3.6245472, 37.183315], [-3.6245005, 37.183323], [-3.624454, 37.183334], [-3.624408, 37.183346], [-3.6243627, 37.18336], [-3.624318, 37.183372], [-3.6242738, 37.183388], [-3.6242301, 37.183407], [-3.6241875, 37.183422], [-3.6241455, 37.18344], [-3.6241043, 37.18346], [-3.624064, 37.183483], [-3.6240246, 37.183506], [-3.6239865, 37.18353], [-3.623949, 37.18355], [-3.6239128, 37.18358], [-3.623878, 37.183605], [-3.623844, 37.18363], [-3.6238112, 37.183662], [-3.6237798, 37.18369], [-3.6237495, 37.18372], [-3.6237206, 37.18375], [-3.6236932, 37.183784], [-3.623667, 37.183815], [-3.6236424, 37.18385], [-3.623619, 37.183884], [-3.6235974, 37.183918], [-3.6236246, 37.18388], [-3.6236503, 37.18384], [-3.6236742, 37.183804], [-3.6236966, 37.183765], [-3.6237173, 37.183727], [-3.6237361, 37.183685], [-3.6237533, 37.183643], [-3.6237688, 37.183605], [-3.6237824, 37.183563], [-3.6237943, 37.18352], [-3.6238046, 37.18348], [-3.623813, 37.183437], [-3.623819, 37.183395], [-3.623824, 37.183353], [-3.6238267, 37.183308], [-3.6238277, 37.183266], [-3.6238267, 37.183224], [-3.6238241, 37.18318], [-3.6238196, 37.18314], [-3.6238132, 37.183094], [-3.623805, 37.183052], [-3.623795, 37.18301], [-3.623783, 37.18297], [-3.6237695, 37.18293], [-3.6237543, 37.182888], [-3.623737, 37.182846], [-3.6237183, 37.182808], [-3.6236978, 37.182766], [-3.6236753, 37.182728], [-3.6236515, 37.18269], [-3.623626, 37.18265], [-3.6235988, 37.182617], [-3.6235702, 37.18258], [-3.62354, 37.182545], [-3.6235082, 37.18251], [-3.623475, 37.182476], [-3.6234405, 37.182446], [-3.6234045, 37.18241], [-3.623367, 37.18238], [-3.6233284, 37.182354], [-3.6232886, 37.182323], [-3.6232474, 37.182297], [-3.6232052, 37.18227], [-3.623162, 37.182247], [-3.6231177, 37.18222], [-3.6230721, 37.182198], [-3.623026, 37.18218], [-3.6229787, 37.18216], [-3.6229308, 37.18214], [-3.622882, 37.18212], [-3.6228323, 37.182106], [-3.622782, 37.18209], [-3.6227312, 37.18208], [-3.62268, 37.182064], [-3.6226282, 37.182056], [-3.622576, 37.182045], [-3.6225233, 37.182037], [-3.62178, 37.181732], [-3.6210473, 37.181408], [-3.6203258, 37.18107], [-3.6196165, 37.180714], [-3.6193783, 37.18063], [-3.6191442, 37.18054], [-3.6189137, 37.18044], [-3.6186876, 37.180336], [-3.618466, 37.180225], [-3.6182492, 37.180107], [-3.6180375, 37.179985], [-3.6178308, 37.17986], [-3.6176295, 37.179726], [-3.6174343, 37.17959], [-3.6172445, 37.179443], [-3.6170611, 37.179295], [-3.6168842, 37.179142], [-3.6167138, 37.178986], [-3.61655, 37.17882], [-3.6161697, 37.17906], [-3.615782, 37.17929], [-3.6153874, 37.179516], [-3.6149282, 37.178825], [-3.614497, 37.178123], [-3.6140935, 37.17741], [-3.6140742, 37.177406], [-3.6140554, 37.1774], [-3.6140366, 37.177395], [-3.6140182, 37.177387], [-3.614, 37.17738], [-3.6139822, 37.177372], [-3.6139648, 37.177364], [-3.6139476, 37.177353], [-3.613931, 37.177345], [-3.6139147, 37.177334], [-3.6138988, 37.177326], [-3.6138835, 37.177315], [-3.6138685, 37.177303], [-3.6138542, 37.17729], [-3.61384, 37.17728], [-3.6138268, 37.17727], [-3.6138139, 37.177254], [-3.6138015, 37.177242], [-3.6137898, 37.177227], [-3.6137786, 37.177216], [-3.613768, 37.1772], [-3.613758, 37.177185], [-3.6137488, 37.177174], [-3.61374, 37.17716], [-3.613732, 37.177143], [-3.6137247, 37.177128], [-3.6137178, 37.177113], [-3.6137116, 37.177097], [-3.6137064, 37.177082], [-3.6137016, 37.177067], [-3.6136975, 37.177048], [-3.6136942, 37.177032], [-3.6136916, 37.177017], [-3.6136897, 37.177002], [-3.6136882, 37.176983], [-3.6136878, 37.176968], [-3.613688, 37.176952], [-3.6129954, 37.17653], [-3.6134775, 37.17608], [-3.6130033, 37.175392], [-3.6125715, 37.17474], [-3.6121678, 37.174076], [-3.6117928, 37.1734], [-3.6114466, 37.172718], [-3.6109953, 37.171734], [-3.6105857, 37.170734], [-3.6102178, 37.169727], [-3.6101556, 37.16957], [-3.6101, 37.169415], [-3.6100507, 37.169254], [-3.6100078, 37.169094], [-3.6099713, 37.168934], [-3.6099412, 37.16877], [-3.609918, 37.16861], [-3.6099012, 37.168446], [-3.6095707, 37.168102], [-3.6089547, 37.168003], [-3.60892, 37.16747], [-3.6095848, 37.16737], [-3.6097007, 37.16704], [-3.6096425, 37.166477], [-3.6096048, 37.166107], [-3.609583, 37.165737], [-3.6095767, 37.165367], [-3.6095865, 37.164997], [-3.609612, 37.164623], [-3.6096532, 37.164253], [-3.6097102, 37.163887], [-3.6097827, 37.16352], [-3.609871, 37.163155], [-3.6120687, 37.1627], [-3.6142502, 37.162197], [-3.6164143, 37.16165], [-3.6160247, 37.161068], [-3.6156135, 37.160492], [-3.6151807, 37.159927], [-3.6147275, 37.159374], [-3.6142535, 37.158833], [-3.6137598, 37.158302], [-3.6132169, 37.157665], [-3.612651, 37.15704], [-3.612063, 37.15643], [-3.612063, 37.15643], [-3.6120632, 37.156425], [-3.6120632, 37.156425], [-3.6120634, 37.156425], [-3.6120636, 37.15642], [-3.612064, 37.15642], [-3.6120644, 37.15642], [-3.6120646, 37.156418], [-3.6120653, 37.156418], [-3.6120658, 37.156418], [-3.6120663, 37.156414], [-3.6120667, 37.156414], [-3.6120675, 37.156414], [-3.6120682, 37.15641], [-3.612069, 37.15641], [-3.6120698, 37.15641], [-3.6120706, 37.15641], [-3.6120715, 37.156406], [-3.6120725, 37.156406], [-3.6120734, 37.156406], [-3.6120746, 37.156406], [-3.6120756, 37.156403], [-3.6120765, 37.156403], [-3.6120777, 37.156403], [-3.612079, 37.156403], [-3.61208, 37.1564], [-3.6120813, 37.1564], [-3.6120827, 37.1564], [-3.6114218, 37.15595], [-3.6113155, 37.155876], [-3.6112123, 37.155796], [-3.6111126, 37.155716], [-3.6110165, 37.155632], [-3.610924, 37.15555], [-3.6108353, 37.155457], [-3.6107507, 37.155365], [-3.6106699, 37.155273], [-3.6105933, 37.155178], [-3.610521, 37.15508], [-3.6101468, 37.15457], [-3.609754, 37.15407], [-3.6096287, 37.153923], [-3.609497, 37.153778], [-3.6093595, 37.153637], [-3.609216, 37.153496], [-3.609067, 37.153362], [-3.6089127, 37.153233], [-3.608753, 37.153103], [-3.6085882, 37.15298], [-3.608463, 37.152897], [-3.6083345, 37.152813], [-3.6082025, 37.152733], [-3.6080673, 37.152657], [-3.607929, 37.152584], [-3.6077876, 37.152515], [-3.6076434, 37.15245], [-3.6074965, 37.15239], [-3.6073472, 37.152332], [-3.6071956, 37.15228], [-3.607042, 37.15223], [-3.6068864, 37.152184], [-3.6067288, 37.152145], [-3.6065698, 37.152107], [-3.606409, 37.152077], [-3.6062472, 37.15205], [-3.6060846, 37.152027], [-3.6059208, 37.152008], [-3.6057563, 37.151993], [-3.6055913, 37.15198], [-3.605426, 37.151978], [-3.6057158, 37.15157], [-3.6062157, 37.150856], [-3.6062303, 37.150845], [-3.606244, 37.150837], [-3.606258, 37.150826], [-3.606271, 37.150814], [-3.606284, 37.150803], [-3.606296, 37.150795], [-3.606308, 37.15078], [-3.6063192, 37.15077], [-3.60633, 37.150757], [-3.6063404, 37.150745], [-3.60635, 37.150734], [-3.6063592, 37.15072], [-3.6063678, 37.150707], [-3.6063762, 37.150692], [-3.6063836, 37.15068], [-3.6063907, 37.150665], [-3.606397, 37.150654], [-3.6064029, 37.15064], [-3.606408, 37.150623], [-3.6064126, 37.150608], [-3.6064167, 37.150597], [-3.60642, 37.15058], [-3.606423, 37.150566], [-3.606425, 37.15055], [-3.606444, 37.150482], [-3.60646, 37.150414], [-3.6064732, 37.150345], [-3.6064832, 37.150276], [-3.6064904, 37.150208], [-3.6064944, 37.15014], [-3.6064956, 37.15007], [-3.6064937, 37.15], [-3.6065228, 37.149826], [-3.6065593, 37.14965], [-3.6066034, 37.14948], [-3.606655, 37.149307], [-3.606714, 37.14914], [-3.6067803, 37.14897], [-3.6068542, 37.148804], [-3.6069348, 37.14864], [-3.607023, 37.14848], [-3.607118, 37.14832], [-3.6062837, 37.148182], [-3.6040814, 37.147827], [-3.6040654, 37.14784], [-3.6040492, 37.147846], [-3.6040328, 37.147854], [-3.6040158, 37.14786], [-3.6039984, 37.14787], [-3.603981, 37.147877], [-3.603963, 37.147884], [-3.603945, 37.14789], [-3.6039264, 37.147896], [-3.6039078, 37.1479], [-3.603889, 37.147903], [-3.6038702, 37.147907], [-3.603851, 37.14791], [-3.6038318, 37.147915], [-3.6038122, 37.14792], [-3.603793, 37.14792], [-3.6037734, 37.14792], [-3.6037538, 37.14792], [-3.603734, 37.147923], [-3.6037145, 37.14792], [-3.603695, 37.14792], [-3.6036754, 37.14792], [-3.603656, 37.147915], [-3.6036367, 37.147915], [-3.6036174, 37.14791], [-3.6035984, 37.147907], [-3.6035795, 37.147903], [-3.6035607, 37.1479], [-3.6035423, 37.147892], [-3.603524, 37.14789], [-3.603506, 37.14788], [-3.6034882, 37.147873], [-3.6034708, 37.147865], [-3.6034536, 37.147858], [-3.603437, 37.14785], [-3.6034205, 37.147842], [-3.6034043, 37.147835], [-3.6033888, 37.147823], [-3.6033735, 37.147816], [-3.6033587, 37.147804], [-3.6033444, 37.147793], [-3.6033306, 37.14778], [-3.603317, 37.14777], [-3.6033041, 37.14776], [-3.603292, 37.147747], [-3.60328, 37.147736], [-3.6032686, 37.14772], [-3.603258, 37.14771], [-3.603248, 37.147694], [-3.603238, 37.147682], [-3.6032293, 37.147667], [-3.603221, 37.14765], [-3.603213, 37.14764], [-3.603206, 37.147625], [-3.6031995, 37.14761], [-3.6031935, 37.147594], [-3.6031885, 37.14758], [-3.6031837, 37.147564], [-3.60318, 37.14755], [-3.6031766, 37.147533], [-3.6031742, 37.14752], [-3.6031723, 37.147503], [-3.603171, 37.147488], [-3.6031704, 37.147472], [-3.6031706, 37.147453], [-3.6031713, 37.147438], [-3.603173, 37.147423], [-3.603153, 37.147404], [-3.6031325, 37.147385], [-3.603111, 37.14737], [-3.6030889, 37.14735], [-3.603066, 37.147335], [-3.6030424, 37.14732], [-3.603018, 37.147305], [-3.602993, 37.14729], [-3.6029675, 37.147274], [-3.6029415, 37.147263], [-3.6029148, 37.147247], [-3.6028874, 37.147236], [-3.6028597, 37.147224], [-3.6028316, 37.147217], [-3.6028028, 37.147205], [-3.602774, 37.147198], [-3.6027443, 37.14719], [-3.6027148, 37.147182], [-3.6026847, 37.14718], [-3.6026545, 37.14717], [-3.6026242, 37.147167], [-3.6025934, 37.147163], [-3.6025627, 37.14716], [-3.602532, 37.14716], [-3.602501, 37.14716], [-3.60247, 37.14716], [-3.6024392, 37.14716], [-3.6024082, 37.14716], [-3.6023774, 37.147163], [-3.6023467, 37.147167], [-3.6023161, 37.14717], [-3.602286, 37.147175], [-3.6022558, 37.147182], [-3.602226, 37.14719], [-3.6021967, 37.147194], [-3.6021676, 37.147205], [-3.6020622, 37.147217], [-3.6019576, 37.147232], [-3.6018536, 37.147255], [-3.6017504, 37.147274], [-3.6016483, 37.1473], [-3.6015475, 37.147327], [-3.6014476, 37.147358], [-3.6013494, 37.147392], [-3.6012523, 37.147427], [-3.601157, 37.147465], [-3.6010633, 37.147507], [-3.6009715, 37.14755], [-3.599452, 37.14824], [-3.5986378, 37.149284], [-3.597283, 37.150475], [-3.5920663, 37.153114], [-3.5919504, 37.151382], [-3.588008, 37.153904], [-3.5859656, 37.155293], [-3.586266, 37.155975], [-3.585498, 37.156483], [-3.5841136, 37.158295], [-3.583158, 37.15799], [-3.581316, 37.15759], [-3.5734816, 37.154125], [-3.5708022, 37.154137], [-3.5719552, 37.159355], [-3.5719867, 37.159416], [-3.5720208, 37.159473], [-3.5720575, 37.15953], [-3.5720963, 37.159588], [-3.5721378, 37.15964], [-3.5721817, 37.159695], [-3.5722277, 37.159748], [-3.572276, 37.159798], [-3.572327, 37.15985], [-3.5723796, 37.159897], [-3.5724344, 37.159943], [-3.5724912, 37.15999], [-3.57255, 37.160034], [-3.5726106, 37.160076], [-3.572673, 37.160114], [-3.5727372, 37.160152], [-3.5728028, 37.16019], [-3.5728703, 37.160225], [-3.5729392, 37.16026], [-3.5730093, 37.16029], [-3.5730808, 37.160316], [-3.5731535, 37.160347], [-3.5732274, 37.16037], [-3.572742, 37.16095], [-3.572237, 37.16152], [-3.5717125, 37.162075], [-3.571717, 37.162086], [-3.5717208, 37.162094], [-3.5717244, 37.162106], [-3.5717275, 37.162117], [-3.57173, 37.16213], [-3.5717318, 37.16214], [-3.5717335, 37.162155], [-3.5717344, 37.162167], [-3.5717351, 37.162178], [-3.5717351, 37.16219], [-3.571735, 37.1622], [-3.571734, 37.162212], [-3.5717325, 37.162224], [-3.5717309, 37.162235], [-3.5717285, 37.162247], [-3.5717275, 37.162266], [-3.5717273, 37.16228], [-3.5717278, 37.1623], [-3.571729, 37.16232], [-3.5717309, 37.162334], [-3.5717337, 37.162354], [-3.5717373, 37.16237], [-3.5717416, 37.162388], [-3.5717466, 37.162407], [-3.5717523, 37.162422], [-3.5717587, 37.16244], [-3.571766, 37.162457], [-3.571774, 37.16247], [-3.5717826, 37.16249], [-3.571792, 37.162506], [-3.571802, 37.16252], [-3.5718124, 37.162537], [-3.5718238, 37.16255], [-3.571836, 37.162567], [-3.5718486, 37.162582], [-3.5718617, 37.162598], [-3.5718758, 37.16261], [-3.57189, 37.162624], [-3.5719051, 37.162636], [-3.5719206, 37.16265], [-3.5719368, 37.162663], [-3.5719535, 37.162674], [-3.5719707, 37.162685], [-3.571988, 37.162697], [-3.5723557, 37.162846], [-3.572729, 37.162987], [-3.5731082, 37.163116], [-3.5731273, 37.163124], [-3.573146, 37.163128], [-3.5731645, 37.163136], [-3.5731826, 37.163147], [-3.5732005, 37.163155], [-3.5732176, 37.163162], [-3.5732348, 37.163174], [-3.5732512, 37.16318], [-3.5732675, 37.163193], [-3.5732832, 37.163204], [-3.5732982, 37.163216], [-3.573313, 37.163227], [-3.5733273, 37.16324], [-3.573341, 37.16325], [-3.573354, 37.163265], [-3.5733666, 37.163277], [-3.5733788, 37.163292], [-3.57339, 37.163303], [-3.573401, 37.16332], [-3.573411, 37.163334], [-3.5734208, 37.16335], [-3.5734296, 37.163364], [-3.573438, 37.16338], [-3.5734456, 37.163395], [-3.5734527, 37.16341], [-3.573459, 37.163425], [-3.5734644, 37.16344], [-3.5734694, 37.163456], [-3.5734737, 37.163475], [-3.5734773, 37.16349], [-3.5734801, 37.163506], [-3.5734823, 37.163525], [-3.5734837, 37.16354], [-3.5735538, 37.164364], [-3.5735564, 37.164387], [-3.57356, 37.164406], [-3.5735643, 37.16443], [-3.5735698, 37.164448], [-3.573576, 37.164467], [-3.573583, 37.16449], [-3.573591, 37.16451], [-3.5735996, 37.164528], [-3.5736094, 37.164547], [-3.5736196, 37.164566], [-3.573631, 37.164585], [-3.5736432, 37.164604], [-3.573656, 37.164623], [-3.5736697, 37.164642], [-3.5736842, 37.164658], [-3.5736992, 37.164677], [-3.5737152, 37.164692], [-3.573732, 37.16471], [-3.573749, 37.164726], [-3.573767, 37.16474], [-3.5737855, 37.164757], [-3.5738049, 37.164772], [-3.5738246, 37.164783], [-3.5738451, 37.1648], [-3.5774806, 37.165905], [-3.578158, 37.16612], [-3.5788257, 37.166355], [-3.5794828, 37.166607], [-3.5801287, 37.16688], [-3.5802214, 37.166924], [-3.5803123, 37.166965], [-3.5804012, 37.167015], [-3.5804882, 37.167065], [-3.5805728, 37.167114], [-3.5806553, 37.16717], [-3.5807354, 37.167225], [-3.5808132, 37.167286], [-3.5808885, 37.167347], [-3.580961, 37.167408], [-3.5810306, 37.167473], [-3.5810978, 37.16754], [-3.581162, 37.167606], [-3.5812232, 37.16768], [-3.5812814, 37.167747], [-3.5813365, 37.167824], [-3.5813887, 37.167896], [-3.5814373, 37.167973], [-3.581483, 37.16805], [-3.581525, 37.16813], [-3.5815642, 37.16821], [-3.5816073, 37.168297], [-3.5816543, 37.168385], [-3.5817049, 37.168472], [-3.5817587, 37.168556], [-3.5818162, 37.16864], [-3.581877, 37.16872], [-3.581941, 37.1688], [-3.582003, 37.168877], [-3.5820684, 37.168945], [-3.5821366, 37.169014], [-3.5822077, 37.169083], [-3.5822814, 37.169147], [-3.582358, 37.169212], [-3.5824368, 37.169273], [-3.5825183, 37.16933], [-3.5820448, 37.16962], [-3.5817678, 37.17037], [-3.5802855, 37.171825], [-3.5791602, 37.17262], [-3.580304, 37.173767], [-3.5807629, 37.174263], [-3.5812452, 37.174847], [-3.5813315, 37.17494], [-3.5820615, 37.176064], [-3.5831437, 37.17713], [-3.5809927, 37.18095]]]}}]}