{"type":"FeatureCollection","features":[{"type":"Feature","geometry":{"type":"Polygon","coordinates":[[[-3.60261,37.1721,0],[-3.60245,37.17183,0],[-3.601434,37.171936,0],[-3.601123,37.171859,0],[-3.600726,37.171859,0],[-3.600297,37.171833,0],[-3.599975,37.171876,0],[-3.599782,37.171816,0],[-3.599052,37.17197,0],[-3.599718,37.173363,0],[-3.5996,37.17362,0],[-3.60261,37.1721,0]]]},"properties":{"name":"RECOGIDAS","styleUrl":"#poly-666600-3000-115-nodesc","fill-opacity":0.45098039215686275,"fill":"#666600","stroke-opacity":1,"stroke":"#666600","stroke-width":3}},{"type":"Feature","geometry":{"type":"Polygon","coordinates":[[[-3.60387,37.175853,0],[-3.60373,37.175733,0],[-3.601488,37.173671,0],[-3.600597,37.173064,0],[-3.600147,37.173363,0],[-3.599589,37.17362,0],[-3.599675,37.173739,0],[-3.600254,37.174304,0],[-3.601348,37.176432,0],[-3.601531,37.176501,0],[-3.602132,37.177261,0],[-3.603129,37.176817,0],[-3.603913,37.176492,0],[-3.60387,37.175853,0]]]},"properties":{"name":"TABLAS","styleUrl":"#poly-FFCC33-3000-115-nodesc","fill-opacity":0.45098039215686275,"fill":"#ffcc33","stroke-opacity":1,"stroke":"#ffcc33","stroke-width":3}},{"type":"Feature","geometry":{"type":"Polygon","coordinates":[[[-3.597078,37.169116,0],[-3.596864,37.169202,0],[-3.598377,37.171219,0],[-3.598709,37.171859,0],[-3.598162,37.171961,0],[-3.597035,37.17079,0],[-3.596478,37.170243,0],[-3.595855,37.169661,0],[-3.593709,37.169875,0],[-3.593634,37.170055,0],[-3.593956,37.170499,0],[-3.593699,37.170645,0],[-3.592508,37.169927,0],[-3.591478,37.169567,0],[-3.587659,37.168935,0],[-3.586789,37.16873,0],[-3.586843,37.168858,0],[-3.587186,37.169285,0],[-3.586832,37.169961,0],[-3.586264,37.170371,0],[-3.585802,37.170935,0],[-3.586038,37.170944,0],[-3.58666,37.17085,0],[-3.588039,37.171542,0],[-3.588825,37.172718,0],[-3.589915,37.174007,0],[-3.589881,37.174446,0],[-3.589321,37.174723,0],[-3.591832,37.175594,0],[-3.594632,37.175646,0],[-3.595726,37.176287,0],[-3.596244,37.176469,0],[-3.596668,37.176415,0],[-3.596885,37.176321,0],[-3.597711,37.175842,0],[-3.598462,37.175347,0],[-3.599836,37.173329,0],[-3.59901,37.171688,0],[-3.598012,37.170072,0],[-3.597078,37.169116,0]]]},"properties":{"name":"BARRIO DEL REALEJO","styleUrl":"#poly-990000-3000-115-nodesc","fill-opacity":0.45098039215686275,"fill":"#990000","stroke-opacity":1,"stroke":"#990000","stroke-width":3}},{"type":"Feature","geometry":{"type":"Polygon","coordinates":[[[-3.598151,37.177227,0],[-3.597593,37.176101,0],[-3.596413,37.176595,0],[-3.594697,37.175877,0],[-3.594117,37.175996,0],[-3.592111,37.1758,0],[-3.58944,37.174885,0],[-3.58915,37.17509,0],[-3.591628,37.176219,0],[-3.593934,37.176885,0],[-3.592706,37.177791,0],[-3.58798,37.178629,0],[-3.582637,37.179364,0],[-3.580363,37.180322,0],[-3.584429,37.181082,0],[-3.584837,37.181997,0],[-3.585094,37.182322,0],[-3.587755,37.182194,0],[-3.589536,37.18233,0],[-3.591113,37.181211,0],[-3.594149,37.181373,0],[-3.593688,37.182484,0],[-3.595608,37.182151,0],[-3.595415,37.18145,0],[-3.596939,37.180552,0],[-3.597872,37.180527,0],[-3.597829,37.179228,0],[-3.59754,37.179014,0],[-3.597207,37.178817,0],[-3.59666,37.178236,0],[-3.597625,37.177757,0],[-3.597722,37.17762,0],[-3.598151,37.177227,0]]]},"properties":{"name":"ALBAICIN BAJO","styleUrl":"#poly-003300-3000-115-nodesc","fill-opacity":0.45098039215686275,"fill":"#003300","stroke-opacity":1,"stroke":"#003300","stroke-width":3}},{"type":"Feature","geometry":{"type":"Polygon","coordinates":[[[-3.597937,37.180535,0],[-3.597035,37.180494,0],[-3.595276,37.181108,0],[-3.595716,37.182134,0],[-3.595308,37.182288,0],[-3.593935,37.182518,0],[-3.593656,37.182484,0],[-3.594117,37.181424,0],[-3.59284,37.181373,0],[-3.591145,37.181279,0],[-3.589933,37.182142,0],[-3.589203,37.181954,0],[-3.588742,37.18104,0],[-3.58827,37.179304,0],[-3.588023,37.179364,0],[-3.588592,37.181125,0],[-3.588635,37.182254,0],[-3.58798,37.182305,0],[-3.588088,37.183373,0],[-3.590233,37.183886,0],[-3.591607,37.185681,0],[-3.591338,37.186356,0],[-3.591392,37.187083,0],[-3.592883,37.186074,0],[-3.593173,37.184664,0],[-3.593827,37.184459,0],[-3.593978,37.184382,0],[-3.594064,37.184245,0],[-3.594911,37.184014,0],[-3.595598,37.18363,0],[-3.596746,37.183963,0],[-3.59681,37.18357,0],[-3.595759,37.183433,0],[-3.596445,37.182972,0],[-3.597583,37.183647,0],[-3.59917,37.185476,0],[-3.599986,37.185254,0],[-3.598881,37.182655,0],[-3.599267,37.182134,0],[-3.599074,37.181741,0],[-3.598913,37.180911,0],[-3.598934,37.180057,0],[-3.598248,37.178997,0],[-3.597604,37.178467,0],[-3.596724,37.178227,0],[-3.597261,37.178783,0],[-3.597668,37.179057,0],[-3.597872,37.179219,0],[-3.597937,37.180535,0]]]},"properties":{"name":"ALBAICIN ALTO","description":{"@type":"html","value":"Horarios:<br>- Horario funcionamiento accesos de<br>C/ San Luis y C/ Pages.<br>Lunes, martes, miércoles, domingo y festivo:<br>Mañana: 11 a 14 h.<br>Tarde: 20 a 24 h.<br>Jueves, viernes, sábado y víspera de festivo:<br>Mañana: 11 a 14 h.<br>Tarde: 20 a 5 h.<br><br>- Horario funcionamiento accesos de<br>C/ Elvira y C/Reyes Católicos.<br>De Lunes a Jueves de 7:30 a 24:00.<br>Viernes, fin de semana, festivo y víspera de festivo, 24 horas."},"styleUrl":"#poly-0000FF-3000-115","fill-opacity":0.45098039215686275,"fill":"#0000ff","stroke-opacity":1,"stroke":"#0000ff","stroke-width":3}},{"type":"Feature","geometry":{"type":"Point","coordinates":[-3.593495,37.183895,0]},"properties":{"name":"Control de Acceso Pagés","description":{"@type":"html","value":"Pilona de Calle Pagés<br>Pilona situada en la Calle Pagés a la altura de Calle San Gregorio Alto.<br>Desvío alternativo para los vehículos no autorizados por Calle San Gregorio Alto.<br><br><br>Horario:<br>11:00 a 14:00 de Lunes a Domingo<br>20:00 a 00:00 de Domingo a Miércoles y Festivos<br>20:00 a 07:00 de Jueves a Sábado y vísperas de Festivo"},"styleUrl":"#icon-503-DB4436","label-scale":0,"icon-opacity":1,"icon-color":"#db4436","icon-scale":1.1,"icon-offset":[16,32],"icon-offset-units":["pixels","insetPixels"],"icon":"https://www.gstatic.com/mapspro/images/stock/503-wht-blank_maps.png"}},{"type":"Feature","geometry":{"type":"Point","coordinates":[-3.591703,37.185502,0]},"properties":{"name":"Pilona de C/ San Luis","description":{"@type":"html","value":"Pilona de Calle San Luis<br>Pilona situada en Calle San Luis a la altura de Plaza Cruz de Piedra.<br>Los vehículos no autorizados deben retroceder y continuar hacia Fajalauza.<br><br><br>Horario:<br>11:00 a 14:00 de Lunes a Domingo<br>20:00 a 00:00 de Domingo a Miércoles y Festivos<br>20:00 a 07:00 de Jueves a Sábado y vísperas de Festivo"},"styleUrl":"#icon-503-DB4436","label-scale":0,"icon-opacity":1,"icon-color":"#db4436","icon-scale":1.1,"icon-offset":[16,32],"icon-offset-units":["pixels","insetPixels"],"icon":"https://www.gstatic.com/mapspro/images/stock/503-wht-blank_maps.png"}},{"type":"Feature","geometry":{"type":"Point","coordinates":[-3.597615,37.177663,0]},"properties":{"name":"Control de accesos C/Elvira","description":{"@type":"html","value":"Control de accesos de Calle Elvira<br>Control de accesos situado en Calle Elvira a la altura de Calderería Nueva.<br>Desvío para vehículos no autorizados por C/Cárcel Baja<br><br>Horario:<br>7:30 a 24:00 de Lunes a Jueves<br>24 horas de Viernes a Domingo, vísperas de Festivo y Festivos"},"styleUrl":"#icon-503-DB4436","label-scale":0,"icon-opacity":1,"icon-color":"#db4436","icon-scale":1.1,"icon-offset":[16,32],"icon-offset-units":["pixels","insetPixels"],"icon":"https://www.gstatic.com/mapspro/images/stock/503-wht-blank_maps.png"}},{"type":"Feature","geometry":{"type":"Point","coordinates":[-3.597035,37.176159,0]},"properties":{"name":"Control de Accesos de  C/Reyes Católicos","description":{"@type":"html","value":"Control de Accesos de Calle Reyes Católicos.<br>Cámara de captación de matrículas situada en Calle Reyes Católicos a la altura de Calle Sancti Spiritus.<br>Desvío alternativo por la calle Sancti Spiritus para los vehículos no autorizados.<br><br><br>Horario:<br>7:30 a 24:00 de Lunes a Jueves<br>24 horas de Viernes a Domingo, vísperas de Festivo y Festivos"},"styleUrl":"#icon-503-DB4436","label-scale":0,"icon-opacity":1,"icon-color":"#db4436","icon-scale":1.1,"icon-offset":[16,32],"icon-offset-units":["pixels","insetPixels"],"icon":"https://www.gstatic.com/mapspro/images/stock/503-wht-blank_maps.png"}},{"type":"Feature","geometry":{"type":"Point","coordinates":[-3.602357,37.176197,0]},"properties":{"name":"Control Acceso C/Tablas","description":{"@type":"html","value":"Control de Acceso al Centro situado en Calle Tablas.<br><br>Horario:<br><br>Días laborales.<br>Mañana: 8 a 14 h.<br>Tarde: 16 a 20 h."},"styleUrl":"#icon-503-DB4436","label-scale":0,"icon-opacity":1,"icon-color":"#db4436","icon-scale":1.1,"icon-offset":[16,32],"icon-offset-units":["pixels","insetPixels"],"icon":"https://www.gstatic.com/mapspro/images/stock/503-wht-blank_maps.png"}},{"type":"Feature","geometry":{"type":"Point","coordinates":[-3.596671,37.174799,0]},"properties":{"name":"Control de Acceso C/San Matías","description":{"@type":"html","value":"Control de Acceso al barrio del Realejo situado en la Calle San Matías<br><br>Horario:<br><br>Todos los días de 7:30 a 22 horas"},"styleUrl":"#icon-503-DB4436","label-scale":0,"icon-opacity":1,"icon-color":"#db4436","icon-scale":1.1,"icon-offset":[16,32],"icon-offset-units":["pixels","insetPixels"],"icon":"https://www.gstatic.com/mapspro/images/stock/503-wht-blank_maps.png"}},{"type":"Feature","geometry":{"type":"Point","coordinates":[-3.602357,37.172047,0]},"properties":{"name":"Control de Acceso C/Recogidas","description":{"@type":"html","value":"Control de Acceso en la Calle Recogidas<br><br>Horario:<br><br>Todos los días de 7:30 a 22:00 horas"},"styleUrl":"#icon-503-DB4436","label-scale":0,"icon-opacity":1,"icon-color":"#db4436","icon-scale":1.1,"icon-offset":[16,32],"icon-offset-units":["pixels","insetPixels"],"icon":"https://www.gstatic.com/mapspro/images/stock/503-wht-blank_maps.png"}},{"type":"Feature","geometry":{"type":"Point","coordinates":[-3.594997,37.177449,0]},"properties":{"name":"Carrera del Darro","description":{"@type":"html","value":"Calle peatonal.<br>Acceso exclusivo para residentes y clientes de hotel de la calle y calles adyacentes no accesibles por otras vías.<br>Funcionamiento de la cámara de 24 horas."},"styleUrl":"#icon-503-DB4436","label-scale":0,"icon-opacity":1,"icon-color":"#db4436","icon-scale":1.1,"icon-offset":[16,32],"icon-offset-units":["pixels","insetPixels"],"icon":"https://www.gstatic.com/mapspro/images/stock/503-wht-blank_maps.png"}},{"type":"Feature","geometry":{"type":"Point","coordinates":[-3.599479,37.169317,0]},"properties":{"name":"San Antón\n","description":{"@type":"html","value":"Calle de prioridad peatonal.<br>Acceso exclusivo para residentes y clientes de hotel de la calle y calles adyacentes no accesibles por otras vías, así como clientes del parking Victoria. <br>Funcionamiento de la cámara de 24 horas."},"styleUrl":"#icon-503-DB4436","label-scale":0,"icon-opacity":1,"icon-color":"#db4436","icon-scale":1.1,"icon-offset":[16,32],"icon-offset-units":["pixels","insetPixels"],"icon":"https://www.gstatic.com/mapspro/images/stock/503-wht-blank_maps.png"}},{"type":"Feature","geometry":{"type":"Point","coordinates":[-3.586983,37.168695,0]},"properties":{"name":"Paseo de las Palmas\n","styleUrl":"#icon-503-DB4436-nodesc","label-scale":0,"icon-opacity":1,"icon-color":"#db4436","icon-scale":1.1,"icon-offset":[16,32],"icon-offset-units":["pixels","insetPixels"],"icon":"https://www.gstatic.com/mapspro/images/stock/503-wht-blank_maps.png"}}]}